Name,Address,lat,lon
"
セブンイレブン 衆議院第一議員会館店
",東京都千代田区永田町2丁目2番1号,35.6745788,139.743009
"
セブンイレブン 丸の内二重橋ビル店
",東京都千代田区丸の内3丁目2-2,35.6780968,139.7611527
"
ニューデイズ御茶ノ水
",東京都千代田区神田駿河台2丁目6-1,35.6996952,139.763783
"
cisca岩本町店
",東京都千代田区岩本町2丁目4-5,35.6941771,139.7755102
"
ニューデイズ飯田橋1号
",東京都千代田区飯田橋4丁目10-2,35.7020741,139.7450226
"
ciscaグラントウキョウ店
",東京都千代田区丸の内1丁目9-1,35.6817299,139.7661852
"
ニューデイズ神田南口
",東京都千代田区鍛冶町2丁目13-1,35.691666,139.7708646
"
ニューデイズグランスタ八重洲八重洲北口
",東京都千代田区丸の内1丁目9-1,35.6817299,139.7661852
"
生活彩家日比谷U-1ビル店
",東京都千代田区内幸町1丁目1-7,35.6717988,139.7576868
"
ニューデイズ神田北口
",東京都千代田区鍛冶町2丁目13-1,35.691666,139.7708646
"
NEWDAYS(ニューデイズ) 東京八重洲中央店
",東京都千代田区丸の内1 東京駅改札内,35.68123620000001,139.7671248
"
セブン-イレブン ワテラス店
",東京都千代田区神田淡路町2-105 ワテラス 3F,35.6976572,139.7680187
"
Family Mart(ファミリーマート) 東京家庭裁判所内店
",東京都千代田区霞が関1-1-2,35.674696,139.7539486
"
ファミマ東京ガーデンテラス店
",東京都千代田区紀尾井町1-2 東京ガーデンテラス紀尾井町 2F,35.6795169,139.7370977
"
NewDays KIOSK(ニューデイズキオスク) グランスタ店
",東京都千代田区丸の内1-9-1 JR東日本東京駅構内B1F改札内 GRANSTA,35.681343,139.766874
"
NEWDAYS(ニューデイズ) 水道橋東口店
",東京都千代田区三崎町2 水道橋駅東口改札外,35.7020484,139.7535016
"
NEWDAYS(ニューデイズ) 有楽町中央店
",東京都千代田区有楽町2 JR有楽町駅中央口改札内,35.6749187,139.7628199
"
NEWDAYS(ニューデイズ) 飯田橋1号店
",東京都千代田区飯田橋4-10-2 飯田橋駅東口改札外正面,35.7020837,139.7450232
"
NEWDAYSMINI(ニューデイズミニ) 京葉2B店
",東京都千代田区丸の内3 東京駅京葉地下3・4番線ホーム内(丸の内方面),35.68123620000001,139.7671248
"
NEWDAYSMINI(ニューデイズミニ) 京葉2A店
",東京都千代田区丸の内3 東京駅京葉地下3・4番線ホーム内(八丁堀方面),35.68123620000001,139.7671248
"
NEWDAYSMINI(ニューデイズミニ) 京葉1B店
",東京都千代田区丸の内3東京駅京葉地下1・2番線ホーム(丸の内方面),35.68123620000001,139.7671248
"
NEWDAYSMINI(ニューデイズミニ) 京葉1A店
",東京都千代田区丸の内3東京駅京葉地下1・2番線ホーム(八丁堀方面),35.68123620000001,139.7671248
"
NEWDAYSMINI(ニューデイズミニ) 東ホ3A店
",東京都千代田区丸の内1 東京駅東海道線7・8番線ホーム(新橋方面),35.68123620000001,139.7671248
"
NEWDAYSMINI(ニューデイズミニ) 改札13号店
",東京都千代田区丸の内1 東京駅北自由通路3・4番線ホーム上り口,35.68123620000001,139.7671248
"
NEWDAYSMINI(ニューデイズミニ) 丸地下7号店
",東京都千代田区丸の内1 東京駅丸の内地下4階改札内,35.681343,139.766874
"
NEWDAYSMINI(ニューデイズミニ) 丸地下2A店
",東京都千代田区丸の内1 東京駅総武線地下3・4番線ホーム中央,35.68123620000001,139.7671248
"
NEWDAYS(ニューデイズ) 東京店
",東京都千代田区丸の内1 東京駅丸の内地下北口改札外,35.6807747,139.7646025
"
NEWDAYS(ニューデイズ) 東京京葉ストリート店
",東京都千代田区丸の内1 東京駅八重洲南改札内京葉ストリート内,35.6801861,139.7669692
"
NewDays(ニューデイズ) グランスタ八重洲北口店
",東京都千代田区丸の内1-9-1 JR東日本東京駅構内B1F改札外 GRANSTA,35.681343,139.766874
"
NewDays(ニューデイズ) グランスタ丸の内南口店
",東京都千代田区丸の内1-9-1 JR東日本東京駅構内B1F改札外 GRANSTA MARUNOUCHI,35.681343,139.766874
"
NEWDAYS MINI(ニューデイズミニ) 秋葉原1号店
",東京都千代田区外神田1 秋葉原駅5番線総武線上りホーム中央,35.698383,139.7730717
"
NEWDAYSMINI(ニューデイズミニ) 秋葉原3号店
",東京都千代田区神田佐久間町1 秋葉原駅昭和通口改札外,35.697892,139.774749
"
NEWDAYS(ニューデイズ) 市ヶ谷店
",東京都千代田区五番町 市ヶ谷駅構内改札正面,35.6910121,139.7355674
"
NEWDAYS(ニューデイズ) 水道橋店
",東京都千代田区三崎町2丁目 水道橋駅西口,35.7020484,139.7535016
"
NEWDAYSMINI(ニューデイズミニ) 東ホ5C店
",東京都千代田区丸の内1-9 東京駅20・21番線ホーム内(神田方面),35.68123620000001,139.7671248
"
セブン-イレブン YURAKUCHO ITOCiA店
",東京都千代田区有楽町2-7-1 YURAKUCHO ITOCiA・イトシアフードアベニューB1F,35.6741871,139.763217
"
ポプラ 麹町店
",東京都千代田区麹町6-2-1 麹町サイトビル 1F,35.6851487,139.733212
"
ポプラ 三崎町1丁目店
",東京都千代田区三崎町1-1-17 ハヤシビル,35.7003519,139.7568824
"
スリーエイト 神田東店
",東京都千代田区神田東松下町27,35.6948572,139.7734134
"
生活彩家 霞が関ビル店
",東京都千代田区霞が関3-2-5 霞が関ビル 3F,35.671183,139.7472406
"
生活彩家 日本ビルディング店
",東京都千代田区大手町2-6-2 日本ビルヂング地下1F,35.6851565,139.7692878
"
生活彩家 アーバンネット大手町店
",東京都千代田区大手町2-2-2 アーバンネット大手町ビル地下1F,35.6858057,139.7670901
"
生活彩家 九段南1丁目店
",東京都千代田区九段南1-2 九段第三合同庁舎10F,35.6940427,139.7536153
"
生活彩家 秋葉原駅前店
",東京都千代田区神田佐久間町1-6-5,35.69789859999999,139.7737142
"
生活彩家 神田錦町店
",東京都千代田区神田錦町3-15,35.6917921,139.7615225
"
生活彩家 日比谷シティ店
",東京都千代田区内幸町2-2-3 日比谷国際ビルディング1F,35.6703345,139.7544269
"
生活彩家 御茶の水駅前店
",東京都千代田区神田駿河台2-10 駿台興業ビル1F,35.6989386,139.764274
"
生活彩家 NBF日比谷ビル店
",東京都千代田区内幸町1-1-7,35.6717988,139.7576868
"
ファミマ サウスタワー店
",東京都千代田区丸の内1-9-2,35.6786371,139.7673746
"
ファミリーマート ホテルニュー神田店
",東京都千代田区神田淡路町2-10,35.697203,139.768254
"
ファミマ 秋葉原UDX店
",東京都千代田区外神田4-14-1,35.7005674,139.7727147
"
ファミマ 東京ガーデンテラス店
",東京都千代田区紀尾井町1-3,35.6795844,139.7368974
"
ローソン 岩本町三丁目店
",東京都千代田区岩本町3-7-16,35.69572369999999,139.7778132
"
ローソン 麹町五丁目店
",東京都千代田区麹町5-1,35.6838031,139.7345151
"
ローソン 丸の内仲通りビル店
",東京都千代田区丸の内2-2-3,35.6801535,139.7625659
"
ローソン 九段北目白通店
",東京都千代田区九段北1-11-5,35.6970228,139.751113
"
ローソン 丸の内国際ビル店
",東京都千代田区丸の内3-1-1,35.6767601,139.7611088
"
ローソン JPローソン東京逓信病院店
",東京都千代田区富士見2-14-23,35.6975818,139.7432554
"
ローソン 丸の内二重橋前店
",東京都千代田区丸の内2-3-1,35.6811442,139.7624955
"
ローソン 秋葉原北口店
",東京都千代田区神田練塀町55,35.7006127,139.7747782
"
ローソン 合同庁舎第7号館店
",東京都千代田区霞が関3-2-2 中央合同庁舎第7号館,35.6717464,139.7479988
"
ローソン 西神田二丁目店
",東京都千代田区西神田2-5-2,35.6986081,139.7543341
"
ローソン 有楽町一丁目店
",東京都千代田区有楽町1-7-1,35.6747724,139.762812
"
ローソン 丸の内パークビル店
",東京都千代田区丸の内2-6-1,35.6785703,139.7625325
"
ローソン 神田駿河台一丁目店
",東京都千代田区神田駿河台1-6-5,35.6970238,139.7633662
"
ローソン 麹町二丁目店
",東京都千代田区麹町2-7-3,35.6835033,139.7411211
"
ローソン 内幸町一丁目店
",東京都千代田区内幸町1-3-3,35.6693995,139.7569121
"
ローソン 大手センタービル店
",東京都千代田区大手町1-1-3,35.6859664,139.7627356
"
ローソン 神田駅東口店
",東京都千代田区鍛冶町2-2-9,35.6915297,139.7714662
"
ローソン 神田神保町二丁目店
",東京都千代田区神田神保町2-4-7,35.6961006,139.7562699
"
ローソン 永田町一丁目店
",東京都千代田区永田町1-11-28,35.6786026,139.7408949
"
ローソン 九段北一丁目店
",東京都千代田区九段北1-5-10,35.6964874,139.7520956
"
ナチュラルローソン 新東京ビル店
",東京都千代田区丸の内3-3-1,35.6775033,139.7629532
"
ナチュラルローソン 大手町ビル店
",東京都千代田区大手町1-6-1,35.6863979,139.7648547
"
ローソン 神保町メトロピア店
",東京都千代田区神田神保町2-2 半蔵門線神保町駅構内,35.69594,139.7578428
"
ナチュラルローソン 日比谷メトロピア店
",東京都千代田区有楽町1-5-1先 千代田線日比谷駅構内,35.6748881,139.7595952
"
ナチュラルローソン 大手町メトロピア店
",東京都千代田区大手町1-6-1 千代田線大手町駅構内,35.685144,139.76302
"
ナチュラルローソン 大手町西メトロピア店
",東京都千代田区大手町1-6-1 半蔵門線大手町駅構内,35.6869073,139.7636527
"
ナチュラルローソン 新霞が関ビル店
",東京都千代田区霞が関3-3-2,35.6719731,139.7465743
"
ナチュラルローソン 丸の内ビルディング店
",東京都千代田区丸の内2-4-1,35.6809759,139.7637838
"
ナチュラルローソン 都営地下鉄市ヶ谷店
",東京都千代田区九段南4-8-22,35.6922069,139.736704
"
ナチュラルローソン NL丸の内マイプラザ店
",東京都千代田区丸の内2-1-1,35.6788422,139.7620664
"
ナチュラルローソン 大手町フィナンシャルシティノース店
",東京都千代田区大手町1-9-5,35.6882501,139.7661584
"
ナチュラルローソン S大手町フィナンシャルシティサウス店
",東京都千代田区大手町1-9-7,35.687691,139.7658185
"
ローソン H新大手町ビル店
",東京都千代田区大手町2-2-1,35.6849169,139.7671082
"
ローソン H神田駿河台店
",東京都千代田区神田駿河台2-5-4,35.7000136,139.7616651
"
ナチュラルローソン NL飯田橋三丁目店
",東京都千代田区飯田橋3-6-5,35.70161,139.7466451
"
ローソン 三崎町二丁目店
",東京都千代田区神田三崎町2-17-2,35.7012761,139.7534117
"
ナチュラルローソン NL千代田三番町店
",東京都千代田区三番町6-4,35.6911446,139.7454682
"
ナチュラルローソン NL平河町森タワー店
",東京都千代田区平河町2-16-1,35.6796367,139.7414921
"
ローソン 神田錦町二丁目店
",東京都千代田区神田錦町2-4-1,35.6938811,139.7636759
"
ローソンサテライト JA共済ビル店
",東京都千代田区平河町2-7-9,35.6807284,139.7399811
"
ナチュラルローソン 千代田四番町店
",東京都千代田区四番町6,35.6890923,139.7357099
"
ローソン TEKKO avenue店
",東京都千代田区丸の内1-8-2,35.6823037,139.7697832
"
ナチュラルローソン TEKKO avenue店
",東京都千代田区丸の内1-8-2,35.6823037,139.7697832
"
ローソン 神田明神店
",東京都千代田区外神田2-5-15,35.7000136,139.7688233
"
ナチュラルローソン NLS帝劇ビル店
",東京都千代田区丸の内3-1-1,35.6767601,139.7611088
"
ローソン 内神田二丁目店
",東京都千代田区内神田2-10-12,35.6908039,139.7679131
"
ナチュラルローソン NL神田鍛冶町二丁目店
",東京都千代田区鍛冶町2-3-2,35.6911933,139.7723309
"
ローソン JPローソン東京中央局店
",東京都千代田区丸の内2-7-2JPタワー地下1,35.6801314,139.7647665
"
ローソン 外神田三丁目店
",東京都千代田区外神田3-1-10,35.7001767,139.7703211
"
ローソン 大手町二丁目店
",東京都千代田区大手町2-3-5,35.687803,139.7677823
"
ローソン JPローソンJPタワー6F店
",東京都千代田区丸の内2-7-2JPタワー6階,35.6795886,139.7647868
"
ローソン 飯田橋サクラテラス店
",東京都千代田区富士見2-10-2,35.6984525,139.7433883
"
ローソン 内神田三丁目店
",東京都千代田区内神田3-5-1,35.6905521,139.769319
"
ローソン THE KAITEKIビル店
",東京都千代田区内神田1-13-4,35.6911399,139.7649202
"
ナチュラルローソン 日本大学病院店
",東京都千代田区神田駿河台1-6,35.697346,139.762752
"
ローソンサテライト JPタワー丸の内よろず店
",東京都千代田区丸の内2-7-2,35.6798453,139.7647288
"
ローソン 神田神保町白山通り店
",東京都千代田区神田神保町2-16-2,35.6972855,139.7572207
"
ローソン 千代田神田錦町三丁目店
",東京都千代田区神田錦町3-4-2,35.6931387,139.7624296
"
ローソン 千代田一番町店
",東京都千代田区一番町4-6,35.6884361,139.7434659
"
ローソン 大手町フィナンシャルシティグランキューブ店
",東京都千代田区大手町1-9-2,35.6887808,139.764566
"
ローソン 千代田富士見二丁目店
",東京都千代田区富士見2-12-11,35.6985839,139.7440754
"
ローソン 新有楽町ビル店
",東京都千代田区有楽町1-12-1,35.6755718,139.7619711
"
ローソン メトロス秋葉原店
",東京都千代田区神田佐久間町1-21日比谷線秋葉原駅構内,35.697874,139.775538
"
ナチュラルローソン 日比谷国際ビル店
",東京都千代田区内幸町2-2-3,35.6703262,139.754314
"
ローソン メトロス飯田橋店
",東京都千代田区飯田橋4-10-3東西線飯田橋駅構内,35.7020837,139.7450232
"
ローソン 秋葉原スクエア店
",東京都千代田区神田練塀町85,35.7013431,139.774846
"
ローソンサテライト  JOB HUB SQUARE店
",東京都千代田区大手町2-6-2,35.6849193,139.769357
"
ローソン・スリーエフ 万世本店
",東京都千代田区神田須田町2-21,35.696593,139.771129
"
ローソン・スリーエフ エドモント店
",東京都千代田区飯田橋3-10-8,35.7008451,139.7491321
"
ローソン MC FOREST店
",東京都千代田区丸の内2-3-1,35.6811442,139.7624955
"
ローソン JPローソン大手町プレイス2F店
",東京都千代田区大手町2-3-1,35.6868588,139.7674372
"
ローソン 末広町駅前店
",東京都千代田区外神田6-14-2,35.7032799,139.7712772
"
ファミリーマート 東京高等裁判所内店
",東京都千代田区霞が関1丁目1-4地下1階,35.6752239,139.7527518
"
ファミリーマート ファミマサピアタワー店
",東京都千代田区丸の内1-7-12,35.6837175,139.7684826
"
ファミリーマート 経済産業省店
",東京都千代田区霞が関1丁目3番1号経済産業省庁舎内,35.6713101,139.7519454
"
ファミリーマート 東京家庭裁判所内店
",東京都千代田区霞が関1丁目1-2,35.674696,139.7539486
"
ファミリーマート ファミマ東京ガーデンテラス店
",東京都千代田区紀尾井町1-2,35.6799926,139.7379363
"
ファミリーマート 紀尾井町店
",東京都千代田区紀尾井町3-33,35.6811802,139.7380955
"
ファミリーマート ホテルマイステイズ御茶ノ水店
",東京都千代田区神田淡路町2-10,35.697203,139.768254
"
ファミリーマート お茶の水明大通り店
",東京都千代田区神田駿河台1丁目8-10,35.6981531,139.7626707
"
ファミリーマート 神田神保町一丁目店
",東京都千代田区神田神保町1丁目29-3すずらんビル1階,35.6949388,139.7595366
"
ファミリーマート 御茶ノ水駅前店
",東京都千代田区神田駿河台2-1,35.6994776,139.7652126
"
ファミリーマート 秋葉原駅中央口前店
",東京都千代田区神田佐久間町1丁目13,35.6978466,139.7742064
"
ファミリーマート 有楽町駅前店
",東京都千代田区有楽町2丁目8-4,35.6743972,139.7629432
"
ファミリーマート 神田駅東口店
",東京都千代田区鍛冶町2-7-1,35.692274,139.7717653
"
ファミリーマート 内神田二丁目店
",東京都千代田区内神田2丁目15番11号翔和神田ビル1F,35.6920741,139.7681232
"
ファミリーマート ファミマ霞が関ビルディング店
",東京都千代田区霞が関3丁目2-5 霞が関ビルディング,35.671183,139.7472406
"
ファミリーマート 五番町店
",東京都千代田区五番町4番1号,35.6904257,139.7355457
"
ファミリーマート 御茶ノ水駅南店
",東京都千代田区神田駿河台2丁目2番4号,35.6990547,139.7639942
"
ファミリーマート 三井住友信託銀行本店ビル店
",東京都千代田区丸の内1丁目4番1号,35.68435600000001,139.764932
"
ファミリーマート 薬ヒグチ淡路町店
",東京都千代田区神田小川町1丁目1-16,35.6948538,139.767005
"
ファミリーマート 水道橋西通り店
",東京都千代田区三崎町3丁目7-1 金沢ビル1階,35.701331,139.7521722
"
ファミリーマート OOTEMORI店
",東京都千代田区大手町1丁目5番5号,35.6855124,139.7653975
"
ファミリーマート 九段北一丁目店
",東京都千代田区九段北1-3-5,35.6961588,139.751449
"
ファミリーマート ファミマサウスタワー店
",東京都千代田区丸の内1-9-2グラントウキョウサウスタワ-地下1階,35.6786336,139.7673735
"
ファミリーマート 内神田一丁目店
",東京都千代田区内神田1丁目15-2 神田オーシャンビル,35.6915859,139.765787
"
ファミリーマート ファーマライズ薬局末広町店
",東京都千代田区外神田6-15-11,35.7041628,139.7715715
"
ファミリーマート 飯田橋三丁目店
",東京都千代田区飯田橋3丁目2-2,35.7003955,139.7486452
"
ファミリーマート 東神田二丁目店
",東京都千代田区東神田2-10-17,35.6955904,139.7808216
"
ファミリーマート 三崎神社通り店
",東京都千代田区三崎町2丁目7-10,35.7003279,139.7545765
"
ファミリーマート ワテラスタワー前店
",東京都千代田区神田淡路町2-3,35.696598,139.7674643
"
ファミリーマート テラススクエア店
",東京都千代田区神田錦町3丁目22番地,35.6934787,139.7601965
"
ファミリーマート 丸の内オアゾ店
",東京都千代田区丸の内1丁目6-4 オアゾショップB1,35.6825941,139.7659216
"
ファミリーマート 神田駿河台三丁目店
",東京都千代田区神田駿河台3-5-4-101,35.695847,139.76388
"
ファミリーマート FUNDES神保町店
",東京都千代田区神田神保町1丁目8番,35.6961848,139.758809
"
ファミリーマート 神田佐久間町店
",東京都千代田区神田佐久間町4-10,35.6974579,139.7798156
"
ファミリーマート ファミマ大手門タワー店
",東京都千代田区大手町1丁目1番2号,35.6860641,139.7619933
"
ファミリーマート 飯田橋プラーノ店
",東京都千代田区富士見2丁目7-2,35.7010261,139.7450049
"
ファミリーマート ファミマ大手町パークビル店
",東京都千代田区大手町1丁目1-1,35.6867239,139.7626214
"
ファミリーマート 飯田橋二丁目店
",東京都千代田区飯田橋2-6-6,35.69904,139.7496819
"
ファミリーマート パレスサイドビル店
",東京都千代田区一ツ橋1丁目1-1 パレスサイドビル,35.6909673,139.757443
"
ファミリーマート ファミマ!!秋葉原UDX店
",東京都千代田区外神田4丁目14-1秋葉原UDX 5F,35.7005285,139.772797
"
ファミリーマート 朝日生命大手町ビル店
",東京都千代田区大手町2丁目6-1 朝日生命大手町ビル,35.6845034,139.7689189
"
ファミリーマート 西神田二丁目店
",東京都千代田区西神田2丁目8-1,35.6990833,139.7561687
"
ファミリーマート 秋葉原富士ソフトビル店
",東京都千代田区神田練塀町3番地富士ソフトビル1F,35.7003056,139.7740739
"
ファミリーマート 外神田一丁目店
",東京都千代田区外神田1丁目7番-5,35.6995807,139.7702099
"
ファミリーマート 水道橋駅西口店
",東京都千代田区三崎町2-20-4,35.7016223,139.7531783
"
ファミリーマート 丸の内トラストタワー店
",東京都千代田区丸の内1ー8-1丸の内トラストタワーN館,35.6832253,139.7697606
"
ファミリーマート 神田駅北店
",東京都千代田区内神田3-23-7,35.6925296,139.7696987
"
ファミリーマート 千代田富士見二丁目店
",東京都千代田区富士見2丁目2-6,35.6992192,139.7452164
"
ファミリーマート 六番町日テレ前店
",東京都千代田区六番町1,35.6878731,139.7358477
"
ファミリーマート 神田和泉町店
",東京都千代田区神田和泉町1-4-7,35.7003535,139.7768531
"
ファミリーマート ファミマ御茶ノ水ソラシティ店
",東京都千代田区神田駿河台4丁目6番地,35.6986943,139.7663189
"
ファミリーマート ファーストスクエアEAST店
",東京都千代田区大手町1丁目5番1号大手町ファーストスクエア1階,35.6857768,139.7640245
"
ファミリーマート PCP丸の内店
",東京都千代田区丸の内1丁目11番1号,35.6780328,139.7669527
"
ファミリーマート 市ヶ谷店
",東京都千代田区九段北4-2-11,35.6916574,139.7372479
"
ファミリーマート 秋葉原駅前店
",東京都千代田区神田佐久間町2-20-2 翔和秋葉原ビル,35.6986098,139.7763305
"
ファミリーマート 専大通り店
",東京都千代田区神田神保町3丁目12-3,35.6962832,139.7548421
"
ファミリーマート 神田多町店
",東京都千代田区神田多町2-4,35.6933236,139.7693612
"
ファミリーマート 神田西口店
",東京都千代田区内神田3-8-8,35.6909666,139.7698276
"
ファミリーマート 神田鍛冶町店
",東京都千代田区鍛冶町1丁目7-4,35.6904549,139.7710671
"
ファミリーマート 神田司町店
",東京都千代田区神田司町2丁目2-13,35.6923377,139.7676681
"
ファミリーマート 半蔵門駅南店
",東京都千代田区隼町2-17,35.6833006,139.7418451
"
ファミリーマート 都営小川町店
",東京都千代田区神田小川町1-6都営新宿線小川町駅地下1階,35.6951799,139.7668774
"
ファミリーマート 秋葉原ラジオ会館店
",東京都千代田区外神田1丁目15番16号,35.6978895,139.7719412
"
ファミリーマート 内神田鎌倉橋店
",東京都千代田区内神田1丁目6番6号,35.6899135,139.7662961
"
ファミリーマート 飯田橋駅前店
",東京都千代田区飯田橋4丁目8番13号,35.7014315,139.7460564
"
ファミリーマート 西神田三丁目店
",東京都千代田区西神田3丁目5番1号,35.6979284,139.7533853
"
ファミリーマート 神田駅北口店
",東京都千代田区内神田3丁目20番7号,35.6927319,139.7709254
"
ファミリーマート 外神田三丁目東店
",東京都千代田区外神田3丁目14番地3号,35.7012641,139.7711822
"
ファミリーマート 神田万世橋店
",東京都千代田区神田須田町1丁目25番地,35.6969308,139.7701555
"
ファミリーマート 神田須田町二丁目店
",東京都千代田区神田須田町2丁目3-1,35.6959507,139.7718937
"
ファミリーマート 永田町店
",東京都千代田区永田町2丁目14番2号,35.6764465,139.7382184
"
ファミリーマート 神田三崎町二丁目店
",東京都千代田区神田三崎町2丁目18番5号,35.7011823,139.7527301
"
ファミリーマート ファーストスクエア店
",東京都千代田区大手町1丁目5-1,35.6857035,139.7637435
"
ファミリーマート 東京国際フォーラム店
",東京都千代田区丸の内3丁目5-1,35.67675150000001,139.7635274
"
ファミリーマート 紀尾井町ビル店
",東京都千代田区紀尾井町3-12紀尾井町ビル,35.68235689999999,139.7367421
"
ファミリーマート 都道府県会館店
",東京都千代田区平河町2丁目6-3,35.6791739,139.7389316
"
ファミリーマート 神田淡路町二丁目店
",東京都千代田区神田淡路町2丁目23,35.6969707,139.766426
"
ファミリーマート 三崎町三丁目店
",東京都千代田区三崎町3丁目6-9,35.701779,139.7512439
"
ファミリーマート 東京サンケイビル店
",東京都千代田区大手町1丁目7-2,35.6870165,139.7654385
"
ファミリーマート 秋葉原昭和通り店
",東京都千代田区神田松永町1番地,35.6990411,139.7751496
"
ファミリーマート 水道橋駅東口店
",東京都千代田区三崎町2丁目9-18,35.7014547,139.7547983
"
ファミリーマート 麹町一丁目店
",東京都千代田区麹町1丁目8-2,35.6848943,139.7416989
"
ファミリーマート 半蔵門駅前店
",東京都千代田区一番町25,35.6861228,139.7425823
"
ファミリーマート 麹町駅前店
",東京都千代田区麹町4丁目8,35.684812,139.7371767
"
ファミリーマート 外神田四丁目店
",東京都千代田区外神田4丁目6-1,35.7020482,139.7719237
"
ファミリーマート 一番町店
",東京都千代田区一番町13-3,35.6866672,139.7410148
"
ファミリーマート FAMIMAfactory店
",東京都千代田区丸の内1丁目6-4オアゾショップB1,35.6825941,139.7659216
"
ファミリーマート 神田鍛冶町三丁目店
",東京都千代田区神田鍛冶町3丁目6-7,35.694221,139.7709042
"
ファミリーマート 東京海上日動ビル店
",東京都千代田区丸の内1丁目2-1,35.6831182,139.7632777
"
ファミリーマート 霞ヶ関合同庁舎店
",東京都千代田区霞が関2丁目1-2中央合同庁舎B1F,35.675644,139.7513876
"
ファミリーマート 内幸町富国生命ビル店
",東京都千代田区内幸町2丁目2-2,35.67060010000001,139.7552287
"
ファミリーマート 九段下駅西店
",東京都千代田区九段南2丁目2-8,35.6943361,139.7472077
"
ファミリーマート 神田岩本町一丁目店
",東京都千代田区岩本町1丁目3-1,35.6916736,139.7751367
"
ファミリーマート 紀尾井町三番地店
",東京都千代田区紀尾井町3-20,35.6828398,139.7380588
"
ファミリーマート 麹町二丁目店
",東京都千代田区麹町2丁目5-4,35.6834507,139.7404475
"
ファミリーマート 千代田小川町店
",東京都千代田区神田小川町2丁目4-17,35.69473139999999,139.7636048
"
ファミリーマート 麹町三丁目店
",東京都千代田区麹町3丁目2,35.6843373,139.7388177
"
ファミリーマート 日比谷中日ビル店
",東京都千代田区内幸町2丁目1-4,35.6713746,139.7533423
"
ファミリーマート ガーデンコート店
",東京都千代田区紀尾井町4-1,35.6809101,139.7340409
"
ファミリーマート 山王パークタワー店
",東京都千代田区永田町2丁目11-1,35.673084,139.7406682
"
ファミリーマート 丸の内新国際ビル店
",東京都千代田区丸の内3丁目4-1,35.6764213,139.7620932
"
ファミリーマート 財務省本庁舎店
",東京都千代田区霞が関3丁目1-1,35.6725795,139.7491458
"
ファミリーマート TX秋葉原駅店
",東京都千代田区神田佐久間町1-6-10,35.6978698,139.7736772
"
ファミリーマート 神田須田町一丁目店
",東京都千代田区神田須田町1丁目8-4,35.6954922,139.7684364
"
ファミリーマート 神保町さくら通り店
",東京都千代田区神田神保町2丁目13,35.6954193,139.7573226
"
ファミリーマート 東京区政会館店
",東京都千代田区飯田橋3丁目5-1,35.7014445,139.7473736
"
ミニストップ 神田錦町3丁目店
",東京都千代田区神田錦町3-5-1,35.6927066,139.7595163
"
ミニストップ 神田錦町1丁目店
",東京都千代田区神田錦町1-1帝都神田ビル,35.6922831,139.7645291
"
ミニストップ 岩本町2丁目店
",東京都千代田区岩本町2-6-10,35.6935426,139.7764402
"
ミニストップ 九段南1丁目店
",東京都千代田区九段南1丁目5-5,35.6948796,139.7518847
"
ミニストップ 御茶ノ水駅前店
",東京都千代田区神田駿河台2-1-18,35.6997402,139.7627827
"
ミニストップ 飯田橋駅西口店
",東京都千代田区富士見2-11-9,35.6990753,139.7447953
"
ミニストップ 九段南4丁目店
",東京都千代田区九段南4丁目2-9,35.6910928,139.7395095
"
ミニストップ 神田神保町1丁目店
",東京都千代田区神田神保町1丁目2番地5,35.6963324,139.760113
"
ミニストップ 神田鍛冶町店
",東京都千代田区鍛冶町1丁目8番8号神田鍛冶町ビル,35.6910706,139.7733151
"
ミニストップ 神田富山町店
",東京都千代田区神田富山町5-1,35.6938996,139.7732572
"
ミニストップ 神田美土代町店
",東京都千代田区神田美土代町9-1,35.693723,139.7656256
"
ミニストップ cisca岩本町店
",東京都千代田区岩本町2丁目4番5号 インスタイルスクエア,35.6941589,139.7754718
"
ミニストップ ciscaグラントウキョウ店
",東京都千代田区丸の内1丁目9番1号 グラントウキョウノ-スタワ-17階,35.681473,139.7691718
"
ミニストップ cisca大手町プレイス店
",東京都千代田区大手町2-3-1 大手町プレイスウエストタワー14階,35.6867396,139.7667951
"
ミニストップ cisca双日S’cafe
",東京都千代田区内幸町2丁目1番1号 飯野ビルディング21階,35.6709214,139.7526701
"
ミニストップ cisca霞が関コモンゲート店
",東京都千代田区霞が関3丁目2-1,35.6717955,139.7479434
"
セブンイレブン 九段南大妻通り店
",東京都千代田区九段南3-1-1,35.692245,139.7434825
"
セブンイレブン 神田小川町2丁目店
",東京都千代田区神田小川町2-2-8,35.694763,139.7648763
"
セブンイレブン 千代田一ツ橋2丁目店
",東京都千代田区一ツ橋2-6-2,35.6942767,139.7561431
"
セブンイレブン 内神田1丁目店
",東京都千代田区内神田1-9-13,35.6908058,139.7669187
"
セブンイレブン 丸の内郵船ビル店
",東京都千代田区丸の内2-3-2,35.6815166,139.7627158
"
セブンイレブン 千代田区麹町4丁目店
",東京都千代田区麹町4-5,35.683294,139.7367533
"
セブンイレブン 7FS内幸町1丁目店
",東京都千代田区内幸町1-1-1,35.6721986,139.7588216
"
セブンイレブン 駿河台三楽病院店
",東京都千代田区神田駿河台2丁目5,35.6994165,139.7613512
"
セブンイレブン 内神田2丁目店
",東京都千代田区内神田2丁目2-1,35.6897841,139.7674993
"
セブンイレブン 特許庁店
",東京都千代田区霞ヶ関3-4-3,35.6709758,139.7454876
"
セブンイレブン 赤坂東急プラザ店
",東京都千代田区永田町2-14-3,35.6771745,139.7375005
"
セブンイレブン 千代田大神宮通り店
",東京都千代田区富士見2-4-6,35.6998029,139.7461714
"
セブンイレブン 神田和泉町店
",東京都千代田区神田和泉町1-3-4,35.70028,139.7758749
"
セブンイレブン 上智大学店
",東京都千代田区紀尾井町7-1,35.6833031,139.7317462
"
セブンイレブン 千代田平河町2丁目店
",東京都千代田区平河町2-7-2,35.6791053,139.7403868
"
セブンイレブン 千代田一番町店
",東京都千代田区一番町4-4,35.6874136,139.742106
"
セブンイレブン 秋葉原昭和通り店
",東京都千代田区神田佐久間町2-11,35.6978892,139.7763871
"
セブンイレブン 神田淡路町ワテラス店
",東京都千代田区神田淡路町2丁目105番地,35.697582,139.7679375
"
セブンイレブン 参議院議員会館店
",東京都千代田区永田町2-1-1,35.6766181,139.7424872
"
セブンイレブン 法政大学市ヶ谷キャンパス店
",東京都千代田区富士見2丁目17-1,35.69622760000001,139.7414364
"
セブンイレブン 千代田岩本町2丁目店
",東京都千代田区岩本町2-18-1,35.6932598,139.7780745
"
セブンイレブン 丸の内永楽ビル店
",東京都千代田区丸の内1-4-1,35.68435600000001,139.764932
"
セブンイレブン AIM三井住友海上駿河台ビル店
",東京都千代田区神田駿河台3-9,35.696691,139.764333
"
セブンイレブン 丸の内パレスビル店
",東京都千代田区丸の内1-1-1,35.6845001,139.7612211
"
セブンイレブン 麹町5丁目店
",東京都千代田区麹町5-3-5,35.6843676,139.7334227
"
セブンイレブン 衆議院第二議員会館店
",東京都千代田区永田町2丁目1番2号,35.6755049,139.7428706
"
セブンイレブン 八重洲地下街南店
",東京都中央区八重洲2丁目1番八重洲地下街南1号,35.6790857,139.7677527
"
セブンイレブン 神田須田町1丁目店
",東京都千代田区神田須田町1-2-3,35.6950186,139.7677818
"
セブンイレブン 外神田4丁目店
",東京都千代田区外神田4-7-7,35.7027031,139.7722668
"
セブンイレブン 神田神保町2丁目店
",東京都千代田区神田神保町2-2,35.6962498,139.7572421
"
セブンイレブン 千代田鍛冶町1丁目店
",東京都千代田区鍛冶町1-9-4,35.6905898,139.7724568
"
セブンイレブン 神田専大通り店
",東京都千代田区神田神保町2-38-1,35.6975888,139.7548286
"
セブンイレブン 丸の内センタービル店
",東京都千代田区丸の内1-6-1,35.68415,139.765755
"
セブンイレブン 神田錦町千代田通り店
",東京都千代田区神田錦町3丁目11番地,35.6921342,139.7605794
"
セブンイレブン 神田錦町3丁目店
",東京都千代田区神田錦町3-26,35.6933601,139.7594115
"
セブンイレブン AIM三井住友海上火災保険新館店
",東京都千代田区神田駿河台3-11-1,35.6971529,139.7646888
"
セブンイレブン 千代田鍛冶町2丁目店
",東京都千代田区鍛冶町2丁目9番8号,35.6932931,139.7722771
"
セブンイレブン 東急キャピトルタワー店
",東京都千代田区永田町2-10-3,35.6739689,139.7407736
"
セブンイレブン 新丸ビル店
",東京都千代田区丸の内1-5-1新丸の内ビルB1F,35.6826212,139.7642436
"
セブンイレブン 千代田三崎町白山通り店
",東京都千代田区神田三崎町2-1-18,35.6999391,139.755779
"
セブンイレブン 神田すずらん通り店
",東京都千代田区神田神保町1丁目5,35.6954591,139.7590785
"
セブンイレブン 秋葉原駅北店
",東京都千代田区神田練塀町3-3,35.6997757,139.7741362
"
セブンイレブン 千代田区麹町3丁目店
",東京都千代田区麹町3-5,35.6831204,139.7384884
"
セブンイレブン 7FS7&i本社ビル店
",東京都千代田区二番町8番地8,35.68575939999999,139.734069
"
セブンイレブン KDDI本社店
",東京都千代田区飯田橋3-10-10,35.7003223,139.7505414
"
セブンイレブン 千代田二番町店
",東京都千代田区二番町8-8,35.68575939999999,139.734069
"
セブンイレブン 丸の内ガーデンタワー店
",東京都千代田区丸の内1丁目1番3号,35.6844706,139.7622458
"
セブンイレブン リクルートサウスタワー店
",東京都千代田区丸の内1-9-2グラントウキョウサウ,35.6786336,139.7673735
"
セブンイレブン 大和ハウス九段ビル店
",東京都千代田区飯田橋2-18-2,35.6991422,139.7512723
"
セブンイレブン 秋葉原センタープレイス店
",東京都千代田区神田相生町1番,35.6992985,139.7738999
"
セブンイレブン 内幸町2丁目店
",東京都千代田区内幸町2-1-1,35.6708719,139.7525433
"
セブンイレブン パレスサイドビル店
",東京都千代田区一ツ橋1-1-1,35.6909195,139.7574614
"
セブンイレブン 読売新聞東京本社ビル店
",東京都千代田区大手町1-7-1,35.6871851,139.7645138
"
セブンイレブン 北の丸スクエア店
",東京都千代田区九段北1-13-12,35.6957428,139.7506155
"
セブンイレブン 有楽町イトシア店
",東京都千代田区有楽町2-7-1,35.6741124,139.7638503
"
セブンイレブン 飯田橋4丁目店
",東京都千代田区飯田橋4丁目1-11,35.7001409,139.7478636
"
セブンイレブン 飯田橋アイガーデンテラス店
",東京都千代田区飯田橋3-10-9,35.7010449,139.7502182
"
セブンイレブン 丸の内東京ビル店
",東京都千代田区丸の内2-7-3,35.6786068,139.7649357
"
セブンイレブン 神田神保町3丁目店
",東京都千代田区神田神保町3-2-6,35.6960147,139.7539998
"
セブンイレブン 日比谷駅前店
",東京都千代田区有楽町1-6-3,35.6739091,139.760673
"
セブンイレブン 麹町駅前店
",東京都千代田区二番町4-3,35.6863008,139.7364831
"
セブンイレブン 中央合同庁舎8号館店
",東京都千代田区永田町1-6-1,35.6729726,139.7456469
"
セブンイレブン 大手町カンファレンスセンター店
",東京都千代田区大手町1-3-2,35.6886625,139.7635533
"
セブンイレブン 有楽町駅前店
",東京都千代田区有楽町2-8-2,35.6742637,139.7627307
"
セブンイレブン 千代田五番町店
",東京都千代田区五番町1-9,35.6908205,139.7364361
"
セブンイレブン 東神田2丁目店
",東京都千代田区東神田2丁目5-12,35.6957428,139.7796962
"
セブンイレブン KDDI本社20階店
",東京都千代田区飯田橋3-10-10,35.7003223,139.7505414
"
セブンイレブン 大手町野村ビル店
",東京都千代田区大手町2-1-1,35.6851235,139.7661887
"
セブンイレブン KDDI大手町ビル店
",東京都千代田区大手町1-8-1,35.6877789,139.7643942
"
セブンイレブン 神田駅北口店
",東京都千代田区鍛冶町2-13-11,35.6918201,139.7707487
"
セブンイレブン 麹町日テレ通り店
",東京都千代田区麹町4丁目2番1号,35.684173,139.7374351
"
セブンイレブン 神田駅西口通り店
",東京都千代田区内神田2-9-9,35.6910661,139.768409
"
セブンイレブン 神田須田町中央通り店
",東京都千代田区神田須田町1丁目16番地,35.695538,139.770662
"
セブンイレブン 7FS中央合同庁舎6号館店
",東京都千代田区霞が関1-1-1,35.675861,139.7546813
"
セブンイレブン 市ヶ谷駅前店
",東京都千代田区五番町3番1,35.6904246,139.7359361
"
セブンイレブン 千代田岩本町1丁目店
",東京都千代田区岩本町1-7-1,35.6920618,139.7778227
"
セブンイレブン 九段北靖国通り店
",東京都千代田区九段北4-1-9,35.6923566,139.7394571
"
セブンイレブン 九段南3丁目店
",東京都千代田区九段南3丁目9-12,35.6924606,139.74155
"
セブンイレブン 千代田平河町1丁目店
",東京都千代田区平河町1-8-3,35.6827209,139.7416006
"
セブンイレブン 明治安田生命本社ビル店
",東京都千代田区丸の内2-1-1,35.6788422,139.7620664
"
セブンイレブン 神田鍛冶町3丁目店
",東京都千代田区神田鍛冶町3丁目4,35.6937535,139.771076
"
セブンイレブン 九段南靖国通り店
",東京都千代田区九段南2-3-23,35.6940505,139.746256
"
セブンイレブン 東京ミッドタウン日比谷ラウンジ店
",東京都千代田区有楽町1丁目1-2,35.6735772,139.7591755
"
セブンイレブン 東京ミッドタウン日比谷店
",東京都千代田区有楽町1丁目1-4,35.67409019999999,139.7595213
"
セブンイレブン 神田小川町3丁目店
",東京都千代田区神田小川町3-3,35.6949667,139.7616752
"
セブンイレブン 中央合同庁舎5号館店
",東京都千代田区霞が関1-2-2,35.6732448,139.753051
"
セブンイレブン 神田万世橋南店
",東京都千代田区神田須田町1-9,35.69494950000001,139.7681831
"
セブンイレブン プルデンシャルタワー店
",東京都千代田区永田町2-13-10,35.6760427,139.7387059
"
セブンイレブン 神田神保町1丁目店
",東京都千代田区神田神保町1-58-2,35.6985184,139.7570429
"
セブンイレブン 神田三崎町2丁目店
",東京都千代田区神田三崎町2丁目13番4号,35.7002417,139.7532895
"
セブンイレブン 日比谷パークフロント店
",東京都千代田区内幸町2-1-6,35.6708123,139.7536053
"
セブンイレブン 神田岩本町店
",東京都千代田区神田岩本町2-2,35.69268,139.7752721
"
セブンイレブン 神田駅南口店
",東京都千代田区鍛冶町2丁目1番3号,35.6910274,139.7711051
"
セブンイレブン NTTCom大手町プレイス店
",東京都千代田区大手町2-3-1,35.6868588,139.7674372
"
セブンイレブン 外神田2丁目妻恋坂店
",東京都千代田区外神田2-14-7,35.7027495,139.7693125
"
セブンイレブン 千代田三番町店
",東京都千代田区三番町1,35.68972900000001,139.7452844
"
セブンイレブン 千代田富士見1丁目店
",東京都千代田区富士見1-3-3,35.6979565,139.7465076
"
セブンイレブン 市ヶ谷駅西店
",東京都千代田区五番町2番9,35.6904338,139.7345737
"
セブンイレブン 神田錦町2丁目店
",東京都千代田区神田錦町2丁目7-5,35.6914943,139.7632899
"
セブンイレブン 住友商事竹橋ビル店
",東京都千代田区一ツ橋1-2-2,35.69207,139.7565561
"
セブンイレブン 九段北4丁目店
",東京都千代田区九段北4-2-2,35.6920601,139.7387174
"
セブンイレブン 神田錦町1丁目店
",東京都千代田区神田錦町1-8,35.6932531,139.7647417
"
デイリーヤマザキ 神田岩本町店
",東京都千代田区神田岩本町1,35.6931483,139.7789467
"
デイリーヤマザキ 岩本町和泉橋店
",東京都千代田区岩本町3-10-7,35.6963726,139.7759146
"
デイリーヤマザキ 岩本町3丁目店
",東京都千代田区岩本町3-3-6,35.69514360000001,139.7764301
