Name,Address,lat,lon
"
清林堂
",東京都新宿区西新宿6丁目4-1,35.6938922,139.69321
"
リーベンハウス新宿NSビル店
",東京都新宿区西新宿2丁目4-1,35.6880367,139.6935125
"
リーベンハウス新宿オークタワー店
",東京都新宿区西新宿6丁目8-1,35.6914828,139.687176
"
生活彩家ヒルトピア店
",東京都新宿区西新宿6-6-2,35.692724,139.6912126
"
ニューデイズ新宿
",東京都新宿区新宿3丁目38-1,35.6912132,139.701106
"
リーベンハウス新宿ガーデンタワー店
",東京都新宿区大久保3丁目8-2,35.7089698,139.7032107
"
リーベンハウス新宿住友ビル店
",東京都新宿区西新宿2丁目6-1,35.6912129,139.6923608
"
NEWDAYS(ニューデイズ) 新宿33号店
",東京都新宿区新宿3 新宿駅11・12番線ホーム内(立川寄り),35.6896067,139.7005713
"
LAWSON(ローソン) 西新宿七丁目店
",東京都新宿区西新宿7-7-30,35.6969343,139.6976806
"
生活彩家 新宿区役所店
",東京都新宿区歌舞伎町1-4-1 新宿区役所内,35.6937345,139.7032569
"
Mマート西新宿店
",東京都新宿区西新宿7-5-25,35.6974713,139.6985875
"
NEWDAYS(ニューデイズ) 新宿50号店
",東京都新宿区新宿3-38-2 新宿南口改札内,35.6897244,139.7009133
"
NEWDAYS(ニューデイズ) 新宿12号店
",東京都新宿区新宿3-38-2 新宿駅南口改札内コンコース中央,35.6896067,139.7005713
"
NEWDAYS(ニューデイズ) 新宿36号店
",東京都新宿区新宿3-38-2 新宿駅中央線下りホーム9・10番線中野寄り,35.6896067,139.7005713
"
NEWDAYS(ニューデイズ) 新宿東口店
",東京都新宿区新宿3-38-2 新宿駅東口改札内北通路,35.6896067,139.7005713
"
NEWDAYS(ニューデイズ) 高田馬場1号店
",東京都新宿区高田馬場1-35-2 高田馬場駅改札外正面,35.7125654,139.7038615
"
NEWDAYSMINI(ニューデイズミニ) 四ッ谷4号店
",東京都新宿区四谷1 四ッ谷駅赤坂口改札外,35.6861525,139.7302183
"
NEWDAYS(ニューデイズ) 高田馬場店
",東京都新宿区高田馬場1 高田馬場駅早稲田口改札内,35.7125654,139.7038615
"
NEWDAYSMINI(ニューデイズミニ) 大久保1号店
",東京都新宿区百人町1 大久保駅西口改札,35.7006865,139.697381
"
NEWDAYS(ニューデイズ) 信濃町
",東京都新宿区信濃町 JR信濃町駅 改札外・正面,35.6800602,139.7203199
"
NEWDAYSMINI(ニューデイズミニ) 四ツ谷2号店
",東京都新宿区四谷1 四ッ谷駅構内麹町口コンコース,35.6861525,139.7302183
"
ポプラ 東大久保店
",東京都新宿区新宿6-24-16,35.6974914,139.7104328
"
ポプラ ドンチッチ市ヶ谷店
",東京都新宿区本塩町21-14 カーサー四谷1F,35.6908714,139.7302197
"
生活彩家 KDDI新宿店
",東京都新宿区西新宿2-3-3 KDDIビルアネックス1F,35.6879235,139.6948068
"
生活彩家 新宿京王プラザホテル店
",東京都新宿区西新宿2-2-1 京王プラザホテル南館2F,35.6895997,139.6946074
"
生活彩家 新宿パークタワー店
",東京都新宿区西新宿3-7 新宿パークタワーB1F,35.6855404,139.6910923
"
生活彩家 OPハーモニー店
",東京都新宿区西新宿3-20-2 東京オペラシティタワ-18F,35.6829523,139.6867262
"
ファミリーマート 高田馬場早稲田通り店
",東京都新宿区高田馬場1-6-16,35.7116636,139.7079046
"
ナチュラルローソンミライナタワー店
",東京都新宿区新宿4-1-6,35.6887453,139.701835
"
ローソン 新宿富久町店
",東京都新宿区富久町8-22,35.6912024,139.7178871
"
ローソン 新宿一丁目店
",東京都新宿区新宿1-26-6,35.6909392,139.7143451
"
ローソン 西新宿一丁目店
",東京都新宿区西新宿1-19-13,35.68834440000001,139.6969367
"
ローソン 新宿山吹町店
",東京都新宿区山吹町265-6,35.70762879999999,139.7314663
"
ローソン 若松町店
",東京都新宿区若松町11-1,35.6992662,139.7176539
"
ローソン 西早稲田二丁目店
",東京都新宿区西早稲田2-11-12 八百板ビル,35.7099406,139.7131175
"
ローソン 四谷一丁目店
",東京都新宿区四谷1-23-6,35.6873319,139.7276899
"
ローソン 四谷左門町店
",東京都新宿区左門町6-8,35.6862216,139.7204789
"
ローソン 早稲田町店
",東京都新宿区早稲田町74,35.7057964,139.7228336
"
ローソン 百人町二丁目店
",東京都新宿区百人町2-22-12,35.7043199,139.6972638
"
ローソン 新小川町店
",東京都新宿区新小川町6-40,35.7067535,139.7430237
"
ローソン 新宿御苑駅前店
",東京都新宿区新宿1-9-4,35.6884654,139.7122314
"
ローソン 市谷薬王寺町店
",東京都新宿区市谷薬王寺町61,35.6962815,139.7255079
"
ローソン 新宿馬場下町店
",東京都新宿区馬場下町61-6,35.7060787,139.7202365
"
ローソン 新宿下宮比町店
",東京都新宿区下宮比町2-3,35.702958,139.7435117
"
ローソン 新宿医大通店
",東京都新宿区新宿5-11-13,35.69332480000001,139.70716
"
ローソン 歌舞伎町二丁目西店
",東京都新宿区歌舞伎町2-26-10,35.6955933,139.7033232
"
ローソン 新宿センタービル西店
",東京都新宿区西新宿1-25-1-B1,35.6920011,139.6954109
"
ローソン 北新宿一丁目店
",東京都新宿区北新宿1-29-10,35.7015922,139.6907825
"
ローソン 新宿荒木町店
",東京都新宿区荒木町17-1,35.691705,139.7237432
"
ローソン 新宿センタービル店
",東京都新宿区西新宿1-25-1,35.6920011,139.6954109
"
ローソン 新宿水道町店
",東京都新宿区水道町3-2,35.7087726,139.7358025
"
ローソン 新宿靖国通店
",東京都新宿区歌舞伎町1-1-16,35.6931274,139.7043841
"
ローソン 西武新宿駅北口店
",東京都新宿区歌舞伎町1-30-1,35.6943605,139.7002697
"
ローソン 京王プレッソイン新宿店
",東京都新宿区西新宿3-4-5,35.6857843,139.6925204
"
ナチュラルローソン 飯田橋メトロピア店
",東京都新宿区神楽坂1-13 有楽町線飯田橋駅構内,35.7017835,139.7435764
"
ナチュラルローソン 西新宿七丁目店
",東京都新宿区西新宿7-20-3,35.6939261,139.695242
"
ナチュラルローソン 新宿駅西店
",東京都新宿区西新宿1-13-12,35.6898548,139.6966836
"
ナチュラルローソン 東京女子医大病院店
",東京都新宿区河田町8-1,35.6970201,139.7199051
"
ナチュラルローソン 新宿フロントタワー店
",東京都新宿区北新宿2-21-1,35.6960922,139.6893937
"
ローソン 東京女子医大西病棟店
",東京都新宿区河田町8-1西病棟1階,35.6970201,139.7199051
"
ナチュラルローソン 東京女子医大外来棟店
",東京都新宿区河田町8-1総合外来センター1階,35.6988829,139.7206588
"
ローソン H落合南長崎駅前店
",東京都新宿区西落合3-1-16,35.722967,139.6832887
"
ローソン シタディーンセントラル新宿店
",東京都新宿区歌舞伎町1-2-9,35.6944059,139.7042892
"
ローソン H西新宿店
",東京都新宿区西新宿1-23-1,35.6897701,139.696162
"
ローソン 新宿区役所通店
",東京都新宿区歌舞伎町2-18-5,35.6972414,139.7051862
"
ローソン 新宿三丁目北店
",東京都新宿区新宿3-13-5,35.6921333,139.7058476
"
ローソン 都営東新宿駅前店
",東京都新宿区歌舞伎町2-3-16,35.6978033,139.7071298
"
ローソン 西新宿小滝橋通店
",東京都新宿区西新宿7-10-19,35.6943706,139.698652
"
ローソン 新大久保店
",東京都新宿区大久保1-6-12,35.700905,139.7058632
"
ローソン 西新宿三丁目店
",東京都新宿区西新宿3-8-5新栄ビル,35.6852857,139.6895833
"
ローソンストア100 LS新宿住吉町店
",東京都新宿区住吉町8-22,35.6933588,139.7216602
"
ローソン 新宿三丁目中央通店
",東京都新宿区新宿3-34-11,35.6905531,139.7027696
"
ローソン 新宿大久保二丁目店
",東京都新宿区大久保2-4-12新宿ラムダックスビル,35.7040227,139.7082899
"
ローソン 新宿イーストサイドスクエア店
",東京都新宿区新宿6-27-30 B1F,35.6969819,139.7086045
"
ローソンサテライト 新宿イーストサイドスクエア店
",東京都新宿区新宿6-27-30 1F,35.6966848,139.7086917
"
ローソン 歌舞伎町一丁目店
",東京都新宿区歌舞伎町1-12-6,35.6951422,139.702545
"
ローソン 新宿上落合店
",東京都新宿区上落合1-16-3,35.7154897,139.6941278
"
ローソン 新宿坂町店
",東京都新宿区四谷坂町12-12,35.6917641,139.726148
"
ローソン 新宿三丁目駅前店
",東京都新宿区新宿2-13-10,35.6904564,139.7084305
"
ローソン 市谷仲之町店
",東京都新宿区市谷仲之町4-46,35.6947797,139.7244492
"
ローソン H新宿中井店
",東京都新宿区中井1-10-8,35.7150387,139.6833622
"
ローソン H新宿下落合四丁目店
",東京都新宿区下落合4-27-3,35.7221337,139.6982179
"
ローソン 下落合二丁目店
",東京都新宿区下落合2-3-18,35.7165297,139.7030222
"
ローソン 西早稲田駅前店
",東京都新宿区西早稲田2-20-9,35.709245,139.7096379
"
ローソン 新宿西落合三丁目店
",東京都新宿区西落合3-28-7,35.7250606,139.6757573
"
ローソン 新宿新小川町店
",東京都新宿区新小川町8-9,35.7061176,139.7407337
"
ローソン 新宿御苑中央店
",東京都新宿区新宿1-8-5,35.6887955,139.7110547
"
ローソン 東新宿明治通店
",東京都新宿区新宿7-27-12,35.698873,139.707804
"
ローソン DNP市谷加賀町ビル店
",東京都新宿区市谷加賀町1-1-1,35.6956229,139.7310168
"
ローソンストア100 LS新宿早稲田通店
",東京都新宿区西早稲田2-18-18,35.7110272,139.7110127
"
ローソンストア100 LS新宿百人町四丁目店
",東京都新宿区百人町4-9-5,35.70933290000001,139.6941811
"
ローソンストア100 LS四谷二丁目店
",東京都新宿区四谷2-8,35.687252,139.724983
"
ローソンストア100 LS大久保二丁目店
",東京都新宿区大久保2-3-6,35.7040289,139.7088401
"
ローソンストア100 LS新宿五丁目店
",東京都新宿区新宿5-6-2,35.6919056,139.7094805
"
ローソンストア100 LS新宿一丁目店
",東京都新宿区新宿1-34-16,35.6912094,139.7112885
"
ローソンストア100 LS新大久保駅前店
",東京都新宿区百人町1-11-22リサビル,35.7011458,139.6997928
"
ローソンストア100 LS新宿百人町店
",東京都新宿区百人町1-17-6成田ビル,35.7015322,139.6974992
"
ローソンストア100 LS北新宿店
",東京都新宿区北新宿1-28-15サマリヤ中田ビル,35.7017677,139.6921305
"
ローソンストア100 LS早稲田鶴巻町店
",東京都新宿区早稲田鶴巻町522,35.7073782,139.7257354
"
ローソン LM 西新宿七丁目店
",東京都新宿区西新宿7-7-30,35.6969343,139.6976806
"
ローソンストア100 LS歌舞伎町二丁目店
",東京都新宿区歌舞伎町2-17-10,35.6979985,139.705447
"
ローソンストア100 LS西落合二丁目店
",東京都新宿区西落合2-5-9,35.7212761,139.6786271
"
ローソンストア100 LS新宿文化センター前店
",東京都新宿区新宿6-27-2,35.69603499999999,139.7095747
"
ローソンストア100 LS西新宿三丁目店
",東京都新宿区西新宿3-8-3,35.685568,139.6893679
"
ローソン 高田馬場駅通店
",東京都新宿区高田馬場1-34-8,35.7121327,139.7042384
"
ローソン 西新宿四丁目店
",東京都新宿区西新宿4-5-8,35.6897297,139.6845627
"
ローソン 新宿若松町店
",東京都新宿区若松町28-25,35.7006728,139.7189581
"
ローソン メトロス新宿東口店
",東京都新宿区西新宿1西口地下街1,35.6916813,139.6991394
"
ナチュラルローソン JR新宿ミライナタワー店
",東京都新宿区新宿4-1-6,35.6887453,139.701835
"
ローソン 飯田橋メトロピア店
",東京都新宿区神楽坂1-13,35.7010269,139.7426384
"
ローソン メトロス新宿西口店
",東京都新宿区西新宿1西口地下街1,35.6916813,139.6991394
"
ローソン H新宿御苑北店
",東京都新宿区新宿1-15-5,35.6896474,139.7101313
"
ナチュラルローソン 慶應義塾大学病院1号館店
",東京都新宿区信濃町35-1,35.68129649999999,139.7180923
"
ローソン 小滝橋店
",東京都新宿区北新宿4-8-18,35.7092759,139.6938208
"
ローソン・スリーエフ 大久保通店
",東京都新宿区大久保1-15-15,35.701027,139.7032632
"
ローソン・スリーエフ 新宿上落合一丁目店
",東京都新宿区上落合1-27-8,35.7123899,139.6900531
"
ナチュラルローソン NL東京医科大学病院店
",東京都新宿区西新宿6-7-1,35.693258,139.6916591
"
ナチュラルローソン NLS東京医科大学病院店
",東京都新宿区西新宿6-7-1,35.693258,139.6916591
"
ローソン 新宿曙橋店
",東京都新宿区住吉町7-5,35.6925653,139.7228255
"
ローソン クオール西新宿小滝橋通店
",東京都新宿区西新宿7-7-30,35.6969343,139.6976806
"
ローソン 神楽坂駅北店
",東京都新宿区赤城元町2-1,35.7042765,139.7358102
"
ローソン グランカスタマ歌舞伎町店
",東京都新宿区歌舞伎町2-37-1,35.6959898,139.7021226
"
ローソン 新宿四丁目店
",東京都新宿区新宿4-3-23,35.6895105,139.7042853
"
ファミリーマート 新宿御苑駅前店
",東京都新宿区新宿1-13-1,35.6889367,139.711891
"
ファミリーマート 東京医科大学前店
",東京都新宿区新宿6-6-1,35.6934735,139.7095545
"
ファミリーマート 市谷台町店
",東京都新宿区市谷台町14-1,35.6940011,139.7179203
"
ファミリーマート 西早稲田二丁目店
",東京都新宿区西早稲田2-5-16,35.7092754,139.71601
"
ファミリーマート 早稲田鶴巻町店
",東京都新宿区早稲田鶴巻町519,35.7077704,139.723911
"
ファミリーマート 新宿五丁目店
",東京都新宿区新宿5-18-14,35.69466740000001,139.7065575
"
ファミリーマート 新宿靖国通り店
",東京都新宿区新宿5-17-13オリエンタルウェーブビル,35.6929118,139.705258
"
ファミリーマート 新宿スポーツセンター店
",東京都新宿区大久保3-5-1新宿スポーツセンター1F,35.706966,139.705521
"
ファミリーマート 防衛省店
",東京都新宿区市谷本村町5-1防衛省本省 厚生棟 地下1階,35.6937878,139.7292086
"
ファミリーマート 新宿京王モールアネックス店
",東京都新宿区西新宿1丁目19,35.6882477,139.6970405
"
ファミリーマート 飯田橋店
",東京都新宿区揚場町2-18,35.7026869,139.7428142
"
ファミリーマート 上落合二丁目店
",東京都新宿区上落合2-29-6,35.7108309,139.6851279
"
ファミリーマート 新宿ワシントンホテル店
",東京都新宿区西新宿3-2-9ワシントンホテル,35.6869211,139.6933196
"
ファミリーマート 高田馬場二丁目店
",東京都新宿区高田馬場2-16-11,35.71440219999999,139.7054623
"
ファミリーマート 旧厚生年金会館前店
",東京都新宿区新宿5-2-3,35.69170130000001,139.7115548
"
ファミリーマート サンズ西新宿店
",東京都新宿区西新宿4-5-6IKビル,35.6895554,139.6843775
"
ファミリーマート 新宿三丁目店
",東京都新宿区新宿3-21-7 東新ビル,35.6930679,139.7023458
"
ファミリーマート 曙橋店
",東京都新宿区住吉町1-15,35.6921813,139.722346
"
ファミリーマート アイズ高田馬場店
",東京都新宿区高田馬場2-14-24,35.7134362,139.7073806
"
ファミリーマート 西新宿アトラスタワー店
",東京都新宿区西新宿6-25,35.6949789,139.6881063
"
ファミリーマート 新宿弁天町店
",東京都新宿区弁天町21,35.7046075,139.7267499
"
ファミリーマート 新宿東宝ビル前店
",東京都新宿区歌舞伎町1-14-7ハヤシビル,35.6945809,139.7021863
"
ファミリーマート 神楽坂店
",東京都新宿区神楽坂6-77,35.7022711,139.7374656
"
ファミリーマート 新宿信濃町店
",東京都新宿区信濃町8番外苑北SRCビル1F,35.6826985,139.7194088
"
ファミリーマート 早稲田大学店
",東京都新宿区西早稲田1-6-1,35.7083395,139.7197401
"
ファミリーマート 市谷本村町店
",東京都新宿区市谷本村町3番29号FORECAST市ヶ谷1階,35.6910897,139.7325912
"
ファミリーマート 歌舞伎町セントラルロード店
",東京都新宿区歌舞伎町1丁目16-6 第6ポールスタービル1階,35.6939556,139.7018051
"
ファミリーマート K2新宿駅西店
",東京都新宿区西新宿1丁目18番2 新宿第10大京ビル,35.6888529,139.6986586
"
ファミリーマート 東新宿店
",東京都新宿区新宿5-13-9,35.6947665,139.7076508
"
ファミリーマート 西新宿八丁目店
",東京都新宿区西新宿8丁目4-2,35.6945372,139.6933537
"
ファミリーマート 新宿要通り店
",東京都新宿区新宿3丁目2-4M&Eビル,35.6902702,139.7065346
"
ファミリーマート 御苑大通り店
",東京都新宿区新宿2丁目19-9新宿カドビル,35.691744,139.7073923
"
ファミリーマート メトロ高田馬場駅前店
",東京都新宿区高田馬場2丁目14-6 アライビル,35.7126631,139.7066759
"
ファミリーマート 新大久保店
",東京都新宿区百人町1-3-14,35.7011111,139.702043
"
ファミリーマート 新宿御苑駅西店
",東京都新宿区新宿2丁目7-1 不二川ビル,35.6894424,139.7084894
"
ファミリーマート 四谷三丁目駅前店
",東京都新宿区四谷3丁目7 宮子ビルディング,35.6882626,139.7210439
"
ファミリーマート 新宿矢来町店
",東京都新宿区矢来町81-2,35.7014174,139.7329233
"
ファミリーマート 小田急エース店
",東京都新宿区西新宿1丁目西口地下街1号,35.6902368,139.6985952
"
ファミリーマート 西新宿青梅街道店
",東京都新宿区西新宿7丁目11-18・711ビルディング,35.6938654,139.6976065
"
ファミリーマート 新宿税務署通り店
",東京都新宿区北新宿1丁目35-3,35.6972413,139.6918977
"
ファミリーマート 小田急第一生命ビル店
",東京都新宿区西新宿2丁目7-1,35.691646,139.6910373
"
ファミリーマート 新宿ゴールデン街店
",東京都新宿区歌舞伎町1丁目1-6,35.6941308,139.7047778
"
ファミリーマート 新宿中落合三丁目店
",東京都新宿区中落合3-24-9,35.7227467,139.6872131
"
ファミリーマート 新宿西落合三丁目店
",東京都新宿区西落合3丁目23-1,35.7238598,139.6779972
"
ファミリーマート 高田馬場早稲田通り店
",東京都新宿区高田馬場1丁目6-16,35.7116636,139.7079046
"
ファミリーマート エステック情報ビル店
",東京都新宿区西新宿1丁目24-1,35.6903216,139.6958938
"
ファミリーマート 中落合三丁目目白通り店
",東京都新宿区中落合3丁目29-13 丸正タケダビル,35.722615,139.6850555
"
ファミリーマート 四谷大通り店
",東京都新宿区四谷2丁目13-3 大和屋ビル,35.6879659,139.7238729
"
ファミリーマート 薬ヒグチ四谷駅前店
",東京都新宿区四谷1丁目2-5 ヒグチ四谷ビル,35.6857729,139.7288679
"
ファミリーマート 新宿荒木町店
",東京都新宿区荒木町5-4,35.6888753,139.7235062
"
ファミリーマート 高田馬場駅西店
",東京都新宿区高田馬場4丁目9番14号,35.7135853,139.7031529
"
ファミリーマート 目白駅前店
",東京都新宿区下落合3-18-1,35.7227583,139.7045637
"
ファミリーマート 大久保駅南口店
",東京都新宿区百人町1-23-21,35.699661,139.6976588
"
ファミリーマート 早稲田駅前店
",東京都新宿区馬場下町5番1号 早稲田駅前ビル,35.7057118,139.7199006
"
ファミリーマート 四ッ谷駅前店
",東京都新宿区四谷1丁目4 四谷駅前ビル,35.6866208,139.7293185
"
ファミリーマート 西新宿オークテラス店
",東京都新宿区西新宿6-10-2オークテラス101,35.6947549,139.6910869
"
ファミリーマート 飯田橋駅北店
",東京都新宿区新小川町1-16,35.7045065,139.743767
"
ファミリーマート 東京新宿メディカルセンター店
",東京都新宿区津久戸町5-1東京厚生年金病院,35.7033943,139.7420886
"
ファミリーマート タカノ西新宿店
",東京都新宿区西新宿8-15-2,35.6952776,139.6910566
"
ファミリーマート 東新宿明治通り店
",東京都新宿区新宿6-29ー5,35.6969418,139.7075897
"
ファミリーマート 四谷三丁目店
",東京都新宿区四谷3丁目11,35.6880996,139.7190979
"
ファミリーマート 新宿神楽坂駅前店
",東京都新宿区矢来町124-6,35.7041931,139.7333637
"
ファミリーマート 四谷四丁目店
",東京都新宿区四谷4-7,35.6871226,139.7161536
"
ファミリーマート 新宿区役所通り店
",東京都新宿区歌舞伎町2丁目10-6,35.6953112,139.7046287
"
ファミリーマート 神楽坂下店
",東京都新宿区神楽坂2-10カグラヒルズ,35.7008144,139.7421707
"
ファミリーマート 西落合店
",東京都新宿区西落合1-31-19,35.7202418,139.6797516
"
ファミリーマート 西新宿一丁目店
",東京都新宿区西新宿1丁目3番17号,35.6933462,139.6986203
"
ファミリーマート 市谷田町店
",東京都新宿区市谷田町2-38-3,35.6945491,139.7370232
"
ファミリーマート 新宿山吹町店
",東京都新宿区山吹町352番22グローサユウ新宿,35.7082204,139.7272632
"
ファミリーマート 新宿七丁目店
",東京都新宿区新宿7丁目2-4,35.6979596,139.7128345
"
ファミリーマート 西新宿三井ビル店
",東京都新宿区西新宿6丁目24-1,35.6949699,139.6889876
"
ファミリーマート 新宿天神町店
",東京都新宿区天神町21 朝日神楽坂マンション,35.7050825,139.7310546
"
ファミリーマート 新宿歌舞伎町一番街店
",東京都新宿区歌舞伎町1丁目18番5号,35.69476,139.7015022
"
ファミリーマート 新宿職安通り店
",東京都新宿区大久保1丁目12-1 第2韓国広場ビル,35.6984757,139.7036399
"
ファミリーマート 東五軒町店
",東京都新宿区東五軒町5-19,35.7067911,139.7397916
"
ファミリーマート 四谷舟町店
",東京都新宿区舟町6,35.6893439,139.7210977
"
ファミリーマート 新宿大久保二丁目店
",東京都新宿区大久保2丁目29-23,35.7046113,139.7039341
"
ファミリーマート 新宿余丁町店
",東京都新宿区余丁町12-5,35.6962979,139.7154038
"
ファミリーマート 新宿五丁目東店
",東京都新宿区新宿5丁目8-2,35.6919292,139.7090653
"
ファミリーマート ツタヤブックアパートメント店
",東京都新宿区新宿3丁目26-14,35.6917967,139.7023599
"
ファミリーマート 日本青年館店
",東京都新宿区霞ヶ丘町4番1号,35.6741855,139.7154153
"
ファミリーマート 北新宿大久保通り店
",東京都新宿区北新宿3丁目1-4,35.7024046,139.6945875
"
ファミリーマート ファミマ新宿アイランドタワー店
",東京都新宿区西新宿6丁目5-1 新宿アイランドタワー,35.693132,139.693142
"
ファミリーマート 市谷柳町店
",東京都新宿区市谷柳町19,35.6982635,139.7254773
"
ファミリーマート 新宿新小川町店
",東京都新宿区新小川町7-17飯田橋三幸ビル,35.7079689,139.7411928
"
ファミリーマート 新宿市谷見附店
",東京都新宿区市谷田町1丁目3,35.6926678,139.7355234
"
ファミリーマート オペラシティサンクンガーデン店
",東京都新宿区西新宿3丁目20-2,35.6829969,139.6868301
"
ファミリーマート 歌舞伎町広場前店
",東京都新宿区歌舞伎町1-21-7ヒューマックスパビリオン新宿アネックス,35.6953381,139.7010446
"
ファミリーマート 歌舞伎町交番前店
",東京都新宿区歌舞伎町2丁目38-3,35.6963242,139.7018964
"
ファミリーマート 神楽坂三丁目店
",東京都新宿区神楽坂3丁目2番地20,35.7012752,139.7411888
"
ファミリーマート 北新宿店
",東京都新宿区北新宿1-1-17,35.6984782,139.6970043
"
ファミリーマート 小滝橋通り店
",東京都新宿区北新宿4-3-13,35.7064955,139.6941555
"
ファミリーマート 四谷三丁目交差点東店
",東京都新宿区四谷3-5-5,35.6878129,139.72122
"
ファミリーマート 新宿十二社店
",東京都新宿区西新宿4-2-18,35.6904821,139.6864135
"
ファミリーマート 西新宿三丁目店
",東京都新宿区西新宿3丁目11番20号オフィススクエアービル新宿1階,35.6857523,139.6890037
"
ファミリーマート 早稲田大学理工学部前店
",東京都新宿区大久保2-3-9,35.7042595,139.7089113
"
ファミリーマート 新宿四丁目交差点前店
",東京都新宿区新宿4-2-16,35.6893818,139.703659
"
ファミリーマート 歌舞伎町店
",東京都新宿区歌舞伎町1丁目27-1,35.6951654,139.7006863
"
ファミリーマート 東京オペラシティ店
",東京都新宿区西新宿3ー20ー2東京オペラシティタワーB1,35.6829523,139.6867262
"
ファミリーマート 西新宿七丁目店
",東京都新宿区西新宿7丁目2番6号 西新宿K-1ビル,35.6953925,139.6986759
"
ファミリーマート 西早稲田店
",東京都新宿区西早稲田3-27-1,35.7115333,139.7107695
"
ファミリーマート 高田馬場店
",東京都新宿区高田馬場1丁目34番2号,35.71173720000001,139.7038845
"
ファミリーマート 西新宿柏木公園前店
",東京都新宿区西新宿7-18-1 巴ビル1F,35.6956007,139.6967414
"
ファミリーマート 新大久保駅前店
",東京都新宿区百人町2丁目11-2 神倉ビル,35.7017471,139.699015
"
ファミリーマート 神楽坂上店
",東京都新宿区神楽坂6丁目32,35.7037469,139.7358243
"
ファミリーマート 歌舞伎町さくら通り店
",東京都新宿区歌舞伎町1-13-11,35.69432200000001,139.7025916
"
ファミリーマート 四谷若葉店
",東京都新宿区若葉3丁目2番6号,35.6830323,139.7242024
"
ファミリーマート 高田馬場戸山口店
",東京都新宿区高田馬場4-3-12,35.7116488,139.7030243
"
ファミリーマート 歌舞伎町北店
",東京都新宿区歌舞伎町2丁目32番7号,35.6979612,139.7027933
"
ファミリーマート 神楽坂一丁目店
",東京都新宿区神楽坂1丁目1番地,35.6988413,139.7408846
"
ファミリーマート 西新宿地下歩道店
",東京都新宿区西新宿1丁目8番1号,35.6908046,139.6968589
"
ファミリーマート 四谷一丁目店
",東京都新宿区四谷1丁目1番,35.6835442,139.7298018
"
ファミリーマート 西新宿五丁目店
",東京都新宿区西新宿5丁目10番14号小野木ビル・西新宿,35.6906184,139.6857733
"
ファミリーマート 東新宿駅西店
",東京都新宿区大久保1丁目8番2号,35.6984771,139.7049259
"
ファミリーマート 新宿大久保一丁目店
",東京都新宿区大久保1丁目3番15号,35.7007868,139.7076826
"
ファミリーマート トモニー高田馬場駅橋上店
",東京都新宿区高田馬場1丁目35-2,35.7130327,139.7040558
"
ファミリーマート トモニー西武新宿駅店
",東京都新宿区歌舞伎町1丁目-30-1,35.6943605,139.7002697
"
ファミリーマート トモニー高田馬場駅ホーム店
",東京都新宿区高田馬場1-35-2,35.7130327,139.7040558
"
ファミリーマート トモニー西武新宿駅北口店
",東京都新宿区歌舞伎町1丁目30-1,35.6943605,139.7002697
"
ファミリーマート トモニー中井駅店
",東京都新宿区中落合1丁目19-1,35.7150518,139.6872376
"
ファミリーマート 大久保駅前店
",東京都新宿区百人町1-19-14,35.7016046,139.6964249
"
ファミリーマート 新宿三丁目南店
",東京都新宿区新宿3丁目32番10号 松井ビル1階,35.6900529,139.7039415
"
ファミリーマート 早稲田馬場下町店
",東京都新宿区馬場下町62,35.7066585,139.7189997
"
ファミリーマート ビッグス新宿ビル店
",東京都新宿区新宿2丁目19-1,35.6912066,139.7075862
"
ファミリーマート 新宿通り店
",東京都新宿区新宿2丁目8-1,35.6890352,139.7096683
"
ファミリーマート 新宿中央公園店
",東京都新宿区西新宿4丁目32-6,35.6874711,139.6888966
"
ファミリーマート 新宿上落合店
",東京都新宿区上落合2丁目8-16,35.7140536,139.6901793
"
ファミリーマート 新宿中井駅前店
",東京都新宿区中落合1丁目17-3,35.715632,139.6878432
"
ファミリーマート 新宿エルタワー店
",東京都新宿区西新宿1丁目6-1,35.6922806,139.6974213
"
ファミリーマート 日土地西新宿ビル店
",東京都新宿区西新宿6丁目10-1,35.694553,139.6909198
"
ファミリーマート 新宿新都心店
",東京都新宿区西新宿1丁目20-2,35.6878461,139.6961696
"
ファミリーマート 新宿野村ビル店
",東京都新宿区西新宿1丁目26-2,35.6929675,139.6953167
"
ファミリーマート 新宿損保ジャパン店
",東京都新宿区西新宿1丁目26-1,35.6926966,139.6961094
"
ファミリーマート 新宿四丁目店
",東京都新宿区新宿4丁目1-22,35.6883831,139.7028961
"
ファミリーマート 新宿モノリス店
",東京都新宿区西新宿2丁目3-1,35.6886322,139.6946301
"
ファミリーマート 早稲田大学南門店
",東京都新宿区戸塚町1丁目102,35.707793,139.7207465
"
ファミリーマート 西早稲田三丁目店
",東京都新宿区西早稲田3丁目30-20,35.7139371,139.7117097
"
ファミリーマート 牛込柳町駅前店
",東京都新宿区原町1丁目13,35.6996556,139.7255253
"
ファミリーマート 新宿歌舞伎町店
",東京都新宿区歌舞伎町2丁目25-2,35.69520809999999,139.70382
"
ファミリーマート 新宿アイタウン店
",東京都新宿区西新宿6-21-1,35.6935524,139.6877445
"
ファミリーマート 都営線若松河田駅店
",東京都新宿区河田町10-10大江戸線若松河田駅B1F,35.699236,139.7180749
"
ファミリーマート 都営線曙橋駅店
",東京都新宿区住吉町7-1都営新宿線曙橋駅B1F,35.6923136,139.7220645
"
ファミリーマート 目白大学新宿キャンパス店
",東京都新宿区中落合4丁目31-1 新宿キャンパス内,35.7174688,139.6800583
"
ファミリーマート 西早稲田諏訪通り店
",東京都新宿区西早稲田2丁目20-1,35.7086104,139.7094861
"
ミニストップ 北新宿4丁目店
",東京都新宿区北新宿4-12-4,35.7070842,139.6925956
"
ミニストップ 西新宿3丁目店
",東京都新宿区西新宿3-2-11,35.6863763,139.6931718
"
ミニストップ 新宿歌舞伎町店
",東京都新宿区歌舞伎町2-22-1,35.6959892,139.7042937
"
ミニストップ 信濃町駅北口店
",東京都新宿区信濃町31番地,35.6813548,139.7198064
"
ミニストップ 新宿左門町店
",東京都新宿区左門町20番地,35.6845029,139.7205739
"
ミニストップ 信濃町駅南口店
",東京都新宿区南元町19,35.6794558,139.7209381
"
ミニストップ 歌舞伎町2丁目店
",東京都新宿区歌舞伎町2-30-13,35.6972762,139.7036982
"
ミニストップ 新宿大京町店
",東京都新宿区大京町24ガ-デンクレスト,35.6855507,139.7162496
"
ミニストップ 新大久保駅東口店
",東京都新宿区大久保2-32-4,35.7014789,139.7023804
"
ミニストップ 新宿花園通り店
",東京都新宿区新宿1-30-16 ルネ新宿御苑タワ-1階,35.6900033,139.7132771
"
ミニストップ 西新宿山手通り店
",東京都新宿区西新宿3-19-1,35.6845485,139.6868175
"
ミニストップ 四谷3丁目店
",東京都新宿区四谷3丁目2-2,35.6882415,139.7230228
"
ミニストップ 早稲田駅前店
",東京都新宿区早稲田南町54,35.7056078,139.7217033
"
ミニストップ cisca55スクエア店
",東京都新宿区西新宿2-1-1 新宿三井ビルディング2階,35.6921266,139.6938496
"
ミニストップ cisca新宿三井ビル29階店
",東京都新宿区西新宿2-1-1 新宿三井ビルディング29階,35.69169979999999,139.6943482
"
セブンイレブン 7FS防衛省店
",東京都新宿区市谷本村町5-1,35.6925809,139.7287335
"
セブンイレブン 新宿西早稲田3丁目店
",東京都新宿区西早稲田3丁目15-3,35.7105711,139.7128581
"
セブンイレブン 北新宿1丁目大久保通り店
",東京都新宿区北新宿1-12-17,35.7017981,139.6943882
"
セブンイレブン 新宿神楽坂駅西店
",東京都新宿区矢来町131ー1,35.7043125,139.7326532
"
セブンイレブン 西新宿1丁目西店
",東京都新宿区西新宿1-14-15,35.689202,139.6966459
"
セブンイレブン 新宿若松町店
",東京都新宿区若松町31-8,35.7000112,139.7196442
"
セブンイレブン 高田馬場3丁目店
",東京都新宿区高田馬場3-5-3,35.7146919,139.7032077
"
セブンイレブン 新宿上落合1丁目店
",東京都新宿区上落合1-29-7,35.7114435,139.6897708
"
セブンイレブン 新宿1丁目店
",東京都新宿区新宿1丁目28番10,35.69107160000001,139.7126696
"
セブンイレブン 新宿曙橋駅東店
",東京都新宿区住吉町8-3,35.6930189,139.7238312
"
セブンイレブン 西早稲田2丁目店
",東京都新宿区西早稲田2-2-3,35.70693139999999,139.7162593
"
セブンイレブン 高田馬場4丁目店
",東京都新宿区高田馬場4-11-8,35.713251,139.7018632
"
セブンイレブン 歌舞伎町2丁目店
",東京都新宿区歌舞伎町2丁目19,35.6979206,139.7046995
"
セブンイレブン 新宿高田馬場1の南店
",東京都新宿区高田馬場1-22-5,35.7102962,139.7043918
"
セブンイレブン 新宿岩戸町店
",東京都新宿区岩戸町11,35.7009517,139.7364827
"
セブンイレブン 新宿大久保1丁目店
",東京都新宿区大久保1-2-17,35.6991702,139.7074009
"
セブンイレブン 早稲田店
",東京都新宿区早稲田鶴巻町521,35.7072037,139.7254169
"
セブンイレブン AIM総務省第二庁舎店
",東京都新宿区若松町19-1,35.7007456,139.7147518
"
セブンイレブン 新宿駅靖国通り店
",東京都新宿区歌舞伎町1-17-2,35.6939155,139.7012395
"
セブンイレブン 早稲田大学学生会館店
",東京都新宿区戸山1-24-1,35.7051365,139.717786
"
セブンイレブン 高田馬場南口店
",東京都新宿区高田馬場1-33-6,35.711231,139.7036941
"
セブンイレブン ハイアットリージェンシー東京店
",東京都新宿区西新宿2-7-2,35.6908535,139.6912172
"
セブンイレブン 新宿下落合1丁目店
",東京都新宿区下落合1ー6ー3,35.7158358,139.7004725
"
セブンイレブン 高田馬場小滝橋店
",東京都新宿区高田馬場4-40-13,35.7101539,139.6952891
"
セブンイレブン 新宿喜久井町店
",東京都新宿区喜久井町48,35.7044033,139.7205825
"
セブンイレブン 十二社店
",東京都新宿区西新宿4-2-15-101,35.6902833,139.686119
"
セブンイレブン 新宿区役所通り店
",東京都新宿区歌舞伎町1-2-13,35.6947613,139.7044272
"
セブンイレブン 新大久保駅西店
",東京都新宿区百人町1-15-21,35.70142209999999,139.6991732
"
セブンイレブン 高田馬場2丁目店
",東京都新宿区高田馬場2丁目1-2,35.7117467,139.7096357
"
セブンイレブン 新宿東店
",東京都新宿区大久保1ー1ー7,35.6983691,139.7063586
"
セブンイレブン 飯田橋升本ビル店
",東京都新宿区揚場町1-21,35.7018333,139.7432938
"
セブンイレブン 大久保2丁目明治通り店
",東京都新宿区大久保2-2-6,35.70224779999999,139.708512
"
セブンイレブン 新宿都税事務所前店
",東京都新宿区西新宿7-16-11,35.6962941,139.6978715
"
セブンイレブン 7FS工学院大学新宿校店
",東京都新宿区西新宿1-24-2,35.6906106,139.6954128
"
セブンイレブン 北新宿1丁目店
",東京都新宿区北新宿1-2-6,35.6980092,139.6963779
"
セブンイレブン 西新宿7丁目店
",東京都新宿区西新宿7-21-3,35.6941534,139.6947135
"
セブンイレブン 高田馬場3丁目中央店
",東京都新宿区高田馬場3-18-10,35.7138801,139.6982811
"
セブンイレブン 新宿西落合1丁目店
",東京都新宿区西落合1ー31ー14,35.7203164,139.6790738
"
セブンイレブン 新宿東五軒町店
",東京都新宿区東五軒町3-5,35.7063346,139.738312
"
セブンイレブン 新宿下落合3丁目店
",東京都新宿区下落合3丁目20-6,35.7227296,139.7019969
"
セブンイレブン 高田馬場稲門ビル店
",東京都新宿区高田馬場2-18-11,35.713769,139.7049122
"
セブンイレブン 新宿中井駅前店
",東京都新宿区中落合1-16-1,35.7158755,139.6879229
"
セブンイレブン 新宿大久保駅前店
",東京都新宿区百人町2ー21ー3,35.7018648,139.6972892
"
セブンイレブン 西武新宿店
",東京都新宿区歌舞伎町1-26-6,35.695027,139.7004692
"
セブンイレブン 女子学習院店
",東京都新宿区大久保3-14-3,35.7080648,139.7085652
"
セブンイレブン 高田馬場店
",東京都新宿区高田馬場4-33-1,35.7088644,139.6977181
"
セブンイレブン 新宿2丁目店
",東京都新宿区新宿2ー3ー11,35.6892541,139.7078701
"
セブンイレブン 新宿上落合3丁目店
",東京都新宿区上落合3-23-6,35.7107365,139.682047
"
セブンイレブン 四谷1丁目店
",東京都新宿区四谷1丁目7番,35.6869018,139.7289518
"
セブンイレブン 西新宿新和ビル店
",東京都新宿区西新宿3-2-4,35.6870057,139.6940912
"
セブンイレブン 新宿揚場町店
",東京都新宿区揚場町2-18,35.7026869,139.7428142
"
セブンイレブン 四谷4丁目店
",東京都新宿区四谷4-3,35.6879566,139.7171075
"
セブンイレブン 新宿水道町中央店
",東京都新宿区水道町4番7号,35.7078598,139.7357563
"
セブンイレブン 新宿下落合駅北店
",東京都新宿区下落合1-15-15,35.7165111,139.694898
"
セブンイレブン 新宿6丁目店
",東京都新宿区新宿6-9-1,35.6935639,139.708614
"
セブンイレブン 新宿左門町店
",東京都新宿区左門町2-6,35.6871835,139.7205391
"
セブンイレブン 西新宿小滝橋通り店
",東京都新宿区西新宿7-10-17,35.6945602,139.6985306
"
セブンイレブン 新宿曙橋駅西店
",東京都新宿区愛住町22,35.69172100000001,139.720287
"
セブンイレブン 東京医科大前店
",東京都新宿区新宿6丁目2-2,35.6933275,139.7111427
"
セブンイレブン 新宿筑土八幡町店
",東京都新宿区筑土八幡町2-20,35.704278,139.7409072
"
セブンイレブン 西早稲田1丁目店
",東京都新宿区西早稲田1-9-21,35.7111728,139.7204629
"
セブンイレブン 新宿アルタ店
",東京都新宿区新宿3-24-3,35.6927177,139.7012511
"
セブンイレブン 新宿4丁目明治通り店
",東京都新宿区新宿4-3-12,35.6882161,139.7032938
"
セブンイレブン KOYO国際医療研究センター店
",東京都新宿区戸山1-21-1,35.7022924,139.7166638
"
セブンイレブン 高田馬場駅前店
",東京都新宿区高田馬場2-17-1,35.7133298,139.7057446
"
セブンイレブン 新宿曙橋通り店
",東京都新宿区住吉町5-7,35.69309399999999,139.7209943
"
セブンイレブン 新宿富久町店
",東京都新宿区富久町17番2号,35.692391,139.7132929
"
セブンイレブン 新宿大久保通り店
",東京都新宿区大久保2-19-4,35.7013789,139.7045374
"
セブンイレブン 新宿余丁町店
",東京都新宿区余丁町10-10,35.6982691,139.7164088
"
セブンイレブン 新宿築地町店
",東京都新宿区築地町20-2,35.7055674,139.7355828
"
セブンイレブン 新宿大久保駅南口店
",東京都新宿区百人町1-23-24,35.6992771,139.6975298
"
セブンイレブン 新宿グランドプラザ店
",東京都新宿区西新宿8丁目16-1,35.6966863,139.691707
"
セブンイレブン 新宿水道町店
",東京都新宿区水道町4-22,35.7086024,139.7369842
"
セブンイレブン 新宿中落合3丁目店
",東京都新宿区中落合3-1-3,35.7223184,139.6919351
"
セブンイレブン 新宿百人町2丁目店
",東京都新宿区百人町2-8-1,35.7029167,139.6997049
"
セブンイレブン 新宿5丁目靖国通り店
",東京都新宿区新宿5丁目11-2,35.6921541,139.7078429
"
セブンイレブン 新宿御苑前本通り店
",東京都新宿区新宿1-23-1,35.6887844,139.7141072
"
セブンイレブン 新宿山吹町店
",東京都新宿区山吹町7,35.7064836,139.7312695
"
セブンイレブン 新宿3丁目店
",東京都新宿区新宿3丁目35-18,35.6900337,139.7030688
"
セブンイレブン 新宿2丁目新宿通り店
",東京都新宿区新宿2-6-4,35.6900244,139.7071167
"
セブンイレブン 新宿高田馬場4丁目南店
",東京都新宿区高田馬場4-1-7,35.7101828,139.7025286
"
セブンイレブン 早稲田大学WASECO店
",東京都新宿区西早稲田1-6-1,35.7083395,139.7197401
"
セブンイレブン 新宿1丁目新宿通り店
",東京都新宿区新宿1-1-8,35.6878954,139.7129343
"
セブンイレブン 西新宿7丁目小滝橋通り店
",東京都新宿区西新宿7-7-26,35.6974554,139.6974242
"
セブンイレブン 新宿アイランドタワー店
",東京都新宿区西新宿6-5-1,35.6931766,139.6931655
"
セブンイレブン 歌舞伎町2丁目東店
",東京都新宿区歌舞伎町2丁目1-3,35.6950186,139.7062704
"
セブンイレブン 新宿職安通り店
",東京都新宿区百人町1-1-1,35.6982848,139.7019598
"
セブンイレブン 市谷砂土原町店
",東京都新宿区市谷砂土原町3丁目4-1,35.6962488,139.7359413
"
セブンイレブン 新宿新小川町店
",東京都新宿区新小川町4-1,35.7051833,139.7434733
"
セブンイレブン 西新宿6丁目店
",東京都新宿区西新宿6丁目26番12号,35.6954301,139.6887508
"
セブンイレブン 新宿市谷田町2丁目店
",東京都新宿区市谷田町2-3,35.69414760000001,139.7369716
"
セブンイレブン 新宿神楽坂3丁目店
",東京都新宿区神楽坂3丁目2-7,35.7017498,139.7406145
"
セブンイレブン 新宿市谷台町店
",東京都新宿区市谷台町3-1,35.6933371,139.7202055
"
セブンイレブン 東京都議会議事堂店
",東京都新宿区西新宿2-8-1,35.6894863,139.6917052
"
セブンイレブン 西新宿コクーンタワー店
",東京都新宿区西新宿1-7-2,35.6914754,139.6977585
"
セブンイレブン 西新宿5丁目中央店
",東京都新宿区西新宿5丁目700,35.6948318,139.6866706
"
セブンイレブン 市谷左内町店
",東京都新宿区市谷左内町9番,35.6932107,139.7343951
"
セブンイレブン 西早稲田1丁目新目白通り店
",東京都新宿区西早稲田1-23-20,35.7125356,139.7195854
"
セブンイレブン 西新宿NTTビル店
",東京都新宿区西新宿1丁目22-14,35.6889985,139.6956915
"
セブンイレブン 新宿早稲田高校前店
",東京都新宿区早稲田町70-1,35.7068792,139.7208979
"
セブンイレブン 新宿東宝ビル店
",東京都新宿区歌舞伎町1-19-1,35.6952926,139.7019686
"
セブンイレブン 新宿大久保3丁目店
",東京都新宿区大久保3丁目2-12,35.7047016,139.7051183
"
セブンイレブン 牛込北町店
",東京都新宿区箪笥町28番1,35.69997490000001,139.7328892
"
セブンイレブン 高田馬場1丁目店
",東京都新宿区高田馬場1-5-21,35.7114844,139.7089195
"
セブンイレブン 市谷柳町店
",東京都新宿区市谷柳町1-1,35.6998852,139.7269158
"
セブンイレブン 小田急マルシェ新宿店
",東京都新宿区西新宿1丁目1-3,35.69135,139.6993722
"
セブンイレブン 西新宿3丁目店
",東京都新宿区西新宿3丁目18-20,35.6833408,139.6890486
"
セブンイレブン 新宿上落合3丁目山手通り店
",東京都新宿区上落合3-5-1,35.711845,139.6849675
"
セブンイレブン DR西新宿ダイワロイネットホテ店
",東京都新宿区西新宿6-12-39,35.6943266,139.6895639
"
セブンイレブン 新宿6丁目文化センター通り店
",東京都新宿区新宿6丁目332番15,35.6960369,139.7096464
"
セブンイレブン ROYAL伊勢丹新宿店
",東京都新宿区新宿3丁目14-1,35.691574,139.7046466
"
セブンイレブン 四谷3丁目店
",東京都新宿区四谷3丁目12,35.6876129,139.7192422
"
セブンイレブン 新宿落合駅前店
",東京都新宿区上落合3-8-27,35.7106959,139.6845019
"
セブンイレブン 新宿西落合1の東店
",東京都新宿区西落合1-1-1,35.7210475,139.6857849
"
セブンイレブン 新宿7丁目店
",東京都新宿区新宿7-27-47,35.6991236,139.7080506
"
セブンイレブン 歌舞伎町2丁目中央店
",東京都新宿区歌舞伎町2丁目33-3,35.6972414,139.702697
"
ニューヤマザキデイリーストア 北新宿店
",東京都新宿区北新宿2-13-14,35.6989299,139.6895321
"
デイリーヤマザキ 新宿店
",東京都新宿区歌舞伎町2-19-11,35.6980779,139.7042502
"
デイリーヤマザキ 新宿大ガード西店
",東京都新宿区西新宿7-10-3,35.6938312,139.6983985
"
デイリーヤマザキ 新宿高速バスTM店
",東京都新宿区西新宿1-17-1,35.6892684,139.698401
"
デイリーヤマザキ 新宿3丁目店
",東京都新宿区新宿3-12-7,35.6920456,139.7063055
