Name,Address,lat,lon
"
ニューデイズミニ両国8号
",東京都墨田区横網1丁目3-20,35.6961328,139.7927196
"
NEWDAYSMINI(ニューデイズミニ) 錦糸町7号店
",東京都墨田区江東橋3-14-5 錦糸町駅3・4番線ホーム内(千葉方面),35.696779,139.8139718
"
NEWDAYS(ニューデイズ) ミニ 錦糸町6号店
",東京都墨田区江東橋3 JR錦糸町駅 3・4番線ホーム秋葉原寄り,35.696779,139.8139718
"
NEWDAYSMINI(ニューデイズミニ) 錦糸町5号店
",東京都墨田区江東橋3-14-5 錦糸町駅1・2番線ホーム内(千葉方面),35.696779,139.8139718
"
NEWDAYS(ニューデイズ) ミニ 錦糸町4号店
",東京都墨田区江東橋3 JR錦糸町駅 1・2番線ホーム秋葉原寄り,35.696779,139.8139718
"
NEWDAYS(ニューデイズ) ミニ 両国8号
",東京都墨田区横網1 両国駅 改札外,35.6966574,139.7974657
"
生活彩家 両国店
",東京都墨田区横網1-6-1 国際ファッションセンタ-1F,35.6981559,139.7969547
"
駅売店 MiNi SHOP(ミニショップ) 押上駅店
",東京都墨田区押上1丁目 押上駅 改札外コンコース,35.710332,139.8132971
"
ヤマザキショップ曳舟駅前店
",東京都墨田区京島1-39-1,35.71854769999999,139.8198348
"
ローソン 石原四丁目店
",東京都墨田区石原4-25-1,35.7008653,139.8051689
"
ローソン 向島一丁目店
",東京都墨田区向島1-12-3,35.7125278,139.806007
"
ローソン 錦糸町北口店
",東京都墨田区錦糸3-7-15,35.6985865,139.8136574
"
ローソン 緑四丁目店
",東京都墨田区緑4-12-7,35.6940824,139.8078314
"
ローソン 立花店
",東京都墨田区立花4-40-8,35.7090818,139.8365046
"
ローソン 墨田緑一丁目店
",東京都墨田区緑1-15-4,35.6944389,139.798248
"
ローソン 墨田立花一丁目店
",東京都墨田区立花1-1-1,35.7054022,139.826258
"
ローソン 文花三丁目店
",東京都墨田区文花3-24-9,35.7122745,139.8279129
"
ローソン 吾妻橋三丁目店
",東京都墨田区吾妻橋3-7-13,35.7088692,139.8053298
"
ローソン 両国三丁目店
",東京都墨田区両国3-26-11,35.6953213,139.7937542
"
ローソン H錦糸町店
",東京都墨田区江東橋4-11-5,35.6944097,139.8159197
"
ローソン 墨田横川二丁目店
",東京都墨田区横川2-12-4,35.7040524,139.8115648
"
ローソン 八広一丁目店
",東京都墨田区八広1-1-3,35.7205459,139.8209808
"
ローソン 江東橋三丁目店
",東京都墨田区江東橋3-11-5,35.6960371,139.8130604
"
ローソン 墨田東向島二丁目店
",東京都墨田区東向島2-23-5,35.7204112,139.8162741
"
ローソン 墨田三丁目店
",東京都墨田区墨田3-8-13,35.7286588,139.8217461
"
ローソン H墨田江東橋四丁目店
",東京都墨田区江東橋4-26-11,35.695539,139.816405
"
ローソン 墨田吾妻橋二丁目店
",東京都墨田区吾妻橋2-1-2,35.7082646,139.8024193
"
ローソン スーパーホテル錦糸町店
",東京都墨田区錦糸1-4-12,35.6978947,139.8115423
"
ローソンストア100 LS両国店
",東京都墨田区両国4-17-4,35.6933188,139.7975341
"
ローソンストア100 LS言問橋店
",東京都墨田区向島2-22-1,35.7132351,139.8057894
"
ローソンストア100 LS墨田菊川三丁目店
",東京都墨田区菊川3-16-14,35.688611,139.8069734
"
ローソンストア100 LS押上店
",東京都墨田区押上1-20-3,35.7113211,139.8156167
"
ローソンストア100 LS墨田石原店
",東京都墨田区石原1-28-12,35.7004499,139.7975223
"
ローソンストア100 LS東駒形二丁目店
",東京都墨田区東駒形2-9-11,35.705994,139.8006934
"
ローソンストア100 LS業平店
",東京都墨田区業平4-7-3,35.706999,139.8143651
"
ローソンストア100 LS墨田区八広店
",東京都墨田区八広2-16-11第一ミラージュハイツ,35.7157455,139.8251186
"
ローソンストア100 LS東向島駅前店
",東京都墨田区東向島4-34-1,35.7254967,139.8191228
"
ローソンストア100 LS墨田鐘ヶ淵店
",東京都墨田区墨田3-39-7,35.7314522,139.8215785
"
ローソンストア100 LS墨田太平店
",東京都墨田区太平3-9-5,35.7009893,139.8141184
"
ローソンストア100 LS墨田区本所四丁目店
",東京都墨田区本所4-29-22,35.7042342,139.8072879
"
ローソン 墨田石原二丁目店
",東京都墨田区石原2-3-10,35.69913080000001,139.8014009
"
ローソン メトロス押上店
",東京都墨田区押上1-1-65,35.7103444,139.8133275
"
ローソン 都立墨東病院店
",東京都墨田区江東橋4-23-15,35.6945937,139.8189578
"
ローソン H墨田千歳三丁目店
",東京都墨田区千歳3-5-8,35.689921,139.7978696
"
ファミリーマート 坪田しらひげ店
",東京都墨田区墨田2-2-3,35.7310417,139.8148387
"
ファミリーマート 鈴木錦糸町店
",東京都墨田区錦糸1-7-2,35.6982043,139.8098599
"
ファミリーマート 江東橋四丁目店
",東京都墨田区江東橋4-5-10,35.6938128,139.8186557
"
ファミリーマート 向島四丁目店
",東京都墨田区向島4-8-5,35.7172191,139.8124619
"
ファミリーマート 菊川一丁目店
",東京都墨田区菊川1-9-14,35.6884617,139.802447
"
ファミリーマート 坪田リバーサイド店
",東京都墨田区堤通1-19-11,35.7272846,139.8123849
"
ファミリーマート 江東橋三丁目店
",東京都墨田区江東橋3-8-14,35.694706,139.8148531
"
ファミリーマート 江東橋二丁目店
",東京都墨田区江東橋2-3-4ドルミ錦糸町,35.6934219,139.8114292
"
ファミリーマート 両国四丁目店
",東京都墨田区両国4-27-6新井ビル,35.6942435,139.7954255
"
ファミリーマート 墨田東あずま駅前店
",東京都墨田区立花3丁目13-4,35.7069682,139.8324768
"
ファミリーマート 東京ソラマチ1F店
",東京都墨田区押上1丁目1-13,35.711066,139.8143846
"
ファミリーマート 東京ソラマチB3F店
",東京都墨田区押上1丁目-1-13,35.711066,139.8143846
"
ファミリーマート アルカウエストビル店
",東京都墨田区錦糸1丁目2-4アルカウエストAIGタワー22F,35.6971549,139.8095509
"
ファミリーマート 東向島五丁目店
",東京都墨田区東向島5丁目4-6,35.7252731,139.8209447
"
ファミリーマート 墨田亀沢二丁目店
",東京都墨田区亀沢2丁目25番6号,35.6987962,139.8024631
"
ファミリーマート 立川四丁目店
",東京都墨田区立川4丁目3番17号,35.6902777,139.8072064
"
ファミリーマート 業平三丁目店
",東京都墨田区業平3丁目11番9号,35.7080639,139.8136572
"
ファミリーマート 両国駅西口店
",東京都墨田区両国2-21-5,35.69556439999999,139.7926888
"
ファミリーマート 墨田押上駅前店
",東京都墨田区押上1丁目12-1 大豊押上ビル,35.7106649,139.8144865
"
ファミリーマート 墨田立花二丁目店
",東京都墨田区立花2丁目11-17,35.7076624,139.8279715
"
ファミリーマート 錦糸町ウインズ前店
",東京都墨田区江東橋2丁目11-5 河口ビル,35.6951835,139.8126481
"
ファミリーマート 墨田太平三丁目店
",東京都墨田区太平3丁目10番12号,35.7007176,139.8133188
"
ファミリーマート 八広駅店
",東京都墨田区八広6丁目25-20,35.7272302,139.8282668
"
ファミリーマート 押上駅店
",東京都墨田区押上1丁目1,35.7102244,139.8115491
"
ファミリーマート 江東橋一丁目店
",東京都墨田区江東橋1丁目13番5号,35.6959363,139.810966
"
ファミリーマート 京島一丁目店
",東京都墨田区京島1丁目47-17 グランロイヤル曳舟,35.7182247,139.8220807
"
ファミリーマート 八広六丁目店
",東京都墨田区八広6丁目50番11号,35.7253074,139.8291152
"
ファミリーマート 墨田亀沢四丁目店
",東京都墨田区亀沢4丁目16-16 錦糸町Yビル,35.6975721,139.8075341
"
ファミリーマート 亀沢一丁目店
",東京都墨田区亀沢1丁目1番10号,35.6958741,139.7987542
"
ファミリーマート 鐘ヶ淵駅前店
",東京都墨田区墨田5丁目43-11,35.7334118,139.8196075
"
ファミリーマート 京成曳舟駅構内店
",東京都墨田区京島1丁目39-1 京成曳舟駅,35.7191831,139.8193792
"
ファミリーマート 本所立川三丁目店
",東京都墨田区立川3-10-8,35.6915843,139.8054549
"
ファミリーマート 菊川駅前店
",東京都墨田区菊川3-7-5,35.688204,139.8065637
"
ファミリーマート 押上十間橋通り店
",東京都墨田区押上3丁目42番12号,35.7101972,139.8197385
"
ファミリーマート 東墨田二丁目店
",東京都墨田区東墨田2-1-13,35.7182884,139.8301383
"
ファミリーマート 曳舟病院前店
",東京都墨田区東向島2丁目30-11,35.7179751,139.8173952
"
ファミリーマート 錦糸町店
",東京都墨田区江東橋4-29-13 第2鈴勘ビル,35.6960379,139.8168446
"
ファミリーマート 墨田菊川駅前店
",東京都墨田区菊川2-5-10,35.6882256,139.8058426
"
ファミリーマート 墨田錦糸町北口店
",東京都墨田区錦糸3丁目2-1 アルカイースト,35.6974959,139.8143467
"
ファミリーマート 墨田江東橋四丁目店
",東京都墨田区江東橋4丁目19番1号,35.6946659,139.8154481
"
ファミリーマート 墨田両国東口店
",東京都墨田区両国4丁目37番10号レジデンス両国駅前,35.6953417,139.7961078
"
ファミリーマート 両国亀沢店
",東京都墨田区亀沢1-24-1,35.6984655,139.7975771
"
ファミリーマート 東武鉄道本社店
",東京都墨田区押上2-18-12,35.7123758,139.8137758
"
ファミリーマート アルカセントラルビル店
",東京都墨田区錦糸1丁目2-1,35.6973867,139.8113852
"
ファミリーマート 両国駅前通り店
",東京都墨田区両国2丁目18-1,35.6949447,139.7921209
"
コミュニティ・ストア 吾妻橋店
",東京都墨田区吾妻橋1-23-30 パトリア吾妻橋104,35.7093993,139.8008828
"
コミュニティ・ストア にしざわ 同愛店
",東京都墨田区横網2-1-11 同愛記念病院内,35.6995693,139.7941677
"
ミニストップ 業平橋店
",東京都墨田区押上2-2-1,35.7111745,139.8095385
"
ミニストップ 江東橋店
",東京都墨田区江東橋2-2-8,35.6935736,139.8131003
"
ミニストップ 緑2丁目店
",東京都墨田区緑2-21-12,35.6955488,139.8026847
"
ミニストップ 吾妻橋3丁目店
",東京都墨田区吾妻橋3-1-3,35.7084096,139.8045828
"
ミニストップ 東向島5丁目店
",東京都墨田区東向島5丁目18-1,35.7258872,139.8215249
"
ミニストップ 錦糸公園店
",東京都墨田区錦糸3丁目4番7号,35.69818619999999,139.8147481
"
セブンイレブン 東武曳舟駅前店
",東京都墨田区東向島2-16-14,35.7183789,139.8161514
"
セブンイレブン 墨田四ツ木橋南店
",東京都墨田区東向島5ー39ー12,35.7285,139.824634
"
セブンイレブン 墨田鐘ヶ淵駅前店
",東京都墨田区墨田4-9-1,35.7330165,139.8201257
"
セブンイレブン 墨田業平5丁目店
",東京都墨田区業平5-3-1,35.7068664,139.8161289
"
セブンイレブン 墨田本所2丁目店
",東京都墨田区本所2-12-14,35.703914,139.8015444
"
セブンイレブン 墨田菊川1丁目店
",東京都墨田区菊川1-17-12,35.6901455,139.8017975
"
セブンイレブン 墨田タワービュー通り店
",東京都墨田区太平1-11-9,35.7007597,139.8114666
"
セブンイレブン 墨田両国2丁目店
",東京都墨田区両国2-10-14,35.6938227,139.7927731
"
セブンイレブン 墨田太平3丁目店
",東京都墨田区太平3-20-7,35.7026663,139.8143615
"
セブンイレブン 墨田亀沢3丁目店
",東京都墨田区亀沢3-20-14,35.6975538,139.8029825
"
セブンイレブン 墨田緑4丁目店
",東京都墨田区緑4-20-10,35.6948789,139.8077536
"
セブンイレブン 墨田京島3丁目明治通り店
",東京都墨田区京島3-13-3,35.7171301,139.8231999
"
セブンイレブン 墨田石原店
",東京都墨田区石原4-1-1,35.6992065,139.8053025
"
セブンイレブン 墨田文花2丁目明治通り店
",東京都墨田区文花2-3-14,35.7080411,139.8269561
"
セブンイレブン 墨田業平2丁目店
",東京都墨田区業平2丁目18-3,35.709446,139.8122941
"
セブンイレブン 墨田錦糸1丁目店
",東京都墨田区錦糸1-5-16,35.6978565,139.8102605
"
セブンイレブン 墨田立川3丁目店
",東京都墨田区立川3-15-5,35.6919843,139.8036033
"
セブンイレブン 墨田江東橋3丁目店
",東京都墨田区江東橋3-5-19,35.6940977,139.8136186
"
セブンイレブン 墨田亀沢1丁目店
",東京都墨田区亀沢1-12-8,35.6971935,139.7996871
"
セブンイレブン 墨田京島1丁目店
",東京都墨田区京島1丁目25番1,35.7156413,139.8197705
"
セブンイレブン 錦糸町駅南口店
",東京都墨田区江東橋3-10-8,35.6957714,139.8128921
"
セブンイレブン 墨田文花店
",東京都墨田区文花3-23-8,35.7108956,139.8284627
"
セブンイレブン 墨田八広4丁目店
",東京都墨田区八広4丁目48番地17号,35.720578,139.8300598
"
セブンイレブン 墨田石原1丁目店
",東京都墨田区石原1ー27ー1,35.6999233,139.7973995
"
セブンイレブン 墨田東向島5丁目店
",東京都墨田区東向島5ー8ー1,35.7253213,139.819689
"
セブンイレブン 墨田東向島3丁目店
",東京都墨田区東向島3-10-5,35.727255,139.8133147
"
セブンイレブン 墨田江東橋4丁目店
",東京都墨田区江東橋4丁目10-12,35.6940262,139.8158219
"
セブンイレブン 墨田4丁目店
",東京都墨田区墨田4-15-7,35.7308262,139.8227514
"
セブンイレブン 墨田八広北店
",東京都墨田区八広5-8-15,35.7245288,139.8241396
"
セブンイレブン 墨田八広5丁目店
",東京都墨田区八広5ー28ー15,35.7238938,139.8269662
"
セブンイレブン 墨田吾妻橋3丁目店
",東京都墨田区吾妻橋3ー3ー2,35.7084667,139.806932
"
セブンイレブン 墨田押上2丁目西店
",東京都墨田区押上2-10-13,35.7113152,139.8124323
"
セブンイレブン 墨田押上1丁目店
",東京都墨田区押上1-33-3,35.7107945,139.8167064
"
セブンイレブン 墨田押上2丁目東店
",東京都墨田区押上2丁目33-5,35.7160975,139.8159349
"
セブンイレブン 墨田東向島4丁目店
",東京都墨田区東向島4-26-8,35.7226805,139.818303
"
セブンイレブン 錦糸町ロッテシティ店
",東京都墨田区錦糸4-6-1,35.6975042,139.815457
"
セブンイレブン 墨田両国3丁目店
",東京都墨田区両国3ー20ー3,35.6942063,139.7944174
"
セブンイレブン 墨田吾妻橋1丁目店
",東京都墨田区吾妻橋1-7-9,35.7086194,139.8016878
"
セブンイレブン 墨田両国4丁目店
",東京都墨田区両国4-38-12,35.6954409,139.7972912
"
セブンイレブン JR錦糸町駅前店
",東京都墨田区江東橋3-14-10,35.6962238,139.8135889
"
セブンイレブン 墨田八広はなみずき通り店
",東京都墨田区八広2丁目55-2,35.7143156,139.8279812
"
セブンイレブン 墨田立花4丁目店
",東京都墨田区立花4-40-13,35.7086695,139.8368715
"
セブンイレブン 墨田業平1丁目店
",東京都墨田区業平1-1-6,35.7066364,139.808768
"
セブンイレブン 墨田八広1丁目店
",東京都墨田区八広1丁目27-9,35.7184966,139.8241837
"
セブンイレブン 墨田菊川店
",東京都墨田区菊川3-10-6,35.6883451,139.8082978
"
セブンイレブン 墨田2丁目店
",東京都墨田区墨田2-5-1,35.7320614,139.8157204
"
セブンイレブン 墨田八広南店
",東京都墨田区八広2ー15ー20,35.7161348,139.8246528
"
セブンイレブン 墨田堤通1丁目店
",東京都墨田区堤通1-11-9,35.7248792,139.8123801
"
セブンイレブン 墨田本所1丁目清澄通り店
",東京都墨田区本所1-19-1,35.7030641,139.7971529
"
セブンイレブン 向島店
",東京都墨田区向島3-5-4,35.7150632,139.8093098
"
セブンイレブン 墨田向島5丁目店
",東京都墨田区向島5-13-5,35.7193217,139.8106904
"
セブンイレブン 墨田本所4丁目店
",東京都墨田区本所4-10-4,35.7036939,139.8068341
"
セブンイレブン 墨田東駒形3丁目店
",東京都墨田区東駒形3丁目5-10,35.70614,139.8042085
"
セブンイレブン 墨田立花5丁目店
",東京都墨田区立花5-7-1,35.7134528,139.8283586
"
セブンイレブン 墨田1丁目大正通り店
",東京都墨田区墨田1-10-13,35.72729320000001,139.8180207
"
セブンイレブン 墨田業平4丁目店
",東京都墨田区業平4-9-3,35.707905,139.8141703
"
セブンイレブン 墨田緑3丁目店
",東京都墨田区緑3-5-9,35.693475,139.8054254
"
セブンイレブン 墨田太平3丁目南店
",東京都墨田区太平3-7-7,35.700407,139.8137796
"
セブンイレブン 墨田5丁目店
",東京都墨田区墨田5丁目43-16,35.7339272,139.8191998
"
セブンイレブン すみだパークプレイス店
",東京都墨田区横川1-1-10,35.7037924,139.8089789
"
セブンイレブン 墨田京島2丁目店
",東京都墨田区京島2-27-13,35.7119831,139.8232384
"
セブンイレブン 墨田千歳店
",東京都墨田区千歳2-9-12,35.6913853,139.7952371
"
セブンイレブン 墨田東向島2丁目店
",東京都墨田区東向島2丁目31-10,35.7188583,139.8185097
"
セブンイレブン 墨田横川5丁目店
",東京都墨田区横川5-1-1,35.7031584,139.8165255
"
セブンイレブン オリナス錦糸町店
",東京都墨田区太平4-1-2,35.7006437,139.8156977
"
セブンイレブン 墨田押上2丁目店
",東京都墨田区押上2-20-2,35.7137904,139.8131695
"
セブンイレブン 墨田東向島4丁目北店
",東京都墨田区東向島4丁目24-17,35.72521140000001,139.8177777
"
セブンイレブン 墨田本所3丁目店
",東京都墨田区本所3-7-7,35.7028593,139.8044977
"
セブンイレブン 墨田江東橋5丁目店
",東京都墨田区江東橋5-2-9,35.6901036,139.8097889
