Name,Address,lat,lon
"
ローソン 東京ビッグサイトエントランス店
",東京都江東区有明3-11-1,35.6298179,139.7942868
"
コミュニティショップ二口屋
",東京都江東区大島4丁目12-12,35.6882129,139.8322956
"
吉田屋商店
",東京都江東区枝川2丁目3-9,35.659245,139.8060555
"
デイリーヤマザキ門前仲町駅前店
",東京都江東区富岡1丁目6-6,35.6710425,139.7971192
"
NEWDAYS(ニューデイズ) 新木場2号店
",東京都江東区新木場1 新木場駅1・2番線ホーム内(蘇我方面),35.6459065,139.8267917
"
生活彩家 OCS東京スカイゲート店
",東京都江東区辰巳3-9-27 OCS東京スカイゲート 8F,35.64263460000001,139.8145263
"
NEWDAYS(ニューデイズ) 亀戸4号店
",東京都江東区亀戸5-1 亀戸駅両国方面ホーム内,35.6973225,139.8265658
"
NEWDAYS(ニューデイズ) りんかい新木場店
",東京都江東区新木場1 りんかい線新木場駅改札内,35.6459065,139.8267917
"
NEWDAYSMINI(ニューデイズミニ) 潮見1号店
",東京都江東区潮見2-7-20 潮見駅改札外コンコース,35.6587316,139.8174046
"
NEWDAYSMINI(ニューデイズミニ) 亀戸1号店
",東京都江東区亀戸5-1 亀戸駅北口改札内,35.6973225,139.8265658
"
NEWDAYS(ニューデイズ) 亀戸店
",東京都江東区亀戸5-1 亀戸駅北口改札脇,35.6973225,139.8265658
"
NEWDAYS(ニューデイズ) 東京テレポート店
",東京都江東区青海1-2-1 りんかい線東京テレポート駅改札外コンコース,35.6275325,139.7788145
"
COMMUNITY STORE(コミュニティ・ストア) イーストスクエア東京店
",東京都江東区新砂1-6-35 イーストスクエア東京1F,35.6671145,139.8235945
"
ポプラ 古石場3丁目店
",東京都江東区古石場3-8-1,35.6659652,139.8007949
"
生活彩家 豊洲センタービル店
",東京都江東区豊洲3-3-3 豊洲センタービル1F,35.6558266,139.7963119
"
生活彩家 theSOHO青海店
",東京都江東区青海2-7-4,35.6181091,139.7749925
"
サンフェスタ
",東京都江東区千田7-17,35.68084109999999,139.8153896
"
コミュニティストア大阪屋
",東京都江東区木場5-11-19,35.66958,139.807925
"
ファミリーマート テレコムセンター店
",東京都江東区青海2-5-10,35.6170866,139.7796947
"
デイリーヤマザキ 豊洲5丁目店
",東京都江東区豊洲5-5-18,35.6530697,139.797342
"
ローソン 南砂二丁目店
",東京都江東区南砂2-37-1,35.6718179,139.825563
"
ローソン 大島五丁目店
",東京都江東区大島5-45-7,35.6897655,139.8366669
"
ローソン 辰巳団地店
",東京都江東区辰巳1-2-9-113,35.650126,139.808645
"
ローソン 亀戸一丁目店
",東京都江東区亀戸1-38-4,35.6962661,139.8241636
"
ローソン 亀戸七丁目店
",東京都江東区亀戸7-10-16,35.6973157,139.8347888
"
ローソン 南砂五丁目店
",東京都江東区南砂5-23-8,35.6759532,139.8339411
"
ローソン 清澄三丁目店
",東京都江東区清澄3-4-8,35.6818384,139.7979886
"
ローソン 亀戸南店
",東京都江東区亀戸6-1-15,35.6939742,139.8281932
"
ローソン 亀戸水神店
",東京都江東区亀戸8-14-13,35.7006771,139.8332322
"
ローソン 東陽三丁目店
",東京都江東区東陽3-7-10,35.6695236,139.8098847
"
ローソン 新木場一丁目店
",東京都江東区新木場1-8-19,35.645821,139.834994
"
ローソン 江東亀戸六丁目店
",東京都江東区亀戸6-29-10,35.6962446,139.8276071
"
ローソン 江東住吉二丁目店
",東京都江東区住吉2-16-8,35.6899055,139.8154342
"
ローソン 有明コロシアム前店
",東京都江東区有明1-3-19,35.6385601,139.790627
"
ローソン アパホテル東京潮見駅前店
",東京都江東区潮見2-8-6,35.6578741,139.8189755
"
ローソン 亀戸二丁目店
",東京都江東区亀戸2-18-10,35.6979057,139.8240397
"
ローソン 住吉一丁目店
",東京都江東区住吉1-16-14,35.6890512,139.8127108
"
ローソン 東陽七丁目店
",東京都江東区東陽7-1-10,35.6755744,139.8163654
"
ローソン 猿江二丁目店
",東京都江東区猿江2-3-14,35.6860193,139.8157716
"
ナチュラルローソン 豊洲三丁目店
",東京都江東区豊洲3-5-21,35.6586976,139.7958331
"
ナチュラルローソン 東陽七丁目店
",東京都江東区東陽7-1-2,35.6749635,139.8163974
"
ローソン ホテルサンルート有明店
",東京都江東区有明3-6-6,35.6321669,139.7894983
"
ローソン H東砂七丁目店
",東京都江東区東砂7-16-6,35.6752838,139.8403043
"
ローソン 江東東雲一丁目店
",東京都江東区東雲1-7-12,35.6478102,139.7985686
"
ローソン 東雲駅前店
",東京都江東区東雲2-10-1,35.6401764,139.8042444
"
ローソン 江東運転免許試験場前店
",東京都江東区南砂2-1-15,35.6695201,139.8217618
"
ローソン 西大島駅前店
",東京都江東区大島2-41-18,35.6895714,139.8261438
"
ローソンストア100 LS江東大島六丁目団地店
",東京都江東区大島6-1-1,35.690304,139.8323778
"
ローソン 豊洲フロント店
",東京都江東区豊洲3-2-20,35.6568767,139.795662
"
ローソン 木場二丁目店
",東京都江東区木場2-8-3,35.6698222,139.8028024
"
ローソン 東雲一丁目店
",東京都江東区東雲1-9-9,35.6470265,139.8023966
"
ローソン 有明セントラルタワー店
",東京都江東区有明3-7-18,35.6320627,139.7936757
"
ローソン 大島四丁目店
",東京都江東区大島4-3-2,35.6886009,139.8265977
"
ローソン 新大橋一丁目店
",東京都江東区新大橋1-9-6,35.6890487,139.7934226
"
ローソン しののめ店
",東京都江東区東雲2-1-19,35.6437915,139.8018548
"
ローソン JPローソン東陽公園店
",東京都江東区東陽3-27-30,35.6697282,139.8153085
"
【休業中】ローソン 江東木場店
",東京都江東区木場6-4-4,35.6667189,139.8055652
"
ローソン 木場公園店
",東京都江東区木場3-18-14,35.6726631,139.8061736
"
ローソン 江東清澄店
",東京都江東区三好1-8-3,35.6803555,139.7992778
"
ローソン 永代橋店
",東京都江東区永代1-14-26,35.6748592,139.7906704
"
ローソン TIME24店
",東京都江東区青海2-4-32,35.6175817,139.7769343
"
ローソン 東陽橋店
",東京都江東区塩浜2-24-10-114,35.6642858,139.8152052
"
ローソン お台場店
",東京都江東区青海1-2-9,35.6266083,139.7770925
"
ローソン 小名木川店
",東京都江東区北砂5-20,35.6840631,139.832974
"
ローソン 国際展示場駅前店
",東京都江東区有明3-7-2,35.6340797,139.7912456
"
ローソン 豊洲一丁目店
",東京都江東区豊洲1-2-39,35.6600425,139.7924181
"
ローソン 亀戸駅北口店
",東京都江東区亀戸5-3-2,35.6984599,139.8262453
"
ローソン 南砂葛西橋通店
",東京都江東区南砂2-34-4,35.6747331,139.8261966
"
ローソン 江東豊洲五丁目店
",東京都江東区豊洲5-4-9,35.65205890000001,139.7965348
"
ナチュラルローソン 昭和大学江東豊洲病院
",東京都江東区豊洲5-1-38,35.6503083,139.7962722
"
ローソン 墨東病院東店
",東京都江東区亀戸1-4-2,35.6943489,139.8202718
"
ローソン 南砂日曹橋店
",東京都江東区南砂2-38-3,35.66945,139.825479
"
ローソン JPローソン新東京郵便局事務棟店
",東京都江東区新砂2-4-23新東京郵便局事務棟3F,35.6608423,139.8259797
"
ローソン JPローソン深川郵便局店
",東京都江東区東陽4-4-2,35.6702239,139.8178934
"
ローソン 江東北砂二丁目店
",東京都江東区北砂2-1-28,35.6781177,139.8271
"
ローソン 江東森下一丁目店
",東京都江東区森下1-16-10,35.6881511,139.7972658
"
ローソン ポートストア有明店
",東京都江東区有明4-4-24,35.6229295,139.7897689
"
ローソン 東大島駅前店
",東京都江東区大島7-39-27,35.6909531,139.8440526
"
ローソンストア100 LS東大島店
",東京都江東区大島8-42-17,35.689859,139.8443784
"
ローソンストア100 LS江東白河二丁目店
",東京都江東区白河2-5-13,35.6813317,139.8032769
"
ローソンストア100 LS西大島店
",東京都江東区大島4-5-11籐和西大島コープ,35.6891068,139.8277373
"
ローソンストア100 LS東陽一丁目店
",東京都江東区東陽1-28-4天野園ビル,35.6682559,139.8110895
"
ローソンストア100 LS大島一丁目店
",東京都江東区大島1-21-5エスポワール西大島,35.6866931,139.8248788
"
ローソンストア100 LS住吉駅前店
",東京都江東区住吉2-7-12はせ川ビル,35.6883694,139.8155257
"
ローソンストア100 LS亀戸二丁目店
",東京都江東区亀戸2-36-11,35.7002975,139.8250047
"
ローソンストア100 江東石島店
",東京都江東区石島10-7,35.6804966,139.8140471
"
ローソンストア100 LS江東森下三丁目店
",東京都江東区森下3-20-2,35.6878522,139.802309
"
ローソンストア100 LS北砂三丁目店
",東京都江東区北砂3-4-8,35.6848328,139.8269101
"
ローソンストア100 江東牡丹一丁目店
",東京都江東区牡丹1-14-1,35.6708537,139.7937299
"
ローソン 江東区役所前店
",東京都江東区東陽4-10-5,35.6715234,139.8165648
"
ローソン ポートストア青海店
",東京都江東区青海4-4-1,35.6183835,139.7817157
"
ローソン ポートストア辰巳店
",東京都江東区辰巳2-1,35.6485026,139.8144266
"
ローソン 江東住吉大門通店
",東京都江東区住吉1-7-8,35.6879757,139.8112693
"
ローソン メトロス新木場店
",東京都江東区新木場1-6先有楽町線新木場駅構内,35.6459022,139.8266952
"
ローソン メトロス門前仲町西口店
",東京都江東区門前仲町1-4-8,35.6722651,139.7944241
"
ローソン メトロス豊洲店
",東京都江東区豊洲4-1-1,35.6545689,139.7970579
"
ローソン・スリーエフ 江東森下二丁目店
",東京都江東区森下2-23-2,35.6886975,139.7985292
"
ローソン・スリーエフ 江東猿江店
",東京都江東区猿江2-11-8,35.6870862,139.8156367
"
ローソン・スリーエフ 大島七丁目店
",東京都江東区大島7-41-10,35.6928804,139.8434915
"
ローソン 江東猿江一丁目店
",東京都江東区猿江1-17-17,35.6867989,139.8107498
"
ローソン 東京ビッグサイト南棟店
",東京都江東区有明3-11-1,35.6298179,139.7942868
"
ローソン Tokyoビッグベイ店
",東京都江東区東雲2-13-32,35.6372165,139.8027158
"
ファミリーマート ヤマキ千田店
",東京都江東区千田16-1,35.6818082,139.8162351
"
ファミリーマート 北砂五丁目店
",東京都江東区北砂5-21-13,35.6841264,139.8309385
"
ファミリーマート がん研有明病院店
",東京都江東区有明3丁目8-31,35.6342222,139.7946914
"
ファミリーマート 東砂七丁目店
",東京都江東区東砂7丁目19番5号,35.6726561,139.837805
"
ファミリーマート 大島八丁目店
",東京都江東区大島8-40-4,35.68857,139.8447524
"
ファミリーマート 門前仲町一丁目店
",東京都江東区門前仲町1-5-5,35.6728234,139.7933466
"
ファミリーマート 牡丹一丁目店
",東京都江東区牡丹1-2-2,35.6706084,139.7934106
"
ファミリーマート 豊洲四丁目店
",東京都江東区豊洲4-1-3,35.6547293,139.7972736
"
ファミリーマート 江東新砂店
",東京都江東区新砂3-2-1,35.6682712,139.828891
"
ファミリーマート 門前仲町駅前店
",東京都江東区門前仲町1-7-12木屋源ビル,35.6728743,139.7943867
"
ファミリーマート アネックス豊洲店
",東京都江東区豊洲4-8-8,35.6553799,139.7994744
"
ファミリーマート 木場二丁目店
",東京都江東区木場2-19,35.6696953,139.8053149
"
ファミリーマート 東陽六丁目店
",東京都江東区東陽6-2-56,35.6745682,139.8128279
"
ファミリーマート 豊洲センタービルアネックス店
",東京都江東区豊洲3-3-9豊洲センタービルアネックス,35.6559025,139.7970598
"
ファミリーマート 大島四丁目店
",東京都江東区大島4丁目1番32号,35.6866821,139.8268174
"
ファミリーマート 亀戸四丁目店
",東京都江東区亀戸4-45-11,35.7019054,139.8295608
"
ファミリーマート 門前仲町店
",東京都江東区門前仲町2-3-8,35.6718278,139.795638
"
ファミリーマート 亀戸駅前店
",東京都江東区亀戸2-22-12,35.6982884,139.8254006
"
ファミリーマート TKD亀戸六丁目店
",東京都江東区亀戸6-54-7,35.6967183,139.8327791
"
ファミリーマート 文福南砂店
",東京都江東区南砂6-2-2,35.6711848,139.8341077
"
ファミリーマート 江東福住一丁目店
",東京都江東区福住1丁目8番10号,35.6763809,139.793981
"
ファミリーマート 江東亀戸五丁目店
",東京都江東区亀戸5丁目14-8,35.6994772,139.8257908
"
ファミリーマート 江東森下四丁目店
",東京都江東区森下4丁目10-8,35.6859154,139.8060244
"
ファミリーマート サクマ新木場駅店
",東京都江東区新木場1丁目6番1号,35.6458462,139.8264402
"
ファミリーマート 江東北砂店
",東京都江東区北砂5丁目17-1,35.6816885,139.8342026
"
ファミリーマート 亀戸駅南店
",東京都江東区亀戸1丁目32-6 ウイングス・ハイ亀戸,35.6953462,139.8255184
"
ファミリーマート 薬ヒグチ亀戸東口店
",東京都江東区亀戸6-62-8,35.6972041,139.8289962
"
ファミリーマート 大島五丁目店
",東京都江東区大島5-32-12,35.68854779999999,139.8358841
"
ファミリーマート 東砂三丁目店
",東京都江東区東砂3-17,35.6813752,139.8424098
"
ファミリーマート 大島中央銀座店
",東京都江東区大島5丁目11-2,35.6888723,139.8344377
"
ファミリーマート 江東福住二丁目店
",東京都江東区福住2丁目3-16,35.6775211,139.7937763
"
ファミリーマート 江東境川店
",東京都江東区南砂5-4-8,35.6767925,139.8279595
"
ファミリーマート 辰巳一丁目店
",東京都江東区辰巳1-4-11,35.65219099999999,139.8083302
"
ファミリーマート 北砂六丁目店
",東京都江東区北砂6丁目12-7,35.6842236,139.8364269
"
ファミリーマート 深川高橋店
",東京都江東区高橋12-1,35.6852378,139.7986972
"
ファミリーマート K2潮見一丁目店
",東京都江東区潮見1-5-6,35.6565828,139.8129742
"
ファミリーマート 東京湾岸警察署前店
",東京都江東区青海2丁目7-4THESOHO,error,error
"
ファミリーマート 平野二丁目店
",東京都江東区平野2丁目2番20レジデンス清澄白河,35.6768657,139.8028773
"
ファミリーマート 清澄白河駅前店
",東京都江東区白河1-6-12,35.6822342,139.7996607
"
ファミリーマート 東京イースト21店
",東京都江東区東陽6丁目3-2,35.6753038,139.815734
"
ファミリーマート TKD亀戸中之橋店
",東京都江東区亀戸7-60-12,35.6951778,139.8376698
"
ファミリーマート 江東石島店
",東京都江東区石島5番8,35.6803851,139.8121018
"
ファミリーマート 江東白河四丁目店
",東京都江東区白河4丁目2-5,35.6823309,139.8068933
"
ファミリーマート TKD西大島店
",東京都江東区大島2-35-12,35.6917307,139.8259338
"
ファミリーマート 白河二丁目店
",東京都江東区白河2-7-8,35.6821104,139.8035798
"
ファミリーマート 牡丹三丁目店
",東京都江東区牡丹3丁目22番2号,35.6685338,139.7989216
"
ファミリーマート 木場五丁目店
",東京都江東区木場5丁目11-19大坂屋ビル1階,35.6695765,139.8079324
"
ファミリーマート 潮見駅南店
",東京都江東区潮見2-10-22,35.6569861,139.8181525
"
ファミリーマート 江東東砂店
",東京都江東区東砂3丁目15-24 グランデュール吉武,35.6806462,139.8409904
"
ファミリーマート 昭和薬品西大島駅前店
",東京都江東区大島3丁目1-6,35.6896771,139.8271659
"
ファミリーマート 江東有明店
",東京都江東区有明1丁目1番17号,35.6422838,139.7958376
"
ファミリーマート 江東北砂五丁目店
",東京都江東区北砂5-14-16 砂銀ビル,35.6801922,139.8346932
"
ファミリーマート 東陽四丁目店
",東京都江東区東陽4-6-19,35.669888,139.8195039
"
ファミリーマート 有明フロンティア店
",東京都江東区有明3-7-26-106,35.6319067,139.7915243
"
ファミリーマート 深川門前仲町店
",東京都江東区富岡1-23-16,35.6709575,139.7987888
"
ファミリーマート 南砂六丁目店
",東京都江東区南砂6-1-6,35.6716579,139.8327432
"
ファミリーマート 江東東陽一丁目店
",東京都江東区東陽1-16-12,35.6676562,139.810586
"
ファミリーマート 江東北砂四丁目店
",東京都江東区北砂4丁目32-14,35.676595,139.8326956
"
ファミリーマート 新木場一丁目店
",東京都江東区新木場1丁目11,35.6426764,139.8364923
"
ファミリーマート 江東新木場二丁目店
",東京都江東区新木場2丁目10番5号,35.6381588,139.8234788
"
ファミリーマート ポートストア若洲店
",東京都江東区若洲1丁目1番4号,35.6306536,139.8356235
"
ファミリーマート 江東亀戸九丁目店
",東京都江東区亀戸9丁目34番1-138号,35.7002831,139.8404459
"
ファミリーマート 江東門前仲町店
",東京都江東区門前仲町1-8-11,35.6730421,139.794679
"
ファミリーマート 江東塩浜二丁目店
",東京都江東区塩浜2丁目14番1号,35.6629916,139.8086682
"
ファミリーマート 豊洲五丁目店
",東京都江東区豊洲5丁目2番10号 沢真ビル,35.6534567,139.7955453
"
ファミリーマート TKD森下一丁目店
",東京都江東区森下1丁目5-5,35.6867072,139.7980627
"
ファミリーマート 大島二丁目店
",東京都江東区大島2-19-12,35.6894321,139.8231958
"
ファミリーマート 江東木場二丁目店
",東京都江東区木場2丁目6番3号メインステージ木場,35.6693819,139.8029939
"
ファミリーマート 江東南砂四丁目店
",東京都江東区南砂4丁目4番20号,35.6747304,139.8279278
"
ファミリーマート 東雲橋店
",東京都江東区東雲1-10-18,35.6500036,139.8024045
"
ファミリーマート 江東冬木店
",東京都江東区冬木23番13-103号,35.67536690000001,139.7997203
"
ファミリーマート 江東深川二丁目店
",東京都江東区深川2-5-1,35.6744041,139.7962851
"
ファミリーマート テレコムセンター店
",東京都江東区青海2丁目5-10,35.6170866,139.7796947
"
ファミリーマート 青海フロンティア店
",東京都江東区青海2丁目4-24青海フロンティアビル,35.6176484,139.7783933
"
ファミリーマート B.Sガレリア店
",東京都江東区有明3丁目10-1国際展示場東展示棟,35.6326937,139.7995331
"
ファミリーマート 東陽二丁目店
",東京都江東区東陽2丁目4-46,35.6691276,139.8193583
"
ファミリーマート 東陽町駅前店
",東京都江東区東陽4丁目1-2,35.6693024,139.8166287
"
ファミリーマート 江東東雲一丁目店
",東京都江東区東雲1丁目9-11-104,35.6459492,139.8041555
"
ファミリーマート 豊洲キャナルフロント店
",東京都江東区豊洲5丁目6-52,35.6505408,139.7992869
"
ファミリーマート 江東亀戸二丁目店
",東京都江東区亀戸2丁目33-4,35.7001779,139.8235228
"
ファミリーマート ヴィーナスフォート店
",東京都江東区青海1丁目3-15,35.6253377,139.7802249
"
ファミリーマート 森下二丁目店
",東京都江東区森下2丁目17-6,35.6878475,139.7986934
"
コミュニティ・ストア 東陽町 サンヒダカ店
",東京都江東区東陽2-4-29 マルシンビル1F,35.6690092,139.8167847
"
コミュニティ・ストア ぬ利彦 東雲店
",東京都江東区東雲2-8-10 臨海副都心線東雲駅,35.6405945,139.8034612
"
ミニストップ 大島1丁目店
",東京都江東区大島1-34-15,35.6876676,139.8262907
"
ミニストップ WANZA有明店
",東京都江東区有明3-6 東京ファッションタウン2F,35.630117,139.7896524
"
ミニストップ 潮見駅前店
",東京都江東区潮見2-6-1,35.6594037,139.8161479
"
ミニストップ 越中島通り店
",東京都江東区越中島3-6-15 タ-ミナル棟,35.6648997,139.7980572
"
ミニストップ 亀戸9丁目店
",東京都江東区亀戸9-11-1,35.6962621,139.846193
"
ミニストップ 北砂6丁目店
",東京都江東区北砂6-27-21,35.6803694,139.8382856
"
ミニストップ 南砂町駅前店
",東京都江東区南砂3丁目14-1-104,35.6688765,139.831998
"
ミニストップ 江東千石店
",東京都江東区千石1-8-4,35.678289,139.81331
"
ミニストップ 福通越中島店
",東京都江東区越中島3-6-15,35.664878,139.7981529
"
ミニストップ 江東枝川1丁目店
",東京都江東区枝川1丁目9番6号,35.6569536,139.8017426
"
ミニストップ 365table東砂店
",東京都江東区東砂7-1-1,35.6700846,139.8383476
"
セブンイレブン 江東深川ギャザリア店
",東京都江東区木場1-5-65,35.6673299,139.8032711
"
セブンイレブン 7FSビッグサイト店
",東京都江東区有明3-11-1,35.6298179,139.7942868
"
セブンイレブン 江東東陽4丁目店
",東京都江東区東陽4-6-11,35.6708274,139.8193914
"
セブンイレブン 江東大島1丁目店
",東京都江東区大島1-1-18,35.6862615,139.8221404
"
セブンイレブン 亀戸駅前店
",東京都江東区亀戸2丁目20番3号,35.6976914,139.8250889
"
セブンイレブン ヤマタネビル店
",東京都江東区越中島1-2-21,35.6707778,139.7912772
"
セブンイレブン 江東三好4丁目店
",東京都江東区三好4-6-7,35.68138,139.8093443
"
セブンイレブン 江東北砂7丁目店
",東京都江東区北砂7丁目9-20,35.6763016,139.8361539
"
セブンイレブン 東雲店
",東京都江東区東雲1-8-17,35.6449611,139.8007412
"
セブンイレブン 森下店
",東京都江東区森下3-1-11,35.6853682,139.8006838
"
セブンイレブン 亀戸三丁目店
",東京都江東区亀戸3ー23ー1,35.7039393,139.8217401
"
セブンイレブン 江東毛利店
",東京都江東区毛利1-6-10,35.6920514,139.8131778
"
セブンイレブン 江東佐賀2丁目店
",東京都江東区佐賀2-12-7,35.6789196,139.7934596
"
セブンイレブン 江東毛利1丁目店
",東京都江東区毛利1丁目11-12,35.6908825,139.8153314
"
セブンイレブン 豊洲3丁目店
",東京都江東区豊洲3-1-1,35.6593906,139.7937628
"
セブンイレブン 江東南砂3丁目公園前店
",東京都江東区南砂7-4-1,35.6700291,139.8341415
"
セブンイレブン AIM日本ヒューレット・パッカ店
",東京都江東区大島2丁目2番1号,35.691012,139.8209711
"
セブンイレブン 北砂3丁目明治通り店
",東京都江東区北砂3-3-7,35.683572,139.827159
"
セブンイレブン 江東木場1丁目店
",東京都江東区木場1-5-25,35.6667282,139.8048599
"
セブンイレブン 江東南砂2丁目店
",東京都江東区南砂2-10-12,35.6723194,139.8202861
"
セブンイレブン 新木場1丁目東店
",東京都江東区新木場1-15-12,35.644566,139.835452
"
セブンイレブン 江東東砂8丁目店
",東京都江東区東砂8ー19ー9,35.6681343,139.8410071
"
セブンイレブン 江東門前仲町店
",東京都江東区門前仲町2ー6ー1,35.6727883,139.7954207
"
セブンイレブン 江東大島5丁目店
",東京都江東区大島5-32-5,35.6888104,139.8357459
"
セブンイレブン 江東南砂7丁目店
",東京都江東区南砂7-13-7,35.669847,139.8370554
"
セブンイレブン 豊洲駅前店
",東京都江東区豊洲4-1-24,35.6544587,139.7971324
"
セブンイレブン 江東亀戸9丁目店
",東京都江東区亀戸9-18-10,35.6976852,139.8432939
"
セブンイレブン 東陽店
",東京都江東区東陽3-21-6,35.6690302,139.8117689
"
セブンイレブン 江東大島8丁目店
",東京都江東区大島8-42-11,35.6904553,139.8441072
"
セブンイレブン 江東南砂1丁目店
",東京都江東区南砂1-5-20,35.6809269,139.8220449
"
セブンイレブン 東雲1丁目店
",東京都江東区東雲1丁目2-8-101,35.6492538,139.8011307
"
セブンイレブン ゆりかもめ豊洲駅店
",東京都江東区豊洲2-2,35.6541958,139.794926
"
セブンイレブン 江東平野2丁目店
",東京都江東区平野2丁目12番5,35.6773405,139.8036087
"
セブンイレブン 江東森下4丁目店
",東京都江東区森下4ー15ー7,35.6861021,139.8047632
"
セブンイレブン 7FS竹中工務店東京本社店
",東京都江東区新砂1-1-1,35.6682329,139.8200178
"
セブンイレブン 亀戸十三間通り店
",東京都江東区亀戸2-36-13,35.7000289,139.8252174
"
セブンイレブン 江東亀戸2丁目店
",東京都江東区亀戸2ー17ー14,35.6979155,139.8233171
"
セブンイレブン 江東辰巳3丁目店
",東京都江東区辰巳3丁目8-10,35.6427801,139.8123742
"
セブンイレブン TFT有明店
",東京都江東区有明3-6-11,35.6308953,139.790628
"
セブンイレブン 江東牡丹1丁目店
",東京都江東区牡丹1丁目2ー5,35.6706859,139.793443
"
セブンイレブン 新木場3丁目店
",東京都江東区新木場3-7-9,35.6392911,139.8352607
"
セブンイレブン 亀戸駅東口店
",東京都江東区亀戸6-57-20-1F,35.6970208,139.8287176
"
セブンイレブン 江東海辺店
",東京都江東区海辺2-7,35.6804969,139.817963
"
セブンイレブン 江東亀戸1丁目店
",東京都江東区亀戸1-29-4,35.6942203,139.8247443
"
セブンイレブン 江東門前仲町1丁目店
",東京都江東区門前仲町1-16-1,35.6742092,139.7937218
"
セブンイレブン 江東東陽5丁目店
",東京都江東区東陽5-17-1,35.6707863,139.8113602
"
セブンイレブン 江東住吉2丁目店
",東京都江東区住吉2-7-6,35.68876789999999,139.81524
"
セブンイレブン 江東新砂3丁目店
",東京都江東区新砂3丁目3番53号,35.6679794,139.831506
"
セブンイレブン 亀戸昭和橋通り店
",東京都江東区亀戸6-37-9,35.6949539,139.8312484
"
セブンイレブン 江東亀戸駅北店
",東京都江東区亀戸5-2-3,35.6986181,139.8259083
"
セブンイレブン 江東扇橋2丁目店
",東京都江東区扇橋2-4-5,35.6827805,139.8156536
"
セブンイレブン 豊洲晴海通り店
",東京都江東区豊洲3-2-24,35.6575871,139.7949702
"
セブンイレブン 江東潮見2丁目店
",東京都江東区潮見2-3-10,35.6581104,139.8157483
"
セブンイレブン 牡丹店
",東京都江東区牡丹3-20-4,35.6682699,139.8000845
"
セブンイレブン 江東千石1丁目店
",東京都江東区千石1丁目7-28,35.6773768,139.8141069
"
セブンイレブン 江東永代2丁目店
",東京都江東区永代2-37-28,35.674763,139.7916486
"
セブンイレブン 江東北砂5丁目店
",東京都江東区北砂5-17-35,35.6827119,139.835319
"
セブンイレブン Iingザ・豊洲タワー店
",東京都江東区豊洲3-6-5,35.6590046,139.7977038
"
セブンイレブン 江東木場公園南店
",東京都江東区木場5-8-40,35.6709997,139.8086207
"
セブンイレブン 江東東陽町駅前店
",東京都江東区東陽3-27-18,35.6705366,139.8161558
"
セブンイレブン 江東枝川2丁目店
",東京都江東区枝川2丁目2-8,35.659174,139.8072928
"
セブンイレブン 江東白河3丁目店
",東京都江東区白河3-4-3,35.6821586,139.805962
"
セブンイレブン 都立墨東病院東店
",東京都江東区亀戸1-5-7,35.6951669,139.8202132
"
セブンイレブン 豊洲店
",東京都江東区豊洲4-6-1,35.6553717,139.7982254
"
セブンイレブン 江東木場3丁目店
",東京都江東区木場3-12-5,35.6750953,139.8039314
"
セブンイレブン 7FS大和総研永代ビル店
",東京都江東区永代1-14-6,35.6758405,139.7908358
"
セブンイレブン 江東東砂1丁目店
",東京都江東区東砂1-3-39,35.6844289,139.841268
"
セブンイレブン ダイバーシティ東京プラザ店
",東京都江東区青海1-1-10,35.6250135,139.7751123
"
セブンイレブン 豊洲5丁目店
",東京都江東区豊洲5-6-36,35.6521175,139.7980635
"
セブンイレブン 江東北砂3丁目店
",東京都江東区北砂3-2-2,35.6818013,139.8277894
"
セブンイレブン 江東区役所前店
",東京都江東区東陽5-31-17,35.6731238,139.8159866
"
セブンイレブン 江東森下駅南店
",東京都江東区森下2丁目2-2,35.6869259,139.7985897
"
セブンイレブン 門前仲町駅西店
",東京都江東区永代2丁目31-7,35.6737149,139.7930582
"
セブンイレブン FR有明店
",東京都江東区有明1-6-7,35.6372596,139.7790592
"
セブンイレブン 江東扇橋店
",東京都江東区扇橋1-12-18,35.6830775,139.8131318
"
セブンイレブン 江東木場駅前店
",東京都江東区木場5-11-15,35.6696871,139.8083661
"
セブンイレブン 江東冬木店
",東京都江東区冬木5-1,35.6731333,139.8022136
"
セブンイレブン 清澄白河駅東店
",東京都江東区白河2-17-10,35.6825373,139.8035076
"
セブンイレブン 大島駅前店
",東京都江東区大島6-8-22,35.6899381,139.8345139
"
セブンイレブン 豊洲1丁目店
",東京都江東区豊洲1-2-33,35.6607485,139.7933497
"
セブンイレブン 江東猿江1丁目店
",東京都江東区猿江1-9-10,35.6856625,139.8128875
"
セブンイレブン 江東亀戸6丁目店
",東京都江東区亀戸6-25-5,35.695946,139.8260035
"
セブンイレブン 江東枝川店
",東京都江東区枝川1-3-17,35.65887379999999,139.8034054
"
セブンイレブン 江東新大橋3丁目店
",東京都江東区新大橋3丁目9-9,35.68815379999999,139.7953991
"
セブンイレブン 江東深川2丁目店
",東京都江東区深川2丁目2-24,35.6735734,139.7991348
"
セブンイレブン 江東西大島駅西店
",東京都江東区大島1-8-17,35.6891194,139.8229601
"
セブンイレブン DR東京有明ダイワロイネットホ店
",東京都江東区有明3-7-3,35.6344358,139.7927322
"
セブンイレブン 江東塩浜2丁目店
",東京都江東区塩浜2丁目4番35号,35.6622126,139.8037642
"
セブンイレブン 江東亀戸7丁目店
",東京都江東区亀戸7-43-2,35.6966899,139.8342622
"
セブンイレブン 江東亀戸7丁目東店
",東京都江東区亀戸7丁目39-13,35.6970252,139.8398823
"
セブンイレブン 江東塩浜店
",東京都江東区塩浜2-11-18,35.6637092,139.8104104
"
セブンイレブン 新木場1丁目店
",東京都江東区新木場1-4-7,35.6438147,139.8246989
"
セブンイレブン 清澄白河駅前店
",東京都江東区清澄3-7-7,35.6823448,139.7984609
"
セブンイレブン TOC有明店
",東京都江東区有明3-5-7TOC有明ビル2F,35.6326858,139.7890028
"
セブンイレブン 江東亀戸駅南店
",東京都江東区亀戸6-59-7,35.6968028,139.8262181
"
セブンイレブン 江東木場駅南店
",東京都江東区木場5-1-4,35.6690229,139.8059906
"
セブンイレブン AIM_LIXIL_WINGビ店
",東京都江東区大島2-1-1,35.6896454,139.8211196
"
ニューヤマザキデイリーストア 豊洲青果市場店
",東京都江東区豊洲6-3,35.6457973,139.787575
"
デイリーヤマザキ 門前仲町駅前店
",東京都江東区富岡1-6-6,35.6710425,139.7971192
"
デイリーヤマザキ 丸八通り店
",東京都江東区北砂7-4-1,35.6787339,139.8348027
"
デイリーヤマザキ 東砂3丁目店
",東京都江東区東砂3-23-9,35.677766,139.843288
"
デイリーヤマザキ 江東辰巳3丁目店
",東京都江東区辰巳3-11-17,35.6427678,139.8168814
"
デイリーヤマザキ 江東東砂1丁目店
",東京都江東区東砂1-3-6,35.6846809,139.8396648
"
デイリーヤマザキ 豊洲キュービックG店
",東京都江東区豊洲3-2-3,35.6583149,139.7941426
"
デイリーヤマザキ ブリリアマーレ有明店
",東京都江東区有明1-4-11,35.6371393,139.7872478
"
デイリーヤマザキ 臨海副都心青海店
",東京都江東区青海2-2 B-101,35.6208485,139.7747597
"
デイリーヤマザキ 新木場NECビル店
",東京都江東区新木場1-18-7,35.6437138,139.8264708
"
デイリーヤマザキ 東陽町店
",東京都江東区東陽4-11-33,35.6737264,139.8164132
"
デイリーヤマザキ 江東豊洲駅前店
",東京都江東区豊洲5-5-1-102,35.6536885,139.796035
"
デイリーヤマザキ 豊洲5丁目店
",東京都江東区豊洲5-5-18,35.6530697,139.797342
"
デイリーヤマザキ 江東有明3丁目店
",東京都江東区有明3-7-11,35.6326822,139.7930471
"
デイリーヤマザキ 東陽町駅前店
",東京都江東区東陽4-1-13,35.6693799,139.8186069
"
デイリーヤマザキ 白河店
",東京都江東区白河3-1-18,35.6813257,139.803908
"
デイリーヤマザキ 江東有明1丁目店
",東京都江東区有明1-4-29,35.6358066,139.7856239
