Name,Address,lat,lon
"
冨士屋酒店
",東京都品川区荏原4丁目13-5,35.6152246,139.7061943
"
リーベンハウス品川ビル店
",東京都品川区東品川4丁目10-27,35.6070525,139.7458238
"
リーベンハウス大崎ガーデンタワー店
",東京都品川区西品川1丁目1-1,35.6149384,139.731068
"
cisca大崎フォレストビル店
",東京都品川区東五反田2丁目18-1,35.6242325,139.7295492
"
ローソン・スリーエフ 品川戸越公園駅前店
",東京都品川区戸越6-7-26,35.6083545,139.7179128
"
ローソンLTF 荏原一丁目店
",東京都品川区荏原1-16-1,35.6195422,139.7165049
"
NEWDAYS MINI(ニューデイズ ミニ) 目黒2号店
",東京都品川区上大崎2 目黒駅 ホーム 五反田方,35.63391319999999,139.7155561
"
NEWDAYS(ニューデイズ) ミニ大井町6号店
",東京都品川区大井1丁目2-1 JR大井町駅東口改札内,35.606212,139.734828
"
NEWDAYS(ニューデイズ) 大崎南口店
",東京都品川区大崎1-21-4 大崎駅南口改札内,35.6198513,139.7281892
"
NEWDAYS(ニューデイズ) 五反田店
",東京都品川区東五反田1-26-2 五反田駅改札正面,35.6260064,139.7238134
"
NEWDAYS(ニューデイズ) 大崎北口店
",東京都品川区大崎1-21-4 大崎駅構内北口改札正面,35.6198513,139.7281892
"
NEWDAYS(ニューデイズ) 大崎店
",東京都品川区大崎1-21-4 大崎駅改札内,35.6198513,139.7281892
"
NEWDAYS(ニューデイズ) りんかい大井町店
",東京都品川区大井1丁目 りんかい線大井町駅改札外コンコース,35.6070592,139.7346156
"
ローソン・スリーエフ 品川小山台店
",東京都品川区小山台1-20-20,35.6225538,139.70547
"
トムキャット
",東京都品川区西大井2-4-7,35.5999554,139.7231134
"
ローソン 南大井六丁目店
",東京都品川区南大井6-11-13,35.5907517,139.7328933
"
ローソン 東品川三丁目店
",東京都品川区東品川3-24-16,35.6113308,139.7456637
"
ローソン 八潮五丁目店
",東京都品川区八潮5-10-27,35.600184,139.7514495
"
ローソン 勝島一丁目店
",東京都品川区勝島1-3-2,35.5998989,139.7451072
"
ローソン 東大井五丁目店
",東京都品川区東大井5-14-11,35.6062053,139.7368028
"
ローソン 大崎店
",東京都品川区大崎1-17-2,35.617744,139.7324448
"
ローソン 大井店
",東京都品川区大井4-17-16,35.6016534,139.7314471
"
ローソン 戸越四丁目店
",東京都品川区戸越4-7-14,35.6109551,139.717765
"
ローソン 北品川一丁目店
",東京都品川区北品川1-13-7,35.6243351,139.7431168
"
ローソン 西五反田店
",東京都品川区西五反田2-31-6,35.6247453,139.7196538
"
ローソン 西五反田二丁目店
",東京都品川区西五反田2-13-5,35.6267156,139.7206498
"
ローソン 二葉店
",東京都品川区二葉1-4-27,35.6084493,139.7267045
"
ローソン 西品川店
",東京都品川区西品川3-4-4,35.617027,139.7236808
"
ローソン 大森海岸駅前店
",東京都品川区南大井3-24-5,35.5889826,139.7339681
"
ローソン 東大井六丁目店
",東京都品川区東大井6-4-6,35.6044261,139.7354966
"
ローソン 不動前店
",東京都品川区西五反田5-8-8,35.6247852,139.7138696
"
ローソン 大井町駅前店
",東京都品川区東大井5-15-16,35.6070353,139.7359213
"
ローソン アートヴィレッジ大崎店
",東京都品川区大崎1-2-2,35.6223153,139.7271645
"
ローソン 大井三丁目店
",東京都品川区大井3-1-1,35.6032802,139.7289818
"
ローソン 東大井二丁目店
",東京都品川区東大井2-23-3,35.5984477,139.7383128
"
ローソン ゲートシティ大崎店
",東京都品川区大崎1-11-2ゲートシティ大崎イースト1F,35.6189257,139.7316987
"
ローソン 南品川六丁目店
",東京都品川区南品川6-8-25,35.6102875,139.7358001
"
ローソン 八潮三丁目店
",東京都品川区八潮3-2-38,35.5937522,139.7611437
"
ローソン オーバルコート大崎店
",東京都品川区東五反田2-17-1,35.6233334,139.7292283
"
ローソン 新馬場南口店
",東京都品川区南品川2-1-10,35.6143573,139.7414375
"
ローソン 西五反田高齢者複合施設店
",東京都品川区西五反田3-6-6,35.6281232,139.7168281
"
ローソン 品川シーサイドフォレスト店
",東京都品川区東品川4-12-8,35.6092469,139.7488374
"
ナチュラルローソン シティコート目黒店
",東京都品川区上大崎2-10-33,35.6353912,139.71707
"
ナチュラルローソン 五反田TOC店
",東京都品川区西五反田7-22-17,35.62204699999999,139.7192045
"
ナチュラルローソン 西五反田八丁目店
",東京都品川区西五反田8-7-11,35.622256,139.7213045
"
ナチュラルローソン 西五反田二丁目店
",東京都品川区西五反田2-7-8,35.62634329999999,139.722477
"
ローソン H京急立会川駅前店
",東京都品川区東大井2-24-11,35.5979718,139.7390719
"
ローソン H東五反田店
",東京都品川区東五反田1-17-1,35.6268371,139.7257138
"
ナチュラルローソン NL大崎センタービル店
",東京都品川区大崎1-5-1,35.6213304,139.7284104
"
ローソン 東品川海岸通店
",東京都品川区東品川3-7-10,35.6163061,139.7475423
"
LAWSON+toks武蔵小山店
",東京都品川区小山3-4-8,35.6205331,139.7043738
"
ローソン 西品川三ツ木通店
",東京都品川区西品川2-9-22,35.6137513,139.724622
"
ローソン 品川荏原三丁目店
",東京都品川区荏原3-8-14,35.617448,139.7065558
"
ローソンサテライト 東品川一丁目店
",東京都品川区東品川1-39-9,35.6189285,139.7474193
"
ナチュラルローソン NL品川区役所前店
",東京都品川区大井1-16-2,35.6077866,139.7304602
"
ローソン 昭和大病院入院棟店
",東京都品川区旗の台1-4-13,35.6076323,139.7037701
"
ローソンサテライト 昭和大学東病院店
",東京都品川区西中延2-14-19,35.6096101,139.7055786
"
ナチュラルローソン NLS昭和大病院中央棟店
",東京都品川区旗の台1-5-8,35.6083638,139.7036226
"
ローソン 荏原中延駅前店
",東京都品川区中延2-15-8,35.6099427,139.7115554
"
ローソン TOC大崎店
",東京都品川区大崎1-6-1,35.6206844,139.7287598
"
LAWSON+toks大井町ホーム店
",東京都品川区大井1-1-1,35.6076498,139.734467
"
ローソン 大井競馬場前店
",東京都品川区勝島1-6-26,35.5960821,139.744752
"
ローソン 品川南大井四丁目店
",東京都品川区南大井4-9-9,35.59622,139.736288
"
ローソン 品川大井一丁目店
",東京都品川区大井1-28-1住友不動産大井町駅前ビル,35.6060979,139.7309548
"
ローソン H大森駅北口店
",東京都品川区南大井6-17-14,35.5896636,139.7294407
"
ローソン H東品川五丁目店
",東京都品川区東品川5-9-15,35.62237,139.753541
"
ローソン 荏原町駅前店
",東京都品川区中延5-7-4,35.6033565,139.707798
"
ローソン 大井町銀座通り店
",東京都品川区東大井5-3-7,35.6073975,139.7357939
"
ローソンストア100 LS品川二葉四丁目店
",東京都品川区二葉4-27-9,35.6018425,139.7138007
"
ローソンストア100 LS戸越公園駅前店
",東京都品川区戸越6-6-6三栄第一ビルB1F,35.6084833,139.7176449
"
ローソンストア100 LS鮫洲店
",東京都品川区東大井1-2-11ウエノ東大井ハイツ,35.6055192,139.7432086
"
ローソンストア100 LS青物横丁店
",東京都品川区南品川2-17-37中台ビル,35.6127448,139.7442665
"
ローソンストア100 LS品川小山店
",東京都品川区小山6-8-12ヒルプラザ,35.613823,139.7001718
"
ローソンストア100 LS大井町店
",東京都品川区大井3-26-11,35.6004289,139.730396
"
ローソンストア100 LS品川西五反田二丁目店
",東京都品川区西五反田2-11-20,35.627562,139.7198438
"
ローソンストア100 LS西大井五丁目店
",東京都品川区西大井5-11-16,35.5999425,139.7195323
"
ローソン 三井ガーデンホテル五反田店
",東京都品川区東京都品川区東五反田2-2-6,35.6251621,139.7253604
"
ローソン H五反田駅東口店
",東京都品川区東五反田1-14-14,35.62608640000001,139.7248288
"
ローソン・スリーエフ 南大井店
",東京都品川区南大井3-6-18,35.59214170000001,139.7339734
"
ローソン・スリーエフ 戸越四丁目北店
",東京都品川区戸越4-3-28,35.6128208,139.7193521
"
ローソン・スリーエフ 戸越銀座店
",東京都品川区戸越3-1-18,35.6151521,139.7169053
"
ローソン ゲートシティ大崎アトリウム店
",東京都品川区大崎1-11-1,35.6190414,139.7311943
"
ローソン H鮫洲店
",東京都品川区東大井1-4-17,35.6050669,139.7449871
"
ローソン 中延駅前店
",東京都品川区豊町6-24-15,35.6047903,139.7137783
"
ファミリーマート 北品川店
",東京都品川区北品川1-22-2,35.6220628,139.7404826
"
ファミリーマート 東大井店
",東京都品川区東大井5-7-6-101,35.607158,139.7381193
"
ファミリーマート 旗の台五丁目店
",東京都品川区旗の台5-8-3,35.6040609,139.7033488
"
ファミリーマート 二葉三丁目店
",東京都品川区二葉3丁目29-10,35.6018035,139.7198252
"
ファミリーマート 天王洲オーシャンスクエア店
",東京都品川区東品川2丁目2-20,35.6221232,139.7501399
"
ファミリーマート 田中屋西大井店
",東京都品川区西大井4-17-12,35.594801,139.7182824
"
ファミリーマート 青物横丁店
",東京都品川区南品川2-17-22,35.6108891,139.7442212
"
ファミリーマート 新馬場サクセス通り店
",東京都品川区北品川2-18-3,35.6180899,139.7416621
"
ファミリーマート 東五反田郵便局東店
",東京都品川区東五反田1-18-3,35.6266768,139.7261917
"
ファミリーマート 大崎広小路店
",東京都品川区大崎4-1-2ウィン第2五反田ビル,35.6225094,139.7229333
"
ファミリーマート ファミマThinkpark店
",東京都品川区大崎2丁目1-1,35.6183587,139.727513
"
ファミリーマート 東五反田五丁目店
",東京都品川区東五反田5-28-11,35.6273451,139.7230419
"
ファミリーマート 大森ベルポート前店
",東京都品川区南大井6丁目25-3いちご大森ビル,35.5890649,139.7309947
"
ファミリーマート 戸越銀座店
",東京都品川区平塚1丁目6-20キャピタル808,35.6155953,139.7158506
"
ファミリーマート 西五反田七丁目店
",東京都品川区西五反田7丁目9-2五反田TGビル,35.6237904,139.7206782
"
ファミリーマート 戸越銀座駅西店
",東京都品川区平塚2-15-12大坂屋ビル,35.615939,139.7139354
"
ファミリーマート 山王大森駅前店
",東京都品川区南大井6-17-7,35.5898405,139.7298079
"
ファミリーマート 大崎駅西口店
",東京都品川区大崎3丁目6番17号ニュー大崎ビル,35.6194899,139.7271235
"
ファミリーマート トキワ大崎店
",東京都品川区大崎3丁目6ー6,35.6204986,139.7268688
"
ファミリーマート いすゞ本社前店
",東京都品川区南大井3-35ー10,35.5875269,139.7326212
"
ファミリーマート 不動前店
",東京都品川区西五反田4-30-9,35.6260513,139.7131822
"
ファミリーマート 五反田駅南店
",東京都品川区西五反田1-11-1アイオス五反田駅前,35.6244878,139.7235718
"
ファミリーマート サンズ武蔵小山駅前店
",東京都品川区小山3-4-14,35.6204262,139.7038968
"
ファミリーマート 上大崎三丁目店
",東京都品川区上大崎3-4-1,35.634119,139.7187047
"
ファミリーマート 東大井三丁目店
",東京都品川区東大井3-18-3,35.6005264,139.7387262
"
ファミリーマート 阪急大井町ガーデン店
",東京都品川区大井1-50-5,35.6052646,139.7340679
"
ファミリーマート 大崎ブライトタワー店
",東京都品川区北品川5丁目6ー1,35.6215566,139.73048
"
ファミリーマート 野村不動産天王洲ビル店
",東京都品川区東品川2-4-11,35.6198477,139.7511685
"
ファミリーマート 目黒駅北店
",東京都品川区上大崎2-17-2,35.6350668,139.7151327
"
ファミリーマート 品川桐ヶ谷通り店
",東京都品川区小山台1丁目33-14,35.6239089,139.7102665
"
ファミリーマート 南品川三丁目店
",東京都品川区南品川3丁目6-29,35.607502,139.745117
"
ファミリーマート 西五反田二丁目店
",東京都品川区西五反田2-27-3,35.6250741,139.7212008
"
ファミリーマート 武蔵小山パルム店
",東京都品川区荏原3丁目8-3 SUNエルクビル,35.6180029,139.7061157
"
ファミリーマート 東五反田四丁目店
",東京都品川区東五反田4丁目5-9,35.6308596,139.7287858
"
ファミリーマート 品川平塚一丁目店
",東京都品川区平塚1丁目21-4,35.6126098,139.7153983
"
ファミリーマート アワーズイン阪急ツイン館店
",東京都品川区大井1丁目50-5,35.6052646,139.7340679
"
ファミリーマート 品川中延四丁目店
",東京都品川区中延4丁目1ー21,35.6064607,139.7090479
"
ファミリーマート 中延第二京浜店
",東京都品川区戸越6-23-22,35.6063592,139.7142945
"
ファミリーマート 西大井駅前店
",東京都品川区西大井1-1-2ー103,35.6012169,139.7219699
"
ファミリーマート 西大井光学通り店
",東京都品川区西大井1丁目9-5,35.6006639,139.7221387
"
ファミリーマート 東五反田桜田通り店
",東京都品川区東五反田5丁目25-18 KECビル,35.6275988,139.7245295
"
ファミリーマート 西五反田六丁目店
",東京都品川区西五反田6丁目24,35.6196906,139.7177858
"
ファミリーマート 伊勢彦鮫洲旧東海道店
",東京都品川区東大井1-3-23,35.60484599999999,139.7432303
"
ファミリーマート 大井一丁目店
",東京都品川区大井1-21-19,35.6072069,139.7314351
"
ファミリーマート ガーデンシティ品川御殿山店
",東京都品川区北品川6丁目7-29,35.6237883,139.7338705
"
ファミリーマート 旗の台駅前店
",東京都品川区旗の台3丁目12-5,35.6050413,139.7034329
"
ファミリーマート 小浦西五反田四丁目店
",東京都品川区西五反田4丁目26-5,35.6246654,139.7098667
"
ファミリーマート 大崎ニューシティ店
",東京都品川区大崎1丁目6-5 2階,35.6202569,139.7290522
"
ファミリーマート 品川区役所前店
",東京都品川区二葉1丁目7番13号,35.6086269,139.729535
"
ファミリーマート 戸越銀座東店
",東京都品川区戸越1-19-15,35.6147331,139.7205127
"
ファミリーマート 小山三丁目店
",東京都品川区小山3-11-17,35.6198156,139.70609
"
ファミリーマート 戸越六丁目店
",東京都品川区戸越6-22-9,35.6060347,139.7155278
"
ファミリーマート アルコスクエア店
",東京都品川区上大崎4丁目5-10アルコスクエア内,35.6312182,139.7149528
"
ファミリーマート 品川大井三ツ又店
",東京都品川区大井3-4-8,35.6033142,139.7322918
"
ファミリーマート 旗の台二丁目店
",東京都品川区旗の台2-9-19,35.6058999,139.7035033
"
ファミリーマート 中延二丁目店
",東京都品川区中延2-6-18,35.6109546,139.7114873
"
ファミリーマート 品川中延六丁目店
",東京都品川区中延6-1-15,35.6030913,139.7110416
"
ファミリーマート 武蔵小山店
",東京都品川区小山4丁目4番地5号,35.6186542,139.7041046
"
ファミリーマート 目黒駅東店
",東京都品川区上大崎2丁目12番2号ミズホビル1F,35.6349339,139.7165688
"
ファミリーマート 品川シーサイド駅前店
",東京都品川区東品川4丁目12番10号,35.6084727,139.7494621
"
ファミリーマート 上大崎店
",東京都品川区上大崎3-14-34 十一屋ヒ ゙ル,35.6292227,139.7199126
"
ファミリーマート 大井町駅西店
",東京都品川区大井1丁目11-3,35.6075467,139.7323346
"
ファミリーマート ゲートシティ大崎店
",東京都品川区大崎1丁目11番1号,35.6190414,139.7311943
"
ファミリーマート 東品川店
",東京都品川区東品川1丁目32-3,35.6201026,139.7461931
"
ファミリーマート 品川シーサイド店
",東京都品川区東品川4-12-6,35.6102271,139.749302
"
ファミリーマート 品川平塚店
",東京都品川区平塚2丁目3-11,35.6182588,139.7175777
"
ファミリーマート 品川荏原二丁目店
",東京都品川区荏原2丁目3番地7号,35.6176085,139.7123203
"
ファミリーマート シティタワー大井町店
",東京都品川区大井1丁目31-1,35.60584619999999,139.7305956
"
ファミリーマート 東品川四丁目店
",東京都品川区東品川4丁目3-1,35.6109822,139.7464633
"
ファミリーマート 大崎駅東店
",東京都品川区東五反田2丁目16-1-103,35.6227354,139.7292237
"
ファミリーマート 北品川三丁目店
",東京都品川区北品川3丁目6-2,35.6203703,139.739525
"
ファミリーマート NTT関東病院前店
",東京都品川区東五反田4丁目11-10,35.6299958,139.7258867
"
ファミリーマート 西五反田一丁目店
",東京都品川区西五反田1-4-8,35.6253224,139.7230654
"
ファミリーマート 品川豊町四丁目店
",東京都品川区豊町4丁目20-11,35.604265,139.7213231
"
ファミリーマート 目黒駅東口店
",東京都品川区上大崎2丁目14-9,35.6340583,139.7169819
"
ファミリーマート アトレ目黒店
",東京都品川区上大崎3丁目1-1,35.6334145,139.7166763
"
ファミリーマート 昭和大学病院前店
",東京都品川区旗の台1丁目2-20,35.6092228,139.7042414
"
ファミリーマート 天王洲ファーストタワー店
",東京都品川区東品川2丁目2-4,35.6234997,139.7491458
"
ファミリーマート 中延駅前店
",東京都品川区東中延2丁目10-11,35.6062493,139.7127967
"
ファミリーマート 天王洲パークサイドビル店
",東京都品川区東品川2丁目5-8,35.6213082,139.7502747
"
ファミリーマート 東品川三丁目店
",東京都品川区東品川3丁目21-10,35.613208,139.7473857
"
ファミリーマート 御殿山トラストタワー店
",東京都品川区北品川4丁目7-35,35.6222348,139.7369167
"
ファミリーマート 青物横丁駅北店
",東京都品川区南品川2丁目4-7,35.6104559,139.7424602
"
ファミリーマート 五反田駅前店
",東京都品川区西五反田2丁目6-8,35.6265831,139.7226219
"
コミュニティ・ストア かむろ坂下 すずき店
",東京都品川区西五反田3-13-11,35.6276108,139.7141127
"
ミニストップ 戸越駅前店
",東京都品川区平塚1-7-6グランド・ル-戸越1F,35.6151553,139.7162296
"
ミニストップ NTT関東病院店
",東京都品川区東五反田5-9-22,35.6313074,139.7255804
"
ミニストップ 品川シーサイド店
",東京都品川区東品川4-12-1 JTサウスタワ-,35.6084321,139.7478793
"
ミニストップ 北品川5丁目店
",東京都品川区北品川5-9-11大崎MTビル1F,35.6185427,139.7347874
"
ミニストップ cisca大崎フォレストビル店
",東京都品川区東五反田2丁目18番1号 大崎フォレストビルディング1F,35.6241423,139.7295979
"
セブンイレブン 品川東五反田1丁目店
",東京都品川区東五反田1-12-2,35.6270259,139.7249203
"
セブンイレブン 南大井水神店
",東京都品川区南大井5-27-14,35.5932625,139.7331867
"
セブンイレブン 品川旗の台駅前店
",東京都品川区旗の台2-9-18,35.6058695,139.7030343
"
セブンイレブン 東五反田2丁目店
",東京都品川区東五反田2ー19ー7,35.6249975,139.7299884
"
セブンイレブン 西五反田2丁目店
",東京都品川区西五反田2-8-1,35.6268344,139.7216018
"
セブンイレブン 二葉町店
",東京都品川区二葉町1ー10ー8,35.6078427,139.7290298
"
セブンイレブン 五反田店
",東京都品川区東五反田1-21-10,35.6259027,139.7264168
"
セブンイレブン 武蔵小山パルム店
",東京都品川区荏原4-4-1,35.6161925,139.708448
"
セブンイレブン 北品川3丁目店
",東京都品川区北品川3-7-22,35.6173305,139.7405842
"
セブンイレブン 荏原中延駅前店
",東京都品川区中延3-2-7,35.609255,139.7117722
"
セブンイレブン 西大井滝王子通り店
",東京都品川区西大井2-14-3,35.599629,139.7234904
"
セブンイレブン 品川西大井駅前店
",東京都品川区西大井1ー4ー20,35.6017903,139.7225764
"
セブンイレブン 天王洲シーフォートスクエア店
",東京都品川区東品川2-3-12,35.6240493,139.7507024
"
セブンイレブン 品川大井4丁目店
",東京都品川区大井4-3-1,35.6043466,139.7341192
"
セブンイレブン 品川小山4丁目店
",東京都品川区小山4-8-20,35.6184774,139.7031146
"
セブンイレブン 品川SRCビル店
",東京都品川区勝島1-1-1,35.6014109,139.7449302
"
セブンイレブン 品川戸越5丁目店
",東京都品川区戸越5-20-12,35.6081382,139.7192048
"
セブンイレブン 西小山江戸見坂通り店
",東京都品川区小山6-6-20,35.6146689,139.699295
"
セブンイレブン 品川東大井店
",東京都品川区東大井3-11-21,35.6038373,139.7370392
"
セブンイレブン 品川大井7丁目店
",東京都品川区大井7丁目27-5,35.5955068,139.7293917
"
セブンイレブン 大崎百反通り店
",東京都品川区大崎2丁目9-1,35.6167089,139.727774
"
セブンイレブン 7FSスフィアタワー天王洲店
",東京都品川区東品川2-2-8,35.6228245,139.749695
"
セブンイレブン 品川荏原町駅前店
",東京都品川区中延5-3-10,35.6035128,139.7083133
"
セブンイレブン 西五反田6丁目店
",東京都品川区西五反田6-7-2,35.6223861,139.717623
"
セブンイレブン 品川南大井3丁目店
",東京都品川区南大井3-30-8,35.5877453,139.7345246
"
セブンイレブン 品川東大井5丁目店
",東京都品川区東大井5-1-12,35.6080012,139.7362632
"
セブンイレブン 不動前駅東店
",東京都品川区西五反田5-1-14,35.6257867,139.7148162
"
セブンイレブン 京急ST青物横丁店
",東京都品川区南品川3-1-20,35.6094677,139.7427326
"
セブンイレブン 品川旗の台2丁目店
",東京都品川区旗の台2丁目4-22,35.607162,139.7051183
"
セブンイレブン 大井店
",東京都品川区大井5-2-11,35.6001922,139.728139
"
セブンイレブン 品川勝島1丁目店
",東京都品川区勝島1-5-21,35.5963538,139.7467615
"
セブンイレブン 品川荏原6丁目店
",東京都品川区荏原6-19-15,35.6114909,139.7058414
"
セブンイレブン 品川天王洲店
",東京都品川区東品川2-2-27,35.6215971,139.749096
"
セブンイレブン 西大井店
",東京都品川区西大井6-5-1,35.601369,139.7186528
"
セブンイレブン 東品川4丁目店
",東京都品川区東品川4-9-21,35.6089849,139.7453716
"
セブンイレブン 大崎ブライトコア店
",東京都品川区北品川5丁目5番15号,35.6220705,139.7309287
"
セブンイレブン 品川戸越3丁目店
",東京都品川区戸越3-11-16,35.6114308,139.7163321
"
セブンイレブン 品川荏原店
",東京都品川区荏原1ー21ー6,35.618536,139.7149094
"
セブンイレブン 南大井浜川店
",東京都品川区南大井4丁目9-2,35.5963793,139.7355051
"
セブンイレブン 荏原4丁目店
",東京都品川区荏原4ー3ー1,35.6163891,139.707164
"
セブンイレブン AIM大森ベルポート店
",東京都品川区南大井6丁目26-3大森ベルポートD館1階,35.5886947,139.7315934
"
セブンイレブン 南品川店
",東京都品川区南品川5-4-1,35.6110368,139.741333
"
セブンイレブン 大崎ウエストシティタワーズ店
",東京都品川区大崎2丁目9-2,35.6167115,139.7270294
"
セブンイレブン 西小山桜並木通り店
",東京都品川区荏原6-1-1,35.6127095,139.7010735
"
セブンイレブン 品川戸越1丁目店
",東京都品川区戸越1-7-20,35.6162244,139.7174258
"
セブンイレブン 西品川2丁目店
",東京都品川区西品川2-4-7,35.61386,139.7284454
"
セブンイレブン 品川南大井1丁目店
",東京都品川区南大井1丁目10番7号,35.5956663,139.7389735
"
セブンイレブン 品川中延5丁目店
",東京都品川区中延5-1-3,35.6037632,139.7067425
"
セブンイレブン 新馬場駅前店
",東京都品川区北品川2-17-1,35.6170947,139.7413603
"
セブンイレブン 品川大崎3丁目店
",東京都品川区大崎3-1-3,35.6212743,139.724745
"
セブンイレブン 品川小山台店
",東京都品川区小山台1ー23ー6,35.6216151,139.7055914
"
セブンイレブン 西五反田店
",東京都品川区西五反田3-6-22,35.6276088,139.719115
"
セブンイレブン 南品川3丁目店
",東京都品川区南品川3-6-1,35.6105988,139.7443534
"
セブンイレブン 戸越銀座駅前店
",東京都品川区平塚1-5-8,35.6157388,139.7151022
"
セブンイレブン 品川東大井1丁目店
",東京都品川区東大井1-1-10,35.6064296,139.74338
"
セブンイレブン 大井町銀座通り店
",東京都品川区東大井5丁目7番13号,35.6071897,139.7374846
"
セブンイレブン 大崎広小路駅西店
",東京都品川区西五反田8-1-5,35.623234,139.7216002
"
セブンイレブン しながわ水族館西店
",東京都品川区南大井3丁目14-2,35.5905339,139.734818
"
セブンイレブン 品川中延6丁目店
",東京都品川区中延6丁目3番8号,35.603316,139.713001
"
セブンイレブン 大井町駅前中央通り店
",東京都品川区大井1丁目22番2号,35.6068278,139.7322156
"
セブンイレブン 品川二葉4丁目店
",東京都品川区二葉4-1-17,35.6031855,139.7133876
"
セブンイレブン 南品川2丁目店
",東京都品川区南品川2-15-9,35.6136507,139.7445933
"
セブンイレブン 品川大井1丁目店
",東京都品川区大井1丁目49-10,35.6056922,139.7329816
"
セブンイレブン 品川西旗の台店
",東京都品川区旗の台2-11-6,35.6057316,139.7007724
"
セブンイレブン 西五反田1丁目店
",東京都品川区西五反田1-18-9,35.6235,139.7230294
"
セブンイレブン 品川西大井3丁目店
",東京都品川区西大井3丁目1-18,35.597727,139.7230378
"
セブンイレブン 目黒セントラルスクエア店
",東京都品川区上大崎3-1-1,35.6334145,139.7166763
"
セブンイレブン 目黒セントラルスクエア3階店
",東京都品川区上大崎3-1-1,35.6334145,139.7166763
"
セブンイレブン 東品川1丁目店
",東京都品川区東品川1丁目3-18,35.6225907,139.7456693
"
セブンイレブン セガサミーホールディングス店
",東京都品川区西品川1丁目1-1,35.6149384,139.731068
"
セブンイレブン 東品川3丁目店
",東京都品川区東品川3丁目18-1,35.6139166,139.7501104
"
セブンイレブン 品川東大井2丁目店
",東京都品川区東大井2-13-13,35.601165,139.739646
"
セブンイレブン 品川東中延2丁目店
",東京都品川区東中延2-4-6,35.6088465,139.714158
"
セブンイレブン 品川南大井6丁目店
",東京都品川区南大井6-16-10,35.5905984,139.7302691
"
セブンイレブン 北品川八ッ山通り店
",東京都品川区北品川1丁目23-13,35.621202,139.7417542
"
セブンイレブン 京急ST大森海岸店
",東京都品川区南大井3丁目32番,35.5883882,139.7356644
"
セブンイレブン 品川シーサイド店
",東京都品川区東品川4-11-36,35.6077758,139.7477956
"
セブンイレブン 西五反田1丁目東店
",東京都品川区西五反田1-14-2,35.6237089,139.723911
"
セブンイレブン 品川西中延1丁目店
",東京都品川区西中延1丁目6番18号,35.61233170000001,139.7083292
"
セブンイレブン 品川西五反田3丁目店
",東京都品川区西五反田3丁目7-10,35.62565360000001,139.7181487
