Name,Address,lat,lon
"
生活彩家 目黒区役所店
",東京都目黒区上目黒2-19-15 目黒区総合庁舎内,35.6413679,139.6981887
"
ポプラ 池尻大橋店
",東京都目黒区東山3-3-2 パラッツオ東山 1F,35.6503809,139.6854859
"
ヤマザキショップ碑文谷1丁目店
",東京都目黒区碑文谷1-17-4,35.620285,139.6911296
"
リーベンハウス青葉台タワー店
",東京都目黒区青葉台3-6-28,35.6526429,139.6905743
"
ローソン 目黒東山店
",東京都目黒区東山1-8-6,35.6464829,139.6949021
"
ローソン 柿の木坂店
",東京都目黒区碑文谷4-24,35.6206605,139.6812471
"
ローソン 自由ケ丘店
",東京都目黒区自由が丘1-14-14,35.60860479999999,139.6701458
"
ローソン 目黒中町一丁目店
",東京都目黒区中町1-26-11,35.6292728,139.6968024
"
ローソン 学芸大学店
",東京都目黒区鷹番2-4-7,35.6288633,139.6893758
"
ローソン 目黒中央町二丁目店
",東京都目黒区中央町2-7-3,35.6308867,139.6934176
"
ローソン 駒場一丁目店
",東京都目黒区駒場1-40-16,35.6582896,139.6832522
"
ローソン 下目黒一丁目店
",東京都目黒区下目黒1-5-19,35.6341232,139.7120923
"
ローソン 目黒洗足駅前店
",東京都目黒区洗足2-24-15,35.6104579,139.694872
"
ナチュラルローソン 目黒鷹番三丁目店
",東京都目黒区鷹番3-20-13,35.629487,139.6821159
"
ローソン 八雲二丁目店
",東京都目黒区八雲2-24-12,35.6171146,139.6688772
"
ナチュラルローソン 目黒祐天寺前店
",東京都目黒区中目黒5-27-18,35.6360912,139.6946143
"
ナチュラルローソン 祐天寺一丁目店
",東京都目黒区祐天寺1-1-2,35.6407163,139.694376
"
ナチュラルローソン NL八雲三丁目店
",東京都目黒区八雲3-11-4,35.6150763,139.669391
"
ローソン H目黒二丁目店
",東京都目黒区目黒2-13-27,35.6360326,139.7064094
"
ローソン 目黒一丁目店
",東京都目黒区目黒1-5-19,35.6346868,139.7124064
"
ローソン 自由が丘二丁目店
",東京都目黒区自由が丘2-9-12,35.6089491,139.6675261
"
LAWSON+toks自由が丘上りホーム店
",東京都目黒区自由が丘1-30-1,35.6074793,139.6688707
"
LAWSON+toks自由が丘下りホーム店
",東京都目黒区自由が丘1-30-1,35.6074793,139.6688707
"
ローソン 目黒大鳥神社前店
",東京都目黒区目黒3-9-1,35.6330503,139.7077304
"
ローソン H目黒大橋二丁目店
",東京都目黒区大橋2-4-8,35.6533774,139.6892373
"
ローソン 目黒緑が丘三丁目店
",東京都目黒区緑が丘3-6-7,35.6045307,139.6799141
"
ローソン 目黒本町店
",東京都目黒区目黒本町2-6-16,35.6274439,139.6931219
"
ローソン 上目黒山手通り店
",東京都目黒区上目黒3-14-8,35.6455478,139.697106
"
ローソンストア100 LS目黒本町店
",東京都目黒区目黒本町4-3-9,35.62363029999999,139.6976534
"
ローソンストア100 LS五本木店
",東京都目黒区中央町2-36-14,35.6322436,139.6870756
"
ローソン 目黒八雲一丁目店
",東京都目黒区八雲1-3-6,35.6188029,139.6747015
"
ローソン 柿の木坂二丁目店
",東京都目黒区柿の木坂2-1-20,35.6272524,139.6764156
"
ローソン 目黒平町二丁目店
",東京都目黒区平町2-22-15,35.614904,139.678301
"
ローソン 祐天寺駅前店
",東京都目黒区五本木1-31-9,35.6374705,139.6906389
"
ローソン 目黒碑文谷二丁目店
",東京都目黒区碑文谷2-10-16,35.6239393,139.6869365
"
ローソン・スリーエフ 碑文谷六丁目店
",東京都目黒区碑文谷6-7-1,35.6271302,139.6841215
"
ファミリーマート 佐野久下目黒店
",東京都目黒区下目黒2-14-3,35.6291839,139.7124093
"
ファミリーマート 東山三丁目店
",東京都目黒区東山3-6-11,35.6499089,139.686757
"
ファミリーマート 原町一丁目店
",東京都目黒区原町1-6-5,35.6163136,139.6985599
"
ファミリーマート 大鳥神社前店
",東京都目黒区目黒3丁目10-13,35.6323489,139.7072376
"
ファミリーマート 上目黒二丁目店
",東京都目黒区上目黒2-18-2,35.64178709999999,139.6974032
"
ファミリーマート 目黒三田通り店
",東京都目黒区目黒1丁目1-5,35.63792919999999,139.7132091
"
ファミリーマート 原町二丁目店
",東京都目黒区原町2丁目22-11,35.6138235,139.6915803
"
ファミリーマート 小浦中目黒店
",東京都目黒区中目黒1丁目2番11,35.6450924,139.7017642
"
ファミリーマート 目黒東山一丁目店
",東京都目黒区東山1丁目2番7号第44興和ビル,35.6477786,139.6934906
"
ファミリーマート 小浦目黒青葉台店
",東京都目黒区青葉台1丁目22-10-101,35.6462084,139.6972451
"
ファミリーマート 目黒中央町店
",東京都目黒区中央町1丁目18-12,35.6286175,139.6897281
"
ファミリーマート 学芸大学駅西店
",東京都目黒区鷹番3丁目6-18カザーナ学芸大学,35.6292064,139.6844849
"
ファミリーマート 学芸大学駅南店
",東京都目黒区碑文谷6丁目1-26,35.6270649,139.6853589
"
ファミリーマート 緑が丘駅前店
",東京都目黒区緑が丘1丁目11-14,35.6067635,139.6788645
"
ファミリーマート 目黒神泉町店
",東京都目黒区青葉台4丁目4-5,35.65421389999999,139.6928365
"
ファミリーマート 目黒青葉台三丁目店
",東京都目黒区青葉台3丁目17-11 ティーケー青葉台,35.6505472,139.6905192
"
ファミリーマート 目黒三丁目店
",東京都目黒区目黒3丁目4-8ベル ドミール 目黒,35.6345255,139.7067939
"
ファミリーマート 祐天寺駅東口店
",東京都目黒区祐天寺2丁目12番21号,35.6374211,139.6916616
"
ファミリーマート 目黒中町店
",東京都目黒区中町2丁目32-5,35.6322153,139.6927708
"
ファミリーマート 目黒本町三丁目店
",東京都目黒区目黒本町3丁目20-12,35.6247252,139.6965818
"
ファミリーマート 都立大学駅前店
",東京都目黒区中根1丁目3-3,35.6177506,139.6756822
"
ファミリーマート 下目黒六丁目店
",東京都目黒区下目黒6-16-12津国屋ビル,35.6291701,139.6978782
"
ファミリーマート 祐天寺駅前店
",東京都目黒区五本木1-31-6,35.6377459,139.6908818
"
ファミリーマート 緑が丘一丁目店
",東京都目黒区緑が丘1-14-7,35.6097024,139.6769041
"
ファミリーマート 目黒アルコタワー店
",東京都目黒区下目黒1丁目8-1,35.6306231,139.7142745
"
ファミリーマート 碑文谷一丁目店
",東京都目黒区碑文谷1丁目25番21号,35.62136460000001,139.68929
"
ファミリーマート 中目黒駅前店
",東京都目黒区上目黒2-9-35,35.6430099,139.6995074
"
ファミリーマート 伊豆屋下目黒三丁目店
",東京都目黒区下目黒3ー7ー32ー103,35.6295455,139.7103446
"
ファミリーマート 都立大学駅西店
",東京都目黒区中根1-3-9 森戸ビル,35.6174254,139.6757842
"
ファミリーマート 池尻大橋駅北店
",東京都目黒区大橋2-24-1,35.6512563,139.6850912
"
ファミリーマート 中目黒駅西口店
",東京都目黒区上目黒3丁目6-3桧山ビル1F,35.6435782,139.6978981
"
ファミリーマート 駒場四丁目店
",東京都目黒区駒場4丁目6-10 コスモスビル1階,35.6639347,139.6787349
"
ファミリーマート 学芸大学駅前店
",東京都目黒区鷹番3-1-5,35.6292957,139.6859789
"
ファミリーマート 自由が丘駅前店
",東京都目黒区自由が丘2丁目13-1,35.6069312,139.6680167
"
ファミリーマート 目黒柿の木坂店
",東京都目黒区柿の木坂3-8-13,35.626532,139.672303
"
ファミリーマート 中目黒1丁目店
",東京都目黒区中目黒1丁目11-12,35.6411341,139.7023576
"
ファミリーマート 東京医療センター店
",東京都目黒区東が丘2丁目5-1,35.6264482,139.6664589
"
ファミリーマート 目黒青葉台四丁目店
",東京都目黒区青葉台4丁目7-1,35.6536965,139.6914502
"
ファミリーマート 学芸大学駅西口店
",東京都目黒区鷹番3丁目8-4,35.6297036,139.6853443
"
ファミリーマート 目黒一丁目店
",東京都目黒区目黒1丁目3-17,35.6348407,139.7133228
"
ファミリーマート 西小山駅広場前店
",東京都目黒区原町1丁目8-7,35.6155294,139.6984555
"
ミニストップ 青葉台2丁目店
",東京都目黒区青葉台2丁目21-6,35.6480807,139.6939349
"
ミニストップ 東山2丁目店
",東京都目黒区東山2丁目20-11,35.64580309999999,139.687338
"
セブンイレブン 都立大学駅南店
",東京都目黒区中根2-11-1,35.6155631,139.6768534
"
セブンイレブン 油面店
",東京都目黒区目黒4-23-19,35.632538,139.6995307
"
セブンイレブン 上目黒5丁目店
",東京都目黒区上目黒5-3-8,35.644596,139.6896166
"
セブンイレブン 駒場大橋店
",東京都目黒区大橋2-10-13,35.6551415,139.6870326
"
セブンイレブン 目黒中央1丁目店
",東京都目黒区中央町1丁目11-1,35.6276833,139.6928388
"
セブンイレブン 目黒東山3丁目店
",東京都目黒区東山3-7-11,35.649727,139.6877273
"
セブンイレブン 目黒青葉台3丁目店
",東京都目黒区青葉台3-1-19,35.6533768,139.6927723
"
セブンイレブン 目黒柿の木坂1丁目店
",東京都目黒区柿の木坂1-31-14,35.6192468,139.6749563
"
セブンイレブン 目黒環七柿の木坂店
",東京都目黒区柿の木坂1-1-1,35.6235777,139.678964
"
セブンイレブン 目黒東が丘2丁目店
",東京都目黒区東が丘2丁目12,35.6303346,139.6626673
"
セブンイレブン 目黒祐天寺店
",東京都目黒区祐天寺2-14-3,35.6373278,139.6912867
"
セブンイレブン 五本木店
",東京都目黒区五本木2-26-12,35.6344613,139.6868942
"
セブンイレブン 中目黒店
",東京都目黒区中目黒2-7-14,35.6381687,139.7047595
"
セブンイレブン 目黒平和通り店
",東京都目黒区目黒本町5ー32ー15,35.622072,139.6990154
"
セブンイレブン 目黒大橋2丁目店
",東京都目黒区大橋2-22-6,35.6519994,139.68643
"
セブンイレブン 上目黒3丁目店
",東京都目黒区上目黒3-10-3,35.6438301,139.6974188
"
セブンイレブン 目黒駒場1丁目店
",東京都目黒区駒場1丁目31-6,35.6585873,139.6837542
"
セブンイレブン 目黒元競馬場店
",東京都目黒区下目黒5-18-21,35.6306158,139.7021458
"
セブンイレブン 上目黒2丁目店
",東京都目黒区上目黒2-1-3,35.643263,139.6986759
"
セブンイレブン 下目黒6丁目店
",東京都目黒区下目黒6-8-25,35.6264616,139.7014889
"
セブンイレブン 目黒碑文谷3丁目店
",東京都目黒区碑文谷3-10-18,35.6188935,139.6852839
"
セブンイレブン 朝日橋店
",東京都目黒区青葉台1-29-6,35.6468329,139.6960693
"
セブンイレブン 中目黒アトラスタワー店
",東京都目黒区上目黒1-26-1,35.6436661,139.7003935
"
セブンイレブン 自由が丘学園通り店
",東京都目黒区自由が丘2-3-12,35.6125533,139.6667875
"
セブンイレブン 目黒南2丁目店
",東京都目黒区南2-8-6,35.6136975,139.6867469
"
セブンイレブン 学芸大学駅東店
",東京都目黒区鷹番2-8-19,35.6288205,139.687889
"
セブンイレブン 目黒本町2丁目店
",東京都目黒区目黒本町2ー17ー19,35.6259942,139.6905205
"
セブンイレブン 清水池店
",東京都目黒区目黒本町2ー11ー11,35.6241784,139.6930679
"
セブンイレブン 目黒柳通り店
",東京都目黒区下目黒2丁目2-11,35.6316974,139.710963
"
セブンイレブン 武蔵小山西口店
",東京都目黒区目黒本町3-5-7,35.6206416,139.7022582
"
セブンイレブン 目黒祐天寺駅前店
",東京都目黒区祐天寺2-2-11,35.63792189999999,139.692017
"
セブンイレブン 目黒南3丁目店
",東京都目黒区南3ー11ー18,35.6118329,139.685957
"
セブンイレブン 目黒洗足駅前店
",東京都目黒区洗足2-19-5,35.6106283,139.6942441
"
セブンイレブン 上目黒1丁目店
",東京都目黒区上目黒1-3-20,35.6452944,139.7008487
"
セブンイレブン 目黒自由が丘1丁目東店
",東京都目黒区自由が丘1-4-6,35.6082329,139.6707953
"
セブンイレブン 自由が丘駅前店
",東京都目黒区自由が丘2-10-4,35.6080933,139.6678271
"
セブンイレブン 目黒自由が丘1丁目北店
",東京都目黒区自由が丘1丁目17-17,35.6122134,139.670099
"
セブンイレブン 目黒中町1丁目店
",東京都目黒区中町1-7-6,35.6303356,139.7003314
"
セブンイレブン 都立大学駅前店
",東京都目黒区平町1-25-18,35.6171582,139.6766813
"
セブンイレブン 下目黒1丁目店
",東京都目黒区下目黒1-3-1,35.6342096,139.7131981
"
セブンイレブン 学芸大学駅西口店
",東京都目黒区鷹番3丁目8番1号,35.6298667,139.6856988
"
セブンイレブン 目黒原町1丁目店
",東京都目黒区原町1-15,35.6164261,139.6969607
"
セブンイレブン 目黒鷹番1丁目店
",東京都目黒区鷹番1-11-8,35.624458,139.6867072
"
セブンイレブン 目黒行人坂店
",東京都目黒区下目黒1ー7ー8,35.6325222,139.7125883
"
セブンイレブン 目黒八雲5丁目店
",東京都目黒区八雲5丁目14-15,35.6206595,139.6672367
"
デイリーヤマザキ 目黒本町6丁目店
",東京都目黒区目黒本町6-6-5,35.6182803,139.6972402
