Name,Address,lat,lon
"
ファミリーマート 羽田空港第2ターミナル店
",東京都大田区羽田空港3丁目4-2 地下1階,35.5515181,139.787788
"
ローソン 羽田空港第二ターミナル店
",東京都大田区羽田空港3-4-2,35.5506905,139.7889614
"
ローソン 羽田空港第一ターミナルノース店
",東京都大田区羽田空港3-3-2 第一旅客ターミナルB1,35.5501562,139.7836944
"
栄屋
",東京都大田区大森西2丁目15-4,35.5775709,139.7305757
"
YSPS牧田総合病院店
",東京都大田区大森北1丁目34-8,35.5858545,139.7270742
"
ニューデイズグランデュオ東館
",東京都大田区蒲田5丁目13-1,35.5625567,139.7164948
"
DELEETS(デリーツ) 羽田空港 国内線旅客ターミナル店
",東京都大田区羽田空港3 羽田空港国内線旅客ターミナル・第2旅客ターミナル ターミナルロビー南1F,35.5488895,139.784114
"
NEWDAYSMINI(ニューデイズミニ) 蒲田6号店
",東京都大田区蒲田5丁目 蒲田駅西口1F,35.5624794,139.7160731
"
NEWDAYS(ニューデイズ) 蒲田店
",東京都大田区蒲田5丁目 蒲田駅改札外2Fコンコース,35.5624794,139.7160731
"
NEWDAYS(ニューデイズ) グランデュオ東館店
",東京都大田区蒲田5丁目 グランデュオ蒲田店東館1F,35.5625438,139.7165426
"
NEWDAYSMINI(ニューデイズミニ) 大森1A店
",東京都大田区大森北1丁目 大森駅京浜東北線中央ホーム内,35.5886451,139.7280275
"
NEWDAYSMINI(ニューデイズミニ) 大森1号店
",東京都大田区大森北1丁目 大森駅改札外,35.5884467,139.7278683
"
ローソン・スリーエフ大田西糀谷店
",東京都大田区西糀谷3-16-5,35.5547468,139.7355504
"
湊屋
",東京都大田区田園調布本町46-24,35.587185,139.6755987
"
ローソン 大森北三丁目店
",東京都大田区大森北3-39-8,35.5824107,139.7362173
"
ローソン 新蒲田一丁目店
",東京都大田区新蒲田1-21-18,35.5583323,139.7091876
"
ローソン 南千束一丁目店
",東京都大田区南千束1-12-3,35.6025727,139.6953156
"
ローソン 田園調布一丁目店
",東京都大田区田園調布1-39-5,35.5917317,139.6756864
"
ローソン 大田西嶺町店
",東京都大田区西嶺町20-7,35.5790987,139.682752
"
ローソン 東糀谷三丁目店
",東京都大田区東糀谷3-7-9,35.5523941,139.7428823
"
ローソン 羽田四丁目店
",東京都大田区羽田4-17-9,35.5498691,139.7455595
"
ローソン 大森南二丁目店
",東京都大田区大森南2-5-18,35.5629384,139.7451464
"
ローソン 穴守稲荷店
",東京都大田区羽田4-4-22,35.550482,139.7476846
"
ローソン 大森西店
",東京都大田区大森西1-13-19,35.5768478,139.7228352
"
ローソン 田園調布南店
",東京都大田区田園調布南20-7,35.5799188,139.676712
"
ローソン 南蒲田二丁目店
",東京都大田区南蒲田2-8-8,35.5559785,139.7261487
"
ローソン 大森西六丁目店
",東京都大田区大森西6-4-6,35.5690415,139.7282109
"
ローソン 南馬込五丁目店
",東京都大田区南馬込5-42-3,35.5858391,139.7054953
"
ナチュラルローソン +toks大岡山店
",東京都大田区北千束3-27-1,35.6073507,139.6855223
"
ローソン テクノポートカマタ店
",東京都大田区南蒲田2-16-2,35.5557145,139.7213447
"
ローソン 東蒲田二丁目店
",東京都大田区東蒲田2-2-11,35.5625579,139.7260409
"
ローソン 大森駅西口店
",東京都大田区山王2-2-8,35.58816789999999,139.7273824
"
ローソン 平和島駅前店
",東京都大田区大森北6-14-8,35.5787849,139.7340719
"
ローソン 仲池上一丁目店
",東京都大田区仲池上1-20-20,35.5866572,139.6986421
"
ローソン 東京流通センター店
",東京都大田区平和島6-1-1,35.578746,139.7478873
"
ローソン 西鉄イン蒲田店
",東京都大田区西蒲田7-49-5,35.5625253,139.7130618
"
ローソン 大森本町一丁目店
",東京都大田区大森本町1-8-18,35.5833116,139.7372365
"
ローソン 武蔵新田駅前店
",東京都大田区矢口1-17-3,35.567891,139.691682
"
ローソン 東六郷二丁目店
",東京都大田区東六郷2-5-10,35.5488761,139.7190445
"
ローソン 羽田一丁目店
",東京都大田区羽田1-5-20,35.5519545,139.7407658
"
ローソン 大森東五丁目店
",東京都大田区大森東5-10-20,35.5686895,139.7413677
"
ローソン 北馬込松原橋店
",東京都大田区北馬込2-29-1,35.5960325,139.7112315
"
ナチュラルローソン 北千束駅前店
",東京都大田区北千束2-16-2,35.6065458,139.6931715
"
ローソン 久が原一丁目店
",東京都大田区久が原1-12-11,35.5871817,139.6916999
"
ナチュラルローソン 荏原病院店
",東京都大田区東雪谷4-5-10,35.5937546,139.6932081
"
ローソン H蒲田アロマスクエア店
",東京都大田区蒲田5-37-1,35.5608857,139.718314
"
ローソン 羽田空港第一ターミナルサウス店
",東京都大田区羽田空港3-3-2 第一旅客ターミナルB1,35.5501562,139.7836944
"
ローソン 羽田空港国際線ターミナル店
",東京都大田区羽田空港2-6-5国際線ターミナル1F,35.5450019,139.7690427
"
ローソン 大田中央七丁目店
",東京都大田区中央7-2-1,35.5766256,139.7146351
"
ナチュラルローソン NL+toks田園調布店
",東京都大田区田園調布3-25-18,35.5970172,139.6672795
"
ローソン 千鳥一丁目店
",東京都大田区千鳥1-18-4,35.5725788,139.6929404
"
ローソン 大田平和島店
",東京都大田区平和島4-1-23,35.5809066,139.7408103
"
LAWSON+toks多摩川駅店
",東京都大田区田園調布1-53-8,35.588674,139.6688042
"
ローソン 羽田空港整備場前店
",東京都大田区羽田空港1-7-1,35.5538244,139.7536077
"
ローソン 蒲田駅東店
",東京都大田区蒲田5-8-13,35.5631983,139.7185452
"
ローソン 大田市場店
",東京都大田区東海3-7-3,35.5781991,139.7605292
"
ローソン 久が原駅前店
",東京都大田区東嶺町28-9,35.5804667,139.6859627
"
ローソン 東糀谷一丁目店
",東京都大田区東糀谷1-22-11,35.55743,139.73921
"
ローソン 萩中二丁目店
",東京都大田区萩中2-8-10,35.5516523,139.7299387
"
ローソン サウンドクルー店
",東京都大田区平和島5-10-3,35.5760821,139.7467477
"
ローソン 鵜の木一丁目店
",東京都大田区鵜の木1-18-1,35.574579,139.682397
"
ローソン 蒲田大城通り店
",東京都大田区西蒲田3-10-4,35.56855160000001,139.7116581
"
ローソン 大森西四丁目店
",東京都大田区大森西4-17-14,35.571188,139.7239611
"
ローソン 平和島団地倉庫店
",東京都大田区平和島3-4-1,35.5831803,139.7476072
"
ローソン 西六郷四丁目店
",東京都大田区西六郷4-21,35.5418662,139.7054175
"
ローソンストア100 LS蒲田西口店
",東京都大田区西蒲田7-30-1,35.5632573,139.7139715
"
ローソンストア100 LS蒲田本町店
",東京都大田区蒲田本町2-2-1,35.5584803,139.7190537
"
ローソンストア100 LS糀谷駅前店
",東京都大田区萩中2-1-19,35.5527082,139.7298533
"
ローソンストア100 LS蓮沼駅前店
",東京都大田区西蒲田7-16-2,35.5644082,139.7089787
"
ローソンストア100 LS新蒲田店
",東京都大田区新蒲田2-19-13第2長谷川ビル,35.5586504,139.704879
"
ローソンストア100 LS東雪谷店
",東京都大田区東雪谷3-29-4,35.5931744,139.6880694
"
ローソンストア100 LS南六郷店
",東京都大田区南六郷1-8-1ハイツアオキ,35.5502019,139.7208782
"
ローソンストア100 LS雑色店
",東京都大田区仲六郷2-28-1,35.5503708,139.7142483
"
ローソンストア100 LS矢口渡駅前店
",東京都大田区多摩川1-21-5,35.5622148,139.6993138
"
ローソンストア100 西蒲田四丁目店
",東京都大田区西蒲田4-14-4,35.5692027,139.716263
"
ローソンストア100 LS大森西店
",東京都大田区大森西5-1-1センユー大森西,35.5726143,139.724749
"
ローソンストア100 LS大森南店
",東京都大田区大森南3-28-7SJハイツ,35.56368,139.741209
"
ローソンストア100 LS武蔵新田店
",東京都大田区下丸子2-19-22ハイコーポ晃栄,35.5654247,139.6881263
"
ローソンストア100 LS大森中店
",東京都大田区大森中2-1-17,35.5677823,139.7299018
"
ローソンストア100 LS大森北店
",東京都大田区大森北1-30-7,35.5855098,139.7276743
"
ローソンストア100 LS梅屋敷店
",東京都大田区蒲田2-4-5スカイドムス,35.5678554,139.7247889
"
ローソンストア100 LS仲六郷一丁目店
",東京都大田区仲六郷1-35-7,35.5537373,139.7129835
"
ローソン 大田大森東四丁目店
",東京都大田区大森東4-38-15,35.565784,139.736579
"
LAWSON+toks石川台駅前店
",東京都大田区東雪谷2-23-1,35.5970522,139.6854535
"
ローソン 東矢口二丁目店
",東京都大田区東矢口2-14-16,35.5643816,139.6998993
"
ローソンサテライト 大森赤十字病院店
",東京都大田区中央4-30-1,35.5789066,139.7178964
"
ローソン 大森北一丁目店
",東京都大田区大森北1-13-5,35.5861885,139.7291243
"
ローソン 大森北八幡通店
",東京都大田区大森北3-10-4,35.5842074,139.7345421
"
ローソン 西蒲田八丁目店
",東京都大田区西蒲田8-23-1-1,35.5604233,139.7141777
"
ローソン TRC南B棟店
",東京都大田区平和島6-1-1,35.578746,139.7478873
"
ローソン 池上駅前店
",東京都大田区池上6-2-16,35.5725063,139.7032405
"
ローソン 大田雪谷大塚町店
",東京都大田区雪谷大塚町10-5,35.5907257,139.6791986
"
ローソン 大田西馬込一丁目店
",東京都大田区大田区西馬込1-29-2,35.5884067,139.7065346
"
ローソン 大田山王四丁目店
",東京都大田区山王4-14-2,35.588018,139.7197011
"
ローソン 大田蒲田一丁目店
",東京都大田区蒲田1-29-7,35.5641447,139.7198005
"
ローソン・スリーエフ 大田区役所前店
",東京都大田区蒲田5-39-4,35.5614557,139.7165889
"
ローソン・スリーエフ 蒲田消防署前店
",東京都大田区南蒲田2-28-27,35.5551619,139.7203732
"
ローソン・スリーエフ 大田区山王一丁目店
",東京都大田区山王1-44-11,35.5921201,139.7196716
"
ローソン・スリーエフ 大森東一丁目店
",東京都大田区大森東1-6-8,35.5769221,139.7356857
"
ローソン・スリーエフ 大田北嶺町店
",東京都大田区北嶺町36-10,35.5857635,139.6801505
"
ファミリーマート タケウチ萩中店
",東京都大田区萩中2-11-1,35.5513337,139.7311294
"
ファミリーマート 南蒲田店
",東京都大田区南蒲田1-10-7,35.559241,139.7254191
"
ファミリーマート 栄屋石川台店
",東京都大田区東雪谷2-14-3,35.5951496,139.6856905
"
ファミリーマート 野口大鳥居店
",東京都大田区西糀谷3-21-5,35.5540466,139.7396144
"
ファミリーマート 大森南店
",東京都大田区大森南3-10-1,35.5665054,139.7429572
"
ファミリーマート 大田池上五丁目店
",東京都大田区池上5丁目4番2号,35.5738827,139.7086013
"
ファミリーマート 西糀谷四丁目店
",東京都大田区西糀谷4-13-12,35.5552581,139.7299062
"
ファミリーマート サンズ西馬込二丁目店
",東京都大田区西馬込2-1-7,35.5873276,139.7060539
"
ファミリーマート 羽田五丁目店
",東京都大田区羽田5丁目3-1スカイプラザオフィス1階,35.5507903,139.7504077
"
ファミリーマート サンズ大岡山北口店
",東京都大田区北千束1-55-2,35.6098779,139.6854815
"
ファミリーマート サンズ大岡山駅前店
",東京都大田区北千束1-45-11風月堂ビル1階,35.6078556,139.6855072
"
ファミリーマート サンズ京急蒲田口店
",東京都大田区蒲田5-27-7,35.5619354,139.7208318
"
ファミリーマート タケウチ矢口店
",東京都大田区矢口2-16ー2,35.5629993,139.693487
"
ファミリーマート 小浦蒲田駅西店
",東京都大田区西蒲田8-4-12,35.5612167,139.7137803
"
ファミリーマート 大田中馬込店
",東京都大田区中馬込2-6-3,35.5952241,139.7084096
"
ファミリーマート 蒲田駅東店
",東京都大田区蒲田5-36-4,35.5612963,139.7189209
"
ファミリーマート 大田池上四丁目店
",東京都大田区池上4丁目16-11,35.5734697,139.7058342
"
ファミリーマート 蒲田駅北店
",東京都大田区蒲田5-12-7,35.5634162,139.7168943
"
ファミリーマート 大田梅屋敷店
",東京都大田区大森中2-24-1,35.5667086,139.729318
"
ファミリーマート 大森海岸駅東店
",東京都大田区大森本町1-2-6エイト大森ハイツ1階,35.5873657,139.7362033
"
ファミリーマート 鵜の木多摩堤通り店
",東京都大田区鵜の木2丁目2番5号,35.576,139.6804447
"
ファミリーマート サンズ大田西馬込店
",東京都大田区西馬込2丁目-11-10,35.5899183,139.7015551
"
ファミリーマート 大田中央三丁目店
",東京都大田区中央3丁目21番15号,35.5744232,139.7170032
"
ファミリーマート トウエイ西六郷店
",東京都大田区西六郷1丁目14-7,35.5535499,139.7086555
"
ファミリーマート 大田池上一丁目店
",東京都大田区池上1丁目28番7号,35.5752533,139.7108943
"
ファミリーマート 大田南馬込五丁目店
",東京都大田区南馬込5-16-20,35.5879448,139.7091855
"
ファミリーマート 大田上池台店
",東京都大田区上池台1丁目14-16,35.6029356,139.6966672
"
ファミリーマート 西六郷一丁目店
",東京都大田区西六郷1丁目50番11号,35.5515528,139.7112622
"
ファミリーマート 仲六郷第一京浜店
",東京都大田区仲六郷4丁目31番7号,35.541409,139.7090679
"
ファミリーマート 三度屋大森東四丁目店
",東京都大田区大森東4-17-1,35.5682136,139.7374374
"
ファミリーマート 大田仲池上一丁目店
",東京都大田区仲池上1丁目9-10,35.5872366,139.7014645
"
ファミリーマート 大森駅西口前店
",東京都大田区山王2丁目4-3,35.5885816,139.7272887
"
ファミリーマート 大田大森中一丁目店
",東京都大田区大森中1丁目7-21 ヴィルズ大森町,35.5711562,139.7323517
"
ファミリーマート 大田池上三丁目店
",東京都大田区池上3丁目37番16号,35.5727158,139.6977262
"
ファミリーマート 羽田二丁目店
",東京都大田区羽田2丁目10-2,35.5482221,139.7414777
"
ファミリーマート 大田千鳥三丁目店
",東京都大田区千鳥3-12-16,35.5719137,139.6871943
"
ファミリーマート 環七南馬込三丁目店
",東京都大田区南馬込3-38-6,35.5829961,139.7200363
"
ファミリーマート 大田本羽田二丁目店
",東京都大田区本羽田2丁目13-7,35.5465719,139.7309623
"
ファミリーマート 糀谷駅南店
",東京都大田区西糀谷4-28-18,35.5543311,139.7294082
"
ファミリーマート 蒲田南口駅前店
",東京都大田区蒲田5-13-31,35.5605102,139.7149395
"
ファミリーマート 大田新蒲田二丁目店
",東京都大田区新蒲田2丁目5番14号,35.5608396,139.705253
"
ファミリーマート 大田池上徳持店
",東京都大田区池上6丁目32番14号,35.5681078,139.7042037
"
ファミリーマート 蒲田東口中央通り店
",東京都大田区蒲田5丁目30-15 第20下川ビル,35.5618861,139.7195973
"
ファミリーマート 大田池上仲通り店
",東京都大田区池上3丁目39-11 プレミール高橋,35.5730982,139.7013884
"
ファミリーマート サンズ京急蒲田駅西口店
",東京都大田区蒲田4丁目15-3 ATTビル,35.5611821,139.7231032
"
ファミリーマート タケウチ萩中環八通り店
",東京都大田区萩中2丁目3-7,35.5528144,139.7320598
"
ファミリーマート 大田久が原五丁目店
",東京都大田区久が原5丁目2番1号,35.5795424,139.6986009
"
ファミリーマート 羽田六丁目店
",東京都大田区羽田6丁目2番1,35.5478701,139.7483277
"
ファミリーマート 平和島旧東海道店
",東京都大田区大森本町2丁目31-14鈴木ビル,35.5777529,139.7361605
"
ファミリーマート 西蒲田大城通り入口店
",東京都大田区西蒲田5丁目18番15号,35.5652092,139.7134868
"
ファミリーマート 大田上池台三丁目店
",東京都大田区上池台3丁目46-3,35.5909402,139.6969081
"
ファミリーマート 大田大森東二丁目店
",東京都大田区大森東2丁目26-5,35.5726045,139.736895
"
ファミリーマート 小浦大森駅東店
",東京都大田区大森北1丁目2-1,35.5879021,139.728811
"
ファミリーマート かわだ多摩川店
",東京都大田区多摩川1丁目23-1 MSフォルム多摩川,35.5614382,139.6972273
"
ファミリーマート 下丸子三丁目店
",東京都大田区下丸子3丁目28番11号,35.5668661,139.6842365
"
ファミリーマート 西六郷三丁目店
",東京都大田区西六郷3丁目3番1号,35.5469118,139.7073333
"
ファミリーマート 蓮沼駅西店
",東京都大田区東矢口1丁目18番3号,35.5644969,139.7078404
"
ファミリーマート 雑色駅広場前店
",東京都大田区仲六郷2丁目42-7,35.5495305,139.7155513
"
ファミリーマート 大田中央四丁目店
",東京都大田区中央4丁目21-7,35.5801753,139.7181235
"
ファミリーマート 田園調布二丁目店
",東京都大田区田園調布2-41-17,35.5961389,139.6700326
"
ファミリーマート 蒲田四丁目店
",東京都大田区蒲田4丁目31番8号 海老原ハイツ,35.55995170000001,139.7191125
"
ファミリーマート 野口西糀谷産業道路店
",東京都大田区西糀谷2丁目11番1号,35.5593441,139.7380257
"
ファミリーマート 大田区雑色駅前店
",東京都大田区仲六郷2丁目43-5,35.5499706,139.7158007
"
ファミリーマート 大田南六郷三丁目店
",東京都大田区南六郷3丁目12番10号,35.5431405,139.7143366
"
ファミリーマート 大田東矢口三丁目店
",東京都大田区東矢口3丁目10-9,35.5640315,139.7045276
"
ファミリーマート 大田矢口渡駅前店
",東京都大田区多摩川1-19-2,35.5625848,139.6996532
"
ファミリーマート 大田大森西一丁目店
",東京都大田区大森西1丁目19-14,35.5756379,139.7227168
"
ファミリーマート 大田区役所前店
",東京都大田区蒲田5丁目46-1 秋元ビル,35.5604221,139.7160102
"
ファミリーマート 上池台夫婦坂店
",東京都大田区上池台4-2-6,35.5994367,139.7031389
"
ファミリーマート 蒲田西口工学院通り店
",東京都大田区西蒲田7丁目2-1,35.5632895,139.7159668
"
ファミリーマート 大田長原店
",東京都大田区上池台1丁目43番2号,35.60162930000001,139.698596
"
ファミリーマート 大田南蒲田二丁目店
",東京都大田区南蒲田2丁目18-12,35.5544309,139.7249749
"
ファミリーマート 大森駅東口店
",東京都大田区大森北1丁目4-7 TK大森ビル,35.5875639,139.7281814
"
ファミリーマート 蒲田駅前店
",東京都大田区蒲田5丁目38-1 第一美須ビル,35.5615093,139.7171371
"
ファミリーマート 大田大森南店
",東京都大田区大森南2-3-16,35.5631824,139.743009
"
ファミリーマート 下丸子駅南店
",東京都大田区下丸子3ー22-4,35.56881180000001,139.6861296
"
ファミリーマート 環八蒲田本町店
",東京都大田区蒲田本町1丁目1番10号,35.5580332,139.7147533
"
ファミリーマート 大森北五丁目店
",東京都大田区大森北5丁目8-11,35.5805284,139.7280822
"
ファミリーマート 大田南馬込六丁目店
",東京都大田区南馬込6丁目3番12号,35.5851544,139.7074062
"
ファミリーマート 大森西四丁目店
",東京都大田区大森西4丁目10番2号,35.573389,139.7231934
"
ファミリーマート 大森北店
",東京都大田区大森北5丁目10-21,35.5798985,139.726654
"
ファミリーマート 大田千鳥店
",東京都大田区千鳥2丁目37番10号,35.5680997,139.6946989
"
ファミリーマート 大田東糀谷店
",東京都大田区東糀谷4丁目4番7号,35.5570619,139.7447455
"
ファミリーマート 羽田空港貨物店
",東京都大田区羽田空港3丁目2番6号ア-クビル1階,35.5572576,139.7822221
"
ファミリーマート 大田大森南二丁目店
",東京都大田区大森南2丁目5番5号,35.5638403,139.7452745
"
ファミリーマート 萩中三丁目店
",東京都大田区萩中3丁目5-7,35.5522154,139.7385554
"
ファミリーマート 大森山王店
",東京都大田区山王2ー5ー3,35.5905323,139.7279253
"
ファミリーマート 雪谷大塚店
",東京都大田区南雪谷2丁目2-13,35.5917262,139.6813674
"
ファミリーマート 小浦大森駅前店
",東京都大田区大森北1丁目4-1,35.588043,139.7285049
"
ファミリーマート 東馬込店
",東京都大田区東馬込1丁目23-4,35.5971041,139.7123196
"
ファミリーマート 蒲田西口店
",東京都大田区西蒲田7-5-14シティプラザ蒲田1F,35.5639714,139.7150127
"
ファミリーマート 田園調布本町店
",東京都大田区田園調布本町33-12,35.5833432,139.6731147
"
ファミリーマート ポートストア大井SC店
",東京都大田区東海4丁目1番地,35.5935694,139.7632912
"
ファミリーマート ポートストア城南島店
",東京都大田区城南島2-9-1,35.5796548,139.7735999
"
ファミリーマート 大田北糀谷一丁目店
",東京都大田区北糀谷1丁目5番20号,35.5645881,139.735365
"
ファミリーマート 大田上池台四丁目店
",東京都大田区上池台4丁目40-8,35.5947549,139.7001319
"
ファミリーマート 大田梅屋敷駅前店
",東京都大田区蒲田2丁目7-19,35.5672212,139.7281664
"
ファミリーマート 羽田四丁目店
",東京都大田区羽田4丁目4番2号,35.5511596,139.7481686
"
ファミリーマート 大森東産業道路店
",東京都大田区大森東2丁目9番12号スカイレジデンス大森東1階,35.5731503,139.7343893
"
ファミリーマート 大田西六郷一丁目店
",東京都大田区西六郷1丁目30番4号,35.5533716,139.7066
"
ファミリーマート 池上文化センター前店
",東京都大田区池上4丁目22番11号,35.5751135,139.7035411
"
ファミリーマート 新整備場駅前店
",東京都大田区羽田空港3丁目5番10号,35.5428962,139.7899588
"
ファミリーマート 鵜の木駅前店
",東京都大田区鵜の木2丁目5-1 原田ビル,35.5752692,139.6810477
"
ファミリーマート 大田洗足池店
",東京都大田区上池台2丁目31番11号,35.5993027,139.6921545
"
ファミリーマート 大森西二丁目店
",東京都大田区大森西2丁目27-8,35.576306,139.7320517
"
ファミリーマート 大田DC店
",東京都大田区東海1丁目3-6,35.5864033,139.7537393
"
ファミリーマート 大森駅西口店
",東京都大田区山王2丁目2-14,35.5889215,139.7277431
"
ファミリーマート 大岡山東工大前店
",東京都大田区北千束3丁目30-7,35.6061185,139.6853214
"
ファミリーマート 小浦蒲田サンライズ通り店
",東京都大田区西蒲田7丁目48-14,35.5624572,139.7135137
"
ミニストップ 池上駅前店
",東京都大田区池上7-10-10,35.5716052,139.7017958
"
ミニストップ 池上6丁目店
",東京都大田区池上6-5,35.5722614,139.7049388
"
ミニストップ 大田中央店
",東京都大田区中央4-33,35.5787632,139.718105
"
ミニストップ 大鳥居駅前店
",東京都大田区西糀谷3-37-13,35.5526877,139.7398349
"
ミニストップ 平和島店
",東京都大田区大森北6-25-15協和ビル1F,35.5786474,139.7318728
"
ミニストップ 洗足池店
",東京都大田区上池台2-26-11,35.5989911,139.6923012
"
ミニストップ 下丸子1丁目店
",東京都大田区下丸子1丁目12番6号,35.5676976,139.6894908
"
ミニストップ 京浜トラックターミナル店
",東京都大田区平和島2-1-1,35.586094,139.7448557
"
セブンイレブン 大田区西蒲田1丁目店
",東京都大田区西蒲田1-16-14,35.5702594,139.7163693
"
セブンイレブン 大田区蒲田1丁目店
",東京都大田区蒲田1ー27ー7,35.564801,139.717798
"
セブンイレブン 蒲田2丁目東邦医大通り店
",東京都大田区蒲田2丁目17-17,35.5663496,139.7227631
"
セブンイレブン 大田区六郷土手駅前店
",東京都大田区仲六郷4-27-10,35.5410116,139.7077898
"
セブンイレブン 大田区大森南1丁目店
",東京都大田区大森南1-17-1,35.5636258,139.7386997
"
セブンイレブン 大田区蒲田1丁目北店
",東京都大田区蒲田1-3-27,35.5684412,139.721463
"
セブンイレブン 大田区東馬込2丁目店
",東京都大田区東馬込2ー12ー4,35.5923243,139.7179056
"
セブンイレブン 大田区西糀谷1丁目店
",東京都大田区西糀谷1-10-18,35.559651,139.7304279
"
セブンイレブン 大田区久が原3丁目店
",東京都大田区久が原3-27-8,35.5815913,139.6915839
"
セブンイレブン 蒲田アロマスクエア前店
",東京都大田区蒲田5-20-10,35.5616555,139.7186741
"
セブンイレブン 大田区池上駅南店
",東京都大田区池上6-12-11,35.5707019,139.7035719
"
セブンイレブン 大田区大森南2丁目店
",東京都大田区大森南2-13-1,35.5624675,139.7419123
"
セブンイレブン 大田区西蒲田2丁目店
",東京都大田区西蒲田2-5-26,35.5707708,139.7059488
"
セブンイレブン 大田区雪谷大塚町店
",東京都大田区雪谷大塚町9-7,35.5917707,139.6797188
"
セブンイレブン 京急ST羽田空港国際線ターミナル店
",東京都大田区羽田空港2-6-5,35.54577039999999,139.768664
"
セブンイレブン 大田区中央8丁目店
",東京都大田区中央8-28-4,35.5737256,139.7182855
"
セブンイレブン 大田区矢口2丁目店
",東京都大田区矢口2-15-7,35.5632376,139.695124
"
セブンイレブン 本羽田第三公園前店
",東京都大田区本羽田2-11-9,35.54676060000001,139.7335348
"
セブンイレブン 大田区仲六郷店
",東京都大田区仲六郷1-28-11,35.5536034,139.715519
"
セブンイレブン 大田区南蒲田2丁目店
",東京都大田区南蒲田2丁目15番22号,35.5571066,139.721984
"
セブンイレブン 大田区久が原2丁目店
",東京都大田区久が原2丁目4番15号,35.5840185,139.6960608
"
セブンイレブン 大田区矢口店
",東京都大田区矢口2-17-28,35.5628164,139.6914457
"
セブンイレブン 南馬込店
",東京都大田区南馬込3-25-2,35.5857767,139.7193431
"
セブンイレブン 大田区大森中1丁目店
",東京都大田区大森中1-1-3,35.5728337,139.7339057
"
セブンイレブン 大田区南馬込2丁目店
",東京都大田区南馬込2-19-3,35.5878066,139.7132869
"
セブンイレブン 京急ST羽田第1ターミナル店
",東京都大田区羽田空港3-3-4,35.5494343,139.7854413
"
セブンイレブン 田園調布2丁目店
",東京都大田区田園調布2-50-5,35.5970726,139.6682232
"
セブンイレブン 大田区鵜の木2丁目店
",東京都大田区鵜の木2ー15ー17,35.57522300000001,139.6799445
"
セブンイレブン 大田区西糀谷3丁目店
",東京都大田区西糀谷3ー43ー1,35.5529438,139.7355802
"
セブンイレブン 大田区仲六郷2丁目店
",東京都大田区仲六郷2丁目15番10号,35.5506228,139.7143921
"
セブンイレブン 大田区西蒲田8丁目店
",東京都大田区西蒲田8-1-7,35.5612563,139.7148744
"
セブンイレブン 京急蒲田駅前店
",東京都大田区蒲田4-25-7,35.56006929999999,139.7219616
"
セブンイレブン 大森東店
",東京都大田区大森東4-14-3,35.5680144,139.7403307
"
セブンイレブン 大田区大森北2丁目店
",東京都大田区大森北2-9-12,35.5846308,139.7335625
"
セブンイレブン 大田区蒲田5丁目店
",東京都大田区蒲田5-49-12,35.5594135,139.7174153
"
セブンイレブン 大田区大森駅南店
",東京都大田区大森北1-33-1,35.58550049999999,139.7266406
"
セブンイレブン 大田区新蒲田3丁目店
",東京都大田区新蒲田3-8-7,35.5571887,139.7053494
"
セブンイレブン 雪が谷大塚駅前店
",東京都大田区南雪谷2-2-14,35.5917028,139.6811192
"
セブンイレブン 7FS羽田クロノゲート店
",東京都大田区羽田旭町11-1,35.5529375,139.7505753
"
セブンイレブン 大田区大森北4丁目店
",東京都大田区大森北4丁目10-5,35.5845271,139.7304338
"
セブンイレブン 京急ST平和島店
",東京都大田区大森北6-13-11,35.57871799999999,139.7346899
"
セブンイレブン 大田区萩中3丁目店
",東京都大田区萩中3丁目21番5,35.5506477,139.7403908
"
セブンイレブン 大田区多摩川2丁目店
",東京都大田区多摩川2丁目27-10,35.5566422,139.7017076
"
セブンイレブン 下丸子多摩堤通り店
",東京都大田区下丸子2-28-3,35.5643125,139.6895294
"
セブンイレブン 大田区東糀谷店
",東京都大田区東糀谷3-6-12,35.552475,139.7420513
"
セブンイレブン 大田区本羽田1丁目店
",東京都大田区本羽田1-19-3,35.5476016,139.7279688
"
セブンイレブン ANA訓練センター店
",東京都大田区東糀谷6-7-56,35.55832669999999,139.7489971
"
セブンイレブン 大田区下丸子4丁目店
",東京都大田区下丸子4丁目19-13,35.5700724,139.6816128
"
セブンイレブン 大田区久が原5丁目店
",東京都大田区久が原5-15-9,35.5774174,139.6995643
"
セブンイレブン 大田区多摩川1丁目店
",東京都大田区多摩川1-34-9,35.560621,139.6999435
"
セブンイレブン 大田区大森西5丁目店
",東京都大田区大森西5-29-10,35.5710983,139.7316462
"
セブンイレブン 大田区糀谷中前店
",東京都大田区西糀谷3-8-21,35.5558202,139.7380469
"
セブンイレブン 大田区東六郷2丁目店
",東京都大田区東六郷2-2-6,35.5510251,139.7173264
"
セブンイレブン 蓮沼店
",東京都大田区東矢口3-6-3,35.5642062,139.706706
"
セブンイレブン 大田区美原通り店
",東京都大田区大森東1-7-27,35.5773094,139.736226
"
セブンイレブン 大田区水門通り店
",東京都大田区東六郷2丁目9-10,35.5493481,139.7174487
"
セブンイレブン 大田区西六郷2丁目店
",東京都大田区西六郷2丁目29-7,35.5498424,139.7074211
"
セブンイレブン 大田区西蒲田3丁目店
",東京都大田区西蒲田3-1-26,35.5697428,139.7096865
"
セブンイレブン 大田区蒲田本町2丁目店
",東京都大田区蒲田本町2-8-1,35.5575303,139.7178225
"
セブンイレブン 大田区中央6丁目店
",東京都大田区中央6丁目26-4,35.5771946,139.71508
"
セブンイレブン 京急ST大森町店
",東京都大田区大森西3-24-7,35.5724864,139.7321322
"
セブンイレブン 大田区南六郷2丁目店
",東京都大田区南六郷2丁目15番12号,35.5464667,139.7224966
"
セブンイレブン 京急ST穴守稲荷店
",東京都大田区羽田4丁目6番11号,35.5502124,139.7471208
"
セブンイレブン 大田区羽田店
",東京都大田区羽田6ー1ー2,35.5480092,139.7475761
"
セブンイレブン 大田区南蒲田1丁目店
",東京都大田区南蒲田1-25-1,35.5573662,139.7250024
"
セブンイレブン 大田区西六郷4丁目店
",東京都大田区西六郷4-6-22,35.54387970000001,139.7047472
"
セブンイレブン Luz大森店
",東京都大田区大森北1-10-14,35.5863522,139.7282884
"
セブンイレブン 大田区大森中2丁目店
",東京都大田区大森中2丁目11番7,35.5676206,139.7337754
"
セブンイレブン 七辻店
",東京都大田区南蒲田2-30-10,35.5523246,139.7227251
"
セブンイレブン 西馬込店
",東京都大田区西馬込2ー20ー5,35.5863409,139.7050789
"
セブンイレブン 大田区大森町店
",東京都大田区大森西5-6-7,35.5721153,139.7290915
"
セブンイレブン 大田区東六郷3丁目店
",東京都大田区東六郷3-6-3,35.545825,139.7133216
"
セブンイレブン 大田区上池台店
",東京都大田区上池台1-44-1,35.6013605,139.6998864
"
セブンイレブン 西蒲田環八通り店
",東京都大田区西蒲田8丁目14番10号,35.56006000000001,139.7103019
"
セブンイレブン 大田区萩中1丁目店
",東京都大田区萩中1丁目10番1号,35.5513912,139.726243
"
セブンイレブン 下丸子駅前店
",東京都大田区下丸子3ー8ー11,35.5707642,139.685573
"
セブンイレブン 大田区東雪谷店
",東京都大田区東雪谷2-17-3,35.5944614,139.6865252
"
セブンイレブン 大田区池上3丁目店
",東京都大田区池上3ー33ー5,35.5739445,139.7011872
"
セブンイレブン 蒲田駅前店
",東京都大田区蒲田5-7-8,35.5630191,139.7197422
"
セブンイレブン 久が原バス通り店
",東京都大田区久が原2-25-12,35.5799313,139.6978346
"
セブンイレブン 田園調布郵便局前店
",東京都大田区南雪谷2-19-1,35.58930360000001,139.6787309
"
セブンイレブン 大田区大森西2丁目店
",東京都大田区大森西2-20-8,35.5768476,139.7279289
"
セブンイレブン 大田区久が原駅前店
",東京都大田区南久が原2-8-4,35.57955620000001,139.6848427
"
セブンイレブン 大田区北千束3丁目店
",東京都大田区北千束3ー35ー3,35.6046531,139.6858119
"
セブンイレブン 大田区南雪谷1丁目店
",東京都大田区南雪谷1-5-2,35.5932327,139.6814903
"
セブンイレブン 京急ST羽田第2ターミナル店
",東京都大田区羽田空港3-3-4,35.5494343,139.7854413
"
セブンイレブン 大森駅北店
",東京都大田区山王1丁目6-5,35.5909425,139.7281928
"
セブンイレブン 大田区南雪谷5丁目店
",東京都大田区南雪谷5-20-16,35.5879323,139.6915578
"
セブンイレブン 矢口渡駅前店
",東京都大田区多摩川1-5-25,35.5626154,139.7008495
"
セブンイレブン 大田区大森西3丁目店
",東京都大田区大森西3-8-1,35.5738628,139.7302364
"
セブンイレブン 大田区西蒲田7丁目店
",東京都大田区西蒲田7-42-11,35.5630439,139.7117186
"
セブンイレブン 西蒲田5丁目店
",東京都大田区西蒲田5-27-10,35.56432830000001,139.7144125
"
セブンイレブン 大田市場店
",東京都大田区東海3丁目2番1号,35.5789543,139.7591679
"
セブンイレブン 京急ST蒲田東口駅前広場店
",東京都大田区南蒲田1丁目20番32号,35.5599827,139.7239716
"
セブンイレブン 京急ST蒲田改札前店
",東京都大田区蒲田4丁目50番11号,35.5608547,139.7237877
"
セブンイレブン 大田区池上8丁目店
",東京都大田区池上8-16-5,35.568772,139.6965381
"
セブンイレブン 大田区大森北6丁目店
",東京都大田区大森北6-24-13,35.5787729,139.7309201
"
セブンイレブン 大田区東蒲田キネマ通り店
",東京都大田区東蒲田2-16-1,35.5623664,139.7302863
"
セブンイレブン 大田区千鳥町駅前店
",東京都大田区千鳥1-20-4,35.5728863,139.6911574
"
セブンイレブン 大田区大森中2丁目西店
",東京都大田区大森中2-1-3,35.5684563,139.7307896
"
セブンイレブン 京急ST雑色店
",東京都大田区仲六郷2-42-1,35.5498913,139.7151727
"
セブンイレブン ANAコンポーネントビル店
",東京都大田区羽田空港3-5-5,35.5368537,139.7940071
"
セブンイレブン 京急ST梅屋敷店
",東京都大田区蒲田2-28-1,35.5670989,139.7285442
"
セブンイレブン 大田区南馬込4丁目店
",東京都大田区南馬込4-48-13,35.5828668,139.7143091
"
セブンイレブン 大田区千鳥2丁目店
",東京都大田区千鳥2-21-8,35.5694549,139.6934285
"
セブンイレブン 大田区羽田1丁目店
",東京都大田区羽田1-10-13,35.5507183,139.7444893
"
セブンイレブン 大田区大森中3丁目店
",東京都大田区大森中3-26-1,35.5643541,139.7316761
"
セブンイレブン 大森駅西口店
",東京都大田区山王2-3-15,35.5866136,139.7262885
"
セブンイレブン 大田区下丸子1丁目店
",東京都大田区下丸子1-18-1,35.5665088,139.6899733
"
セブンイレブン 大田区石川台店
",東京都大田区石川町2丁目7-9,35.5975487,139.6832536
"
セブンイレブン 東急プラザ蒲田店
",東京都大田区西蒲田7-69-1,35.5619308,139.7152917
"
セブンイレブン 大田区西糀谷児童公園前店
",東京都大田区西糀谷3-1-10,35.5568536,139.7348484
"
セブンイレブン 大田区下丸子3丁目店
",東京都大田区下丸子3-2-17,35.5715973,139.6860772
"
セブンイレブン 大田区大森西1丁目店
",東京都大田区大森西1丁目1-9,35.5791048,139.7235753
"
セブンイレブン 大田区下丸子ガス橋通り店
",東京都大田区下丸子3-27-12,35.5674111,139.6852341
"
セブンイレブン 大田区蒲田あやめ橋店
",東京都大田区蒲田3-17-20,35.5631953,139.7222549
"
セブンイレブン 大田区山王春日橋店
",東京都大田区山王3丁目14-5,35.5818773,139.7213119
"
セブンイレブン 大田区美原通り南店
",東京都大田区大森東1-16-20,35.5753693,139.7354879
"
セブンイレブン 大田区仲糀谷店
",東京都大田区東糀谷1-12-26,35.5599595,139.7384271
"
セブンイレブン 東京高校前店
",東京都大田区鵜の木2-35-17,35.574156,139.6781
"
セブンイレブン 大田区山王1丁目店
",東京都大田区山王1-25-12,35.5932702,139.7252712
"
セブンイレブン 馬込桜並木通り店
",東京都大田区南馬込4-9-4,35.5851358,139.7099993
"
セブンイレブン 大田区大森南3丁目店
",東京都大田区大森南3-22-1,35.5651649,139.7437923
"
セブンイレブン 大田区大森西6丁目店
",東京都大田区大森西6丁目14-16,35.5677296,139.7266099
"
セブンイレブン 大田区西糀谷4丁目店
",東京都大田区西糀谷4丁目12番5号,35.5554139,139.7289165
"
セブンイレブン 大田区役所前店
",東京都大田区蒲田5-40-3,35.5612124,139.7165956
"
セブンイレブン 大田洗足池店
",東京都大田区東雪ケ谷1-1-18,35.599988,139.6904467
"
セブンイレブン 大田区北馬込店
",東京都大田区北馬込2-34-20,35.5982171,139.7105998
"
セブンイレブン 東京工業大学大岡山キャンパス店
",東京都目黒区大岡山2丁目12-1南4号舘,35.6061948,139.6828698
"
セブンイレブン 大田区西蒲田店
",東京都大田区西蒲田5-3-20,35.5668134,139.7164666
"
セブンイレブン 大田区上池台3丁目店
",東京都大田区上池台3-43-1,35.5928483,139.6966981
"
セブンイレブン 大田区東雪谷1丁目店
",東京都大田区東雪谷1丁目27-6,35.598917,139.6909833
"
セブンイレブン 東邦大学大森キャンパス店
",東京都大田区大森西5丁目21-6,35.5706367,139.724568
"
セブンイレブン 羽田空港第1ターミナル店
",東京都大田区羽田空港3丁目3番2号,35.5487589,139.7838746
"
セブンイレブン 御嶽山駅前店
",東京都大田区北嶺町31-14,35.5854719,139.6830469
"
セブンイレブン 大田区西蒲田4丁目店
",東京都大田区西蒲田4-1-3,35.5699331,139.7188232
"
デイリーヤマザキ 平和島店
",東京都大田区大森本町2-32-7,35.5777879,139.7356095
"
ニューヤマザキデイリーストア 池上みずむらや店
",東京都大田区池上3-17-6,35.57557000000001,139.7000954
"
ニューヤマザキデイリーストア 片柳学園蒲田店
",東京都大田区西蒲田5-23-22,35.5645921,139.7156006
"
ニューヤマザキデイリーストア 羽田空港新国際貨物T店
",東京都大田区羽田空港2-6-3,35.5415164,139.7743373
"
デイリーヤマザキ 御園店
",東京都大田区西蒲田7-52-6,35.5623141,139.7103139
"
デイリーヤマザキ 大森中央店
",東京都大田区中央8-1-5,35.5753918,139.7120527
