Name,Address,lat,lon
"
Fマートさかもとや
",東京都杉並区久我山3丁目10-1,35.6864584,139.5931305
"
生活彩家荻窪病院店
",東京都杉並区今川3-1-24,35.7152377,139.6072746
"
NEWDAYS(ニューデイズ) 荻窪4号店
",東京都杉並区上荻1-7-1 荻窪駅西口改札外左脇,35.7043847,139.6191159
"
NEWDAYSMINI(ニューデイズミニ) 西荻窪5号店
",東京都杉並区西荻北3-1-9 西荻窪駅改札内正面階段上,35.7040399,139.6000636
"
NEWDAYS(ニューデイズ) 西荻窪店
",東京都杉並区西荻北3-1-9 西荻窪駅改札脇,35.7040399,139.6000636
"
NEWDAYS(ニューデイズ) 高円寺店
",東京都杉並区高円寺南4 高円寺駅構内,35.7053168,139.6496915
"
ローソン LTF 杉並方南町
",東京都杉並区方南2-8-9,35.6819525,139.6580812
"
K-SHOP(ケーショップ) 高井戸店
",東京都杉並区高井戸西2-1-26,35.6835464,139.6141323
"
ポプラ 荻窪店
",東京都杉並区今川4-21-10,35.7169298,139.5970914
"
スリーエイト 永福北口店
",東京都杉並区和泉3-46-7,35.6798073,139.6461153
"
ヒロマルチェーン スリーエイト 阿佐谷北店
",東京都杉並区阿佐谷北2-9-12,35.7056394,139.6320557
"
ヒロマルチェーン スリーエイト 永福北口店
",東京都杉並区和泉3-46-7,35.6798073,139.6461153
"
マクドナルド 20号桜上水店
",東京都杉並区下高井戸2-9-5,35.6687237,139.6353197
"
ローソン 和田三丁目店
",東京都杉並区和田3-14-1,35.6923498,139.6558383
"
ローソン 上荻一丁目店
",東京都杉並区上荻1-23-1,35.7066367,139.6170215
"
ローソン 井草三丁目店
",東京都杉並区井草3-22-10,35.7284606,139.6147123
"
ローソン 浜田山駅前店
",東京都杉並区浜田山3-30-3,35.6818588,139.6277398
"
ローソン 杉並区役所前店
",東京都杉並区阿佐谷南1-16-7,35.7004398,139.6359238
"
ローソン 阿佐ヶ谷駅南口店
",東京都杉並区阿佐谷南2-14-10,35.7043054,139.6371501
"
ローソン 上高井戸二丁目店
",東京都杉並区上高井戸2-18-20,35.6799822,139.6063027
"
ローソン 阿佐ヶ谷南三丁目店
",東京都杉並区阿佐谷南3-56-1,35.7047615,139.634467
"
ローソン 荻窪駅南口店
",東京都杉並区荻窪5-30-16,35.7042187,139.6219634
"
ローソン 高井戸陸橋店
",東京都杉並区上高井戸1-3-14,35.6716293,139.6137674
"
ローソン 荻窪駅西南店
",東京都杉並区荻窪5-26-9,35.703975,139.6189706
"
ローソン 西荻窪駅北店
",東京都杉並区西荻北2-3-7,35.704552,139.6008443
"
ローソン 高円寺南四丁目店
",東京都杉並区高円寺南4-6-10,35.7029536,139.6494472
"
ナチュラルローソン NL荻窪五丁目店
",東京都杉並区荻窪5-21-16,35.7031086,139.6213822
"
ナチュラルローソン 新高円寺駅前店
",東京都杉並区高円寺南2-19-4,35.6980553,139.6482276
"
ローソン 高円寺駅前店
",東京都杉並区高円寺北2-4-4,35.7058446,139.6505525
"
ローソン 下井草駅前店
",東京都杉並区井草1-8-7,35.7243431,139.6242504
"
ローソン 南荻窪四丁目店
",東京都杉並区南荻窪4-44-9,35.7040241,139.6134781
"
ローソン 杉並成田西三丁目店
",東京都杉並区成田西3-20-14,35.6904031,139.6216318
"
ローソン 杉並高井戸東二丁目店
",東京都杉並区高井戸東2-15-9,35.6809865,139.6150363
"
ローソン 杉並宮前一丁目店
",東京都杉並区宮前1-1-27,35.689686,139.613357
"
ローソン 杉並永福二丁目店
",東京都杉並区永福2-53-8,35.6761263,139.6421781
"
ローソン 西荻マイロード店
",東京都杉並区西荻南3-24-1,35.7039019,139.6021846
"
ローソン 阿佐谷青梅街道店
",東京都杉並区阿佐谷南3-13-4,35.7032815,139.6279003
"
ローソンストア100 LS阿佐ヶ谷北店
",東京都杉並区阿佐谷北2-13-14,35.7061204,139.6356919
"
ローソンストア100 LS西荻北店
",東京都杉並区西荻北2-26-3,35.7063898,139.6014737
"
ローソンストア100 LS芦花公園店
",東京都杉並区上高井戸1-18-8パークサイド118,35.6716349,139.6095518
"
ローソンストア100 LS杉並上井草三丁目店
",東京都杉並区上井草3-32-8メゾン第1上井草,35.7251272,139.6025623
"
ローソンストア100 LS杉並桃井店
",東京都杉並区桃井1-25-14ラ・カーサモモイ,35.71201870000001,139.6144907
"
ローソンストア100 LS杉並荻窪三丁目店
",東京都杉並区荻窪3-47-21,35.7030404,139.6273418
"
ローソンストア100 LS高井戸西店
",東京都杉並区高井戸西1-21-17,35.6836753,139.6074895
"
ローソンストア100 LS荻窪南口店
",東京都杉並区荻窪5-14-12,35.70346200000001,139.6173158
"
ローソンストア100 LS永福町店
",東京都杉並区和泉3-37-15グリーンハウス6ビル,35.6796143,139.6457273
"
ローソンストア100 高円寺北店
",東京都杉並区高円寺北1-5-3,35.7057183,139.6559837
"
ローソンストア100 LS高円寺南店
",東京都杉並区高円寺南2-4-3,35.69817920000001,139.6518091
"
ローソン 杉並荻窪三丁目店
",東京都杉並区荻窪3-14-8,35.6982396,139.6238011
"
ローソン 杉並本天沼1丁目店
",東京都杉並区本天沼1-3-1,35.71249299999999,139.6327143
"
ローソン 久我山駅南店
",東京都杉並区久我山3-23-16,35.6870828,139.5995626
"
ローソン ツルハドラッグ杉並和田店
",東京都杉並区和田1-11-2,35.6893718,139.662009
"
ローソン 杉並西荻北四丁目店
",東京都杉並区西荻北4-24-5,35.7080268,139.5925071
"
ローソン 杉並阿佐ヶ谷北一丁目店
",東京都杉並区阿佐谷北1-31-5,35.7084437,139.6360285
"
ローソン 杉並高円寺駅入口店
",東京都杉並区高円寺南4-52-1,35.705389,139.6543978
"
ローソン・スリーエフ 高円寺店
",東京都杉並区高円寺南4-23-7,35.7036978,139.650038
"
ファミリーマート 富士見ケ丘店
",東京都杉並区久我山5-25-9,35.6879902,139.6082999
"
ファミリーマート 阿佐谷北店
",東京都杉並区阿佐谷北3-13-12,35.710195,139.6339697
"
ファミリーマート 塚本西荻南店
",東京都杉並区西荻南2-7-10,35.7001165,139.5986144
"
ファミリーマート 上井草一丁目店
",東京都杉並区上井草1-32-7,35.7246836,139.612508
"
ファミリーマート 方南一丁目店
",東京都杉並区方南1-37-8,35.67849289999999,139.6609506
"
ファミリーマート 天沼三丁目店
",東京都杉並区天沼3-1-1,35.705394,139.6225742
"
ファミリーマート 梅里二丁目店
",東京都杉並区梅里2-14-2,35.695647,139.6447511
"
ファミリーマート 荻窪団地前店
",東京都杉並区荻窪1-47-8,35.695327,139.6248965
"
ファミリーマート 方南町駅前店
",東京都杉並区方南2-21-4,35.6836137,139.6573351
"
ファミリーマート 西荻女子大通り店
",東京都杉並区西荻北4-32-16,35.7090806,139.5940303
"
ファミリーマート 浜田山駅北店
",東京都杉並区高井戸東3-14-41,35.6832515,139.6257048
"
ファミリーマート 高円寺南三丁目店
",東京都杉並区高円寺南3-7-3,35.6979593,139.6444863
"
ファミリーマート 久我山駅北店
",東京都杉並区久我山5-8-19,35.6886057,139.6002254
"
ファミリーマート 永福町駅南店
",東京都杉並区永福2丁目50-15,35.6751194,139.6431768
"
ファミリーマート 高円寺陸橋店
",東京都杉並区高円寺南1-11-6,35.6981909,139.6550452
"
ファミリーマート 阿佐谷南三丁目店
",東京都杉並区阿佐谷南3-31-11,35.7024948,139.636064
"
ファミリーマート 成田西二丁目店
",東京都杉並区成田西2丁目13-24,35.69054029999999,139.6252991
"
ファミリーマート 上荻青梅街道店
",東京都杉並区上荻4丁目19-15,35.7110032,139.6061835
"
ファミリーマート 杉並堀ノ内三丁目店
",東京都杉並区堀ノ内3-2-15,35.6914242,139.6537306
"
ファミリーマート 高円寺駅東店
",東京都杉並区高円寺南4-50,35.7054413,139.6523034
"
ファミリーマート 松庵一丁目店
",東京都杉並区松庵1丁目16-19,35.6967229,139.5937532
"
ファミリーマート 杉並人見街道店
",東京都杉並区高井戸西2丁目17-17,35.6865499,139.6137099
"
ファミリーマート 東高円寺駅北口店
",東京都杉並区高円寺南1-7-3,35.6982995,139.6577289
"
ファミリーマート 阿佐谷北六丁目店
",東京都杉並区阿佐谷北6丁目17番1号,35.7134679,139.6374408
"
ファミリーマート 杉並松ノ木一丁目店
",東京都杉並区松ノ木1丁目6番27号,35.6884368,139.6414916
"
ファミリーマート 杉並宮前二丁目店
",東京都杉並区宮前2丁目23番12号,35.6941316,139.6148871
"
ファミリーマート 上井草駅東店
",東京都杉並区上井草2丁目37番11号,35.7247957,139.6052142
"
ファミリーマート 荻窪五丁目店
",東京都杉並区荻窪5丁目20番10号 ミカワヤビル,35.7027749,139.6200568
"
ファミリーマート 杉並宮前三丁目店
",東京都杉並区宮前3丁目26番10号,35.6965855,139.6096514
"
ファミリーマート 杉並成田東三丁目店
",東京都杉並区成田東3丁目1番2号,35.6945342,139.64121
"
ファミリーマート 高井戸西一丁目店
",東京都杉並区高井戸西1-4-16,35.6799176,139.6142711
"
ファミリーマート 荻窪駅北店
",東京都杉並区上荻1丁目9番1号,35.7051352,139.6197083
"
ファミリーマート 杉並浜田山四丁目店
",東京都杉並区浜田山4丁目5番11号,35.682026,139.632765
"
ファミリーマート 桜上水駅北店
",東京都杉並区下高井戸1丁目23番11号,35.66878030000001,139.6327836
"
ファミリーマート 下井草駅南口店
",東京都杉並区下井草2-44-4,35.7236513,139.625467
"
ファミリーマート 高円寺パル商店街店
",東京都杉並区高円寺南3丁目45-16,35.703105,139.6482815
"
ファミリーマート 朝日生命代田橋ビル店
",東京都杉並区和泉1丁目22-19 朝日生命代田橋ビル,35.67503,139.6589999
"
ファミリーマート 西荻窪駅南店
",東京都杉並区西荻南3丁目9-10,35.7031191,139.6000856
"
ファミリーマート 杉並上荻二丁目店
",東京都杉並区上荻2丁目15-23,35.7056742,139.6136687
"
ファミリーマート 荻窪青梅街道店
",東京都杉並区天沼3丁目3-2 マンション荻窪,35.7055256,139.6207248
"
ファミリーマート 杉並清水早稲田通り店
",東京都杉並区清水3丁目29-18,35.7190121,139.6167151
"
ファミリーマート 杉並下高井戸二丁目店
",東京都杉並区下高井戸2丁目5-2,35.6681251,139.6372591
"
ファミリーマート 杉並井草一丁目店
",東京都杉並区井草1丁目36番2号,35.7275691,139.6251388
"
ファミリーマート 阿佐ヶ谷駅北口店
",東京都杉並区阿佐谷北2-13-21,35.7059012,139.6360486
"
ファミリーマート 杉並阿佐谷中杉通り店
",東京都杉並区阿佐谷北1丁目42番10号,35.7095037,139.6359958
"
ファミリーマート 高円寺北三丁目店
",東京都杉並区高円寺北3-42-14,35.7100895,139.6479888
"
ファミリーマート 杉並桃井西店
",東京都杉並区桃井4丁目15番9号,35.7144796,139.6024773
"
ファミリーマート 堀ノ内三丁目水道通り店
",東京都杉並区堀ノ内3丁目12番1号,35.6915444,139.6501764
"
ファミリーマート 杉並阿佐谷南口店
",東京都杉並区阿佐谷南3丁目38-34,35.7040279,139.6345807
"
ファミリーマート 杉並宮前五丁目店
",東京都杉並区宮前5丁目21番20号,35.6962003,139.6009805
"
ファミリーマート 上井草駅前店
",東京都杉並区井草5丁目4-11宮ビル,35.7253819,139.6036375
"
ファミリーマート 杉並桃井店
",東京都杉並区桃井2丁目2-1,35.7106243,139.610419
"
ファミリーマート 東高円寺駅前店
",東京都杉並区和田3-56-13,35.6976759,139.658581
"
ファミリーマート 高円寺駅西店
",東京都杉並区高円寺北3丁目2番12号,35.7061381,139.6475658
"
ファミリーマート 西永福駅前店
",東京都杉並区永福3-55-1,35.6786237,139.6361399
"
ファミリーマート 杉並永福四丁目店
",東京都杉並区永福4丁目33番8号,35.6815692,139.6429618
"
ファミリーマート 杉並下井草一丁目店
",東京都杉並区下井草1丁目23-4 アメニティビルド5,35.7151243,139.6315
"
ファミリーマート 高円寺南店
",東京都杉並区高円寺南4丁目44番8号,35.705086,139.6509692
"
ファミリーマート 杉並方南町交差点前店
",東京都杉並区堀ノ内1丁目1番12号,35.6836974,139.6565215
"
ファミリーマート 阿佐谷北四丁目店
",東京都杉並区阿佐谷北4丁目22番9号,35.7132632,139.634586
"
ファミリーマート 杉並高円寺北店
",東京都杉並区高円寺北3-45-13,35.7096293,139.6495526
"
ファミリーマート 杉並和泉店
",東京都杉並区和泉4-48-17 鈴木ビル,35.683078,139.6554882
"
ファミリーマート 下高井戸店
",東京都杉並区下高井戸1丁目1番13,35.667186,139.6413585
"
ファミリーマート 高円寺梅里店
",東京都杉並区梅里1丁目8-12,35.697712,139.6496324
"
ファミリーマート 杉並本天沼三丁目店
",東京都杉並区本天沼3-43-10,35.7178704,139.6223675
"
ファミリーマート 荻窪教会通り店
",東京都杉並区天沼3-26-15 サンパレス,35.7073568,139.6198484
"
ファミリーマート 高円寺中通店
",東京都杉並区高円寺北4-17-12,35.7072045,139.6454855
"
ファミリーマート 高円寺純情商店街店
",東京都杉並区高円寺北3丁目24-13,35.7068591,139.6496386
"
ファミリーマート 杉並堀の内店
",東京都杉並区堀ノ内2丁目1-42,35.6866798,139.6556794
"
ファミリーマート 西荻北三丁目店
",東京都杉並区西荻北3丁目21番8号ルフォンリブレ西荻窪1F,35.7052206,139.6002908
"
ファミリーマート 永福一丁目店
",東京都杉並区永福1-7-9,35.6699101,139.6424051
"
ファミリーマート 久我山駅南店
",東京都杉並区久我山3丁目24-17,35.6874008,139.5995953
"
ファミリーマート 杉並富士見ヶ丘駅前店
",東京都杉並区久我山2丁目25-19,35.6844522,139.6076288
"
ファミリーマート 杉並成田東五丁目店
",東京都杉並区成田東5丁目17-15,35.7015517,139.6298314
"
ファミリーマート 杉並下高井戸四丁目店
",東京都杉並区下高井戸4丁目5-2,35.6701831,139.6282728
"
コミュニティ・ストア K-SHOP 久我山店
",東京都杉並区久我山4-1-11 久我山駅ビル3F,35.6881714,139.5993681
"
コミュニティ・ストア K-SHOP高井戸店
",東京都杉並区高井戸西2-1-26,35.6835464,139.6141323
"
コミュニティ・ストア K-SHOP永福町店
",東京都杉並区永福2-60-31,35.6761313,139.6432166
"
ミニストップ 杉並和泉町店
",東京都杉並区和泉2-21-37,35.6726452,139.651348
"
ミニストップ 上井草店
",東京都杉並区上井草2-1-1,35.7192479,139.6106431
"
ミニストップ 高井戸東3丁目店
",東京都杉並区高井戸東3-28-26,35.6880503,139.6175029
"
ミニストップ 高円寺南2丁目店
",東京都杉並区高円寺南2-14-13,35.699488,139.6494956
"
ミニストップ 杉並成田西店
",東京都杉並区成田西3-2-7グリ-ンパレス1F,35.6918587,139.6325716
"
ミニストップ 南荻窪3丁目店
",東京都杉並区南荻窪3-34-1,35.70408159999999,139.60946
"
ミニストップ 永福町駅前店
",東京都杉並区和泉3-5-4,35.6762833,139.6441058
"
ミニストップ 杉並和田店
",東京都杉並区和田1-10-12,35.688682,139.661651
"
ミニストップ 杉並消防署前店
",東京都杉並区成田東5丁目35-14,35.6999826,139.633413
"
セブンイレブン 杉並和田3丁目東店
",東京都杉並区和田3-61-8,35.6973692,139.6612748
"
セブンイレブン 杉並和田3丁目店
",東京都杉並区和田3-57-7,35.6977041,139.6588582
"
セブンイレブン 高円寺青梅街道店
",東京都杉並区高円寺南2-11-3,35.6981571,139.6505778
"
セブンイレブン 荻窪四面道東店
",東京都杉並区清水1-13-7,35.7084232,139.6161051
"
セブンイレブン 浜田山鎌倉街道店
",東京都杉並区浜田山3-21-3,35.6814606,139.6295325
"
セブンイレブン 杉並日大二高店
",東京都杉並区天沼2-43-18,35.71139160000001,139.6256197
"
セブンイレブン 西荻北店
",東京都杉並区西荻北4-1-19,35.7059587,139.5960083
"
セブンイレブン 杉並桃井1丁目店
",東京都杉並区桃井1-5-2,35.7100601,139.6116264
"
セブンイレブン 杉並井草2丁目店
",東京都杉並区井草2-19-8,35.7270951,139.6203354
"
セブンイレブン 永福北口店
",東京都杉並区和泉3-31-5,35.6785836,139.6455663
"
セブンイレブン 西荻南2丁目店
",東京都杉並区西荻南2-3-2,35.6975821,139.5992297
"
セブンイレブン 西荻窪駅北口店
",東京都杉並区西荻北3-1-10,35.7040158,139.5995583
"
セブンイレブン 杉並西永福駅前店
",東京都杉並区永福3ー35ー5,35.6783201,139.6353225
"
セブンイレブン 杉並荻窪5丁目店
",東京都杉並区荻窪5-30-17,35.703919,139.6221996
"
セブンイレブン 杉並堀ノ内2丁目店
",東京都杉並区堀ノ内2-13-11,35.6889017,139.6548813
"
セブンイレブン 杉並天沼通り店
",東京都杉並区本天沼3丁目-5-1,35.7107615,139.6211374
"
セブンイレブン 杉並阿佐谷北1丁目店
",東京都杉並区阿佐谷北1-44-7,35.7096709,139.6345368
"
セブンイレブン 都立西高前店
",東京都杉並区宮前4-19-10,35.6929175,139.6039412
"
セブンイレブン 杉並清水3丁目店
",東京都杉並区清水3-31-15,35.7190231,139.6148151
"
セブンイレブン 阿佐谷北仲通り店
",東京都杉並区阿佐ヶ谷北2丁目9-12,35.7056394,139.6320557
"
セブンイレブン 荻窪天沼小南店
",東京都杉並区上荻1-18-13,35.7061395,139.6179152
"
セブンイレブン 西荻神明通り店
",東京都杉並区西荻南1-22-11,35.70072529999999,139.6025456
"
セブンイレブン 杉並荻窪駅北口店
",東京都杉並区上荻1-13-3,35.7049563,139.617813
"
セブンイレブン 阿佐谷駅南口店
",東京都杉並区阿佐谷南3-35-8,35.7039162,139.6359888
"
セブンイレブン 高円寺中通商店街店
",東京都杉並区高円寺北3-2-14,35.7059657,139.6478391
"
セブンイレブン 久我山5丁目店
",東京都杉並区久我山5-24-35,35.6864548,139.6081371
"
セブンイレブン 杉並荻窪藤澤ビルディング店
",東京都杉並区荻窪4丁目30-16,35.7039478,139.6237293
"
セブンイレブン 杉並桃井4丁目店
",東京都杉並区桃井4-13-11,35.7145054,139.6041368
"
セブンイレブン 杉並成田東1丁目店
",東京都杉並区成田東1丁目32-12,35.6920788,139.6376667
"
セブンイレブン 杉並成田東4丁目店
",東京都杉並区成田東4丁目34-15,35.6981667,139.6384419
"
セブンイレブン 西荻北5丁目店
",東京都杉並区西荻北5-7-18,35.7087034,139.6016501
"
セブンイレブン 杉並高井戸西店
",東京都杉並区高井戸西3ー1ー4,35.6867041,139.6156834
"
セブンイレブン 浜田山メインロード店
",東京都杉並区浜田山3-35-38,35.6842972,139.627269
"
セブンイレブン 杉並高井戸東4丁目店
",東京都杉並区高井戸東4-3-9,35.6875205,139.6199513
"
セブンイレブン 阿佐谷北店
",東京都杉並区阿佐谷北1-14-1,35.7075089,139.6394458
"
セブンイレブン 井荻駅北口店
",東京都杉並区井草3-6-3,35.7250383,139.6145851
"
セブンイレブン 杉並和田1丁目店
",東京都杉並区和田1丁目16-16,35.6907255,139.6652445
"
セブンイレブン 杉並西永福駅北店
",東京都杉並区大宮2-14-37,35.6803055,139.636252
"
セブンイレブン 杉並高井戸駅前店
",東京都杉並区高井戸西1-29-2,35.6828976,139.6151826
"
セブンイレブン 杉並上井草3丁目店
",東京都杉並区上井草3-9-1,35.7183568,139.6017826
"
セブンイレブン 南阿佐谷駅前店
",東京都杉並区成田東5-42-14,35.6992999,139.6353616
"
セブンイレブン 杉並宮前3丁目店
",東京都杉並区宮前3-23-13,35.695895,139.6114828
"
セブンイレブン 荻窪駅前店
",東京都杉並区荻窪5ー16,35.70386939999999,139.6176376
"
セブンイレブン 杉並天沼店
",東京都杉並区本天沼2-43-11,35.7164571,139.6268962
"
セブンイレブン 杉並大宮店
",東京都杉並区堀ノ内1-14-2,35.6830262,139.6474425
"
セブンイレブン 杉並和田店
",東京都杉並区和田2-43-11,35.6922085,139.655994
"
セブンイレブン 方南店
",東京都杉並区方南2-20-15,35.6839126,139.6585768
"
セブンイレブン 東高円寺店
",東京都杉並区高円寺南1-33-1,35.701107,139.6568505
"
セブンイレブン 高円寺駅前店
",東京都杉並区高円寺南4-26-5,35.7042753,139.6493014
"
セブンイレブン 下井草店
",東京都杉並区下井草3-38-11,35.7236647,139.6235208
"
セブンイレブン 高円寺ルック店
",東京都杉並区高円寺南2-20-7,35.6983881,139.6478235
"
セブンイレブン 阿佐谷北5丁目店
",東京都杉並区阿佐谷北5ー42ー11,35.7125285,139.6396233
"
セブンイレブン 高円寺北店
",東京都杉並区高円寺北4-40-8,35.7107758,139.64574
"
セブンイレブン 杉並上荻1丁目店
",東京都杉並区上荻1ー5ー8,35.7050718,139.6219604
"
セブンイレブン 新高円寺駅前店
",東京都杉並区梅里1-7-7-103,35.6972122,139.6488374
"
セブンイレブン 杉並堀ノ内1丁目店
",東京都杉並区堀ノ内1ー5ー1,35.6833299,139.6554256
"
セブンイレブン 高円寺純情商店街店
",東京都杉並区高円寺北3-22-14,35.7061374,139.6494684
"
セブンイレブン 西荻北2丁目店
",東京都杉並区西荻北2-5-11,35.7042775,139.6016375
"
セブンイレブン 善福寺店
",東京都杉並区善福寺1-2-31,35.7115915,139.6013916
"
セブンイレブン 久我山3丁目店
",東京都杉並区久我山3-1-29,35.6845787,139.5979031
"
セブンイレブン 杉並高円寺北1丁目店
",東京都杉並区高円寺北1-17-5,35.7072533,139.6547777
"
セブンイレブン 阿佐谷北6丁目店
",東京都杉並区阿佐谷北6-30-9,35.716466,139.6361486
"
セブンイレブン 八幡山駅北口店
",東京都杉並区上高井戸1-8-29,35.6703534,139.616276
"
セブンイレブン 和泉店
",東京都杉並区和泉4-1-20,35.6789612,139.6569941
"
セブンイレブン 杉並浜田山3丁目店
",東京都杉並区浜田山3-27-12,35.6834651,139.6281547
"
セブンイレブン 杉並馬橋通り店
",東京都杉並区阿佐谷南2-31-12,35.7040165,139.6439531
"
セブンイレブン インテグラルタワー荻窪店
",東京都杉並区上荻1丁目2-1,35.7048236,139.6228747
"
セブンイレブン 杉並方南町駅前店
",東京都杉並区方南2-13-10,35.6835005,139.6586822
"
セブンイレブン 杉並永福町駅前店
",東京都杉並区永福4-1-5,35.6767115,139.6433419
"
セブンイレブン 杉並天沼2丁目店
",東京都杉並区天沼2-17-7,35.7070951,139.6235214
"
セブンイレブン 方南1丁目店
",東京都杉並区方南1丁目12-14,35.6761555,139.6618152
"
セブンイレブン 杉並高円寺北2丁目店
",東京都杉並区高円寺北2-12-3,35.7066661,139.6519991
"
セブンイレブン 高井戸東五日市街道店
",東京都杉並区高井戸東4-13-5,35.6899584,139.6200513
"
セブンイレブン 杉並芦花公園店
",東京都杉並区上高井戸1-20-9,35.6716215,139.6090998
"
セブンイレブン 高円寺駅東店
",東京都杉並区高円寺北2-3-4,35.7056557,139.6512924
"
セブンイレブン 杉並天沼3丁目店
",東京都杉並区天沼3-6-6,35.7063868,139.6185191
"
セブンイレブン 杉並下高井戸5丁目店
",東京都杉並区下高井戸5丁目2-18,35.6711065,139.6255036
"
セブンイレブン 西荻窪駅南店
",東京都杉並区松庵3-38-19,35.7027313,139.5995995
"
セブンイレブン 杉並阿佐谷南1丁目店
",東京都杉並区阿佐谷南1丁目48番15号,35.7037187,139.6367109
"
セブンイレブン 杉並堀ノ内3丁目店
",東京都杉並区堀ノ内3-5-14,35.6915986,139.6519027
"
セブンイレブン 杉並高円寺南2丁目店
",東京都杉並区高円寺南2-49-18,35.7019876,139.6494096
"
セブンイレブン 杉並西荻南3丁目店
",東京都杉並区西荻南3-22-1,35.7038133,139.6047526
"
セブンイレブン 桜上水駅北店
",東京都杉並区下高井戸3-1-5,35.6694367,139.633232
"
セブンイレブン 杉並井荻店
",東京都杉並区下井草5-18-15,35.7243138,139.614853
"
セブンイレブン 荻窪桃二小南店
",東京都杉並区荻窪5-1-17,35.7000986,139.6173815
"
セブンイレブン 杉並甲州街道店
",東京都杉並区方南1-1-6,35.6729017,139.6606654
"
セブンイレブン 杉並久我山3の西店
",東京都杉並区久我山3丁目8-7,35.6863146,139.5919157
"
セブンイレブン 久我山2丁目店
",東京都杉並区久我山2-13-14,35.6856606,139.599476
"
デイリーヤマザキ 高円寺環七通り店
",東京都杉並区高円寺南5-44-1,35.7054676,139.6558117
"
デイリーヤマザキ 杉並和泉店
",東京都杉並区和泉2-27-27,35.6733034,139.6555668
"
デイリーヤマザキ 浜田山駅前店
",東京都杉並区浜田山3-32-4,35.6819579,139.6268247
"
デイリーヤマザキ 西荻南店
",東京都杉並区西荻南3-7-10,35.7029049,139.6011336
"
デイリーヤマザキ 松庵3丁目店
",東京都杉並区松庵3-11-6,35.6999044,139.5954581
