Name,Address,lat,lon
"
NEWDAYS(ニューデイズ) 駒込2号店
",東京都豊島区駒込2-1-1 JR駒込駅北口改札外正面,35.736245,139.747215
"
NEWDAYS(ニューデイズ) 池袋中央南店
",東京都豊島区南池袋1 JR池袋駅 改札内 南口コンコース,35.7295028,139.7109001
"
NEWDAYS(ニューデイズ) 池袋西口店
",東京都豊島区南池袋1 池袋駅構内中央通路西口階段脇,35.7295028,139.7109001
"
NEWDAYS(ニューデイズ) 池袋北口店
",東京都豊島区南池袋1 池袋駅改札外北通路,35.7295028,139.7109001
"
NEWDAYS(ニューデイズ) 池袋15号店
",東京都豊島区南池袋1 池袋駅1・2番線ホーム内(赤羽方面),35.7295028,139.7109001
"
NEWDAYS(ニューデイズ) 目白店
",東京都豊島区目白3 目白駅改札内コンコース,35.7212199,139.7066115
"
NEWDAYS(ニューデイズ) 駒込店
",東京都豊島区駒込2-1-39 ホテルメッツ駒込1F,35.7362431,139.7472006
"
NEWDAYSMINI(ニューデイズミニ) 巣鴨4号店
",東京都豊島区巣鴨1-16-1 巣鴨駅ホーム内(駒込方面),35.7334192,139.7392848
"
NEWDAYS(ニューデイズ) 巣鴨店
",東京都豊島区巣鴨1-16-1 巣鴨駅改札正面,35.7334192,139.7392848
"
NEWDAYS(ニューデイズ) 大塚店
",東京都豊島区南大塚3-33 大塚駅改札内正面,35.7318309,139.7281112
"
ローソン LTF 北池袋駅前
",東京都豊島区池袋本町1-37-9,35.7413585,139.7164637
"
ポプラ 面影橋店
",東京都豊島区高田1-25-2,35.7148944,139.7159428
"
ポプラ 鬼子母神店
",東京都豊島区雑司ヶ谷2-8-3,35.7198688,139.7152862
"
Z-ONE越中屋
",東京都豊島区巣鴨4-32-2,35.7385115,139.731294
"
ヒロマルチェーンスリーエイト面影橋店
",東京都豊島区高田1-25-2,35.7148944,139.7159428
"
有限会社大菱屋
",東京都豊島区駒込7-17-6,35.7419283,139.740565
"
ローソン 池袋二丁目店
",東京都豊島区池袋2-55-7,35.7343169,139.7078361
"
ローソン 西池袋店
",東京都豊島区西池袋3-25-15,35.7298645,139.7072426
"
ローソン 東池袋店
",東京都豊島区東池袋1-31-10,35.7323131,139.7164051
"
ローソン 雑司が谷店
",東京都豊島区雑司が谷3-11-4,35.7230231,139.71222
"
ローソン 東池袋三丁目店
",東京都豊島区東池袋3-7-8,35.7330187,139.7170443
"
ローソン 西巣鴨駅前店
",東京都豊島区西巣鴨4-13-1,35.7440596,139.7285382
"
ローソン 南大塚三丁目店
",東京都豊島区南大塚3-32-6,35.7314355,139.7269483
"
ローソン 駒込一丁目店
",東京都豊島区駒込1-24-9,35.7361685,139.7501559
"
ローソン 西池袋二丁目店
",東京都豊島区西池袋2-41-8,35.7273257,139.7088318
"
ナチュラルローソン 目白三丁目店
",東京都豊島区目白3-4-14,35.721667,139.7061004
"
ローソン 長崎四丁目店
",東京都豊島区長崎4-11-12,35.7299413,139.6845644
"
ローソン 南池袋二丁目店
",東京都豊島区南池袋2-13-8,35.7262157,139.7133231
"
ローソン 池袋一丁目店
",東京都豊島区池袋1-2-5,35.7341156,139.7117761
"
ローソン 巣鴨一丁目店
",東京都豊島区巣鴨1-18-11,35.7322418,139.7395699
"
ローソン 大塚駅南口店
",東京都豊島区南大塚3-53-11,35.7305077,139.7288437
"
ローソン 池袋二丁目文化通店
",東京都豊島区池袋2-47-5,35.7335923,139.7109522
"
ローソン 駒込駅前店
",東京都豊島区駒込1-43-11,35.7359142,139.7465945
"
ローソン 巣鴨四丁目店
",東京都豊島区巣鴨4-17-12,35.7371655,139.7325051
"
ナチュラルローソン NL北大塚一丁目店
",東京都豊島区北大塚1-13-4,35.7316817,139.731702
"
ローソン 椎名町駅前店
",東京都豊島区南長崎1-25-26,35.7259642,139.6950286
"
ローソン 南池袋一丁目店
",東京都豊島区南池袋1-17-2,35.727001,139.7115161
"
ローソン 池袋駅東店
",東京都豊島区東池袋1-29-5,35.7305123,139.7162275
"
ナチュラルローソン エソラ池袋店
",東京都豊島区西池袋1-12-1,35.7297481,139.7096932
"
ローソン Echika池袋店
",東京都豊島区西池袋3-28-14,35.7315137,139.7080618
"
ローソンストア100 LS池袋要町店
",東京都豊島区要町1-13-12,35.73424430000001,139.6995572
"
ローソンストア100 LS大塚北口店
",東京都豊島区北大塚3-27-10,35.7354895,139.7248416
"
ローソンストア100 LS東池袋二丁目店
",東京都豊島区東池袋2-1-12,35.7296685,139.7248983
"
ローソンストア100 LS池袋二丁目店
",東京都豊島区池袋2-61-7,35.7350022,139.7098073
"
ローソンストア100 LS北大塚店
",東京都豊島区北大塚1-33-22,35.7335764,139.7301631
"
ローソンストア100 LS池袋西口店
",東京都豊島区池袋2-59-2クレール池袋,35.7345194,139.708649
"
ローソンストア100 LS南大塚店
",東京都豊島区南大塚3-53-7中根・橋本ビル,35.7306325,139.7285403
"
ローソンストア100 LS上池袋店
",東京都豊島区上池袋2-39-10,35.7361373,139.7192353
"
ローソンストア100 LS南池袋三丁目店
",東京都豊島区南池袋3-7-8,35.7235399,139.7123343
"
ローソンストア100 池袋本町一丁目店
",東京都豊島区池袋本町1-46-3,35.7402646,139.7124266
"
ローソン メトロス池袋南西口店
",東京都豊島区西池袋1-12-1,35.7297481,139.7096932
"
ローソン 豊島西池袋五丁目店
",東京都豊島区西池袋5-18-11,35.7326633,139.7015657
"
ローソンストア100 千川駅前店
",東京都豊島区要町3-11-9,35.7380393,139.6892139
"
ローソン 立教大学セントポールプラザ店
",東京都豊島区西池袋5-10-5,35.7315039,139.7035832
"
ローソン 新大塚駅前店
",東京都豊島区南大塚3-1-1,35.7261938,139.7296855
"
ファミリーマート 東池袋一丁目店
",東京都豊島区東池袋1-26-4,35.7291864,139.7162594
"
ファミリーマート サンシャイン南店
",東京都豊島区東池袋4-26-1,35.7281629,139.7186079
"
ファミリーマート 丸萬椎名町北口店
",東京都豊島区長崎1-18-11,35.7289518,139.6935408
"
ファミリーマート ダイヤゲート池袋店
",東京都豊島区南池袋1丁目16-15,35.7266628,139.7111094
"
ファミリーマート ピソ池袋店
",東京都豊島区池袋2-62-1,35.7346983,139.7104818
"
ファミリーマート 池袋駅東店
",東京都豊島区東池袋1-7-12,35.7313867,139.7139717
"
ファミリーマート 池袋グリーン大通り店
",東京都豊島区東池袋1-12-3常陽銀行池袋ビル,35.7288706,139.7148339
"
ファミリーマート 池袋東口店
",東京都豊島区東池袋1-39-15,35.7327356,139.7145124
"
ファミリーマート シンヤ雑司が谷店
",東京都豊島区雑司が谷2-3-2新家ビル,35.7180178,139.7160501
"
ファミリーマート 南池袋パーク通り店
",東京都豊島区南池袋2-26-7,35.7280225,139.7133421
"
ファミリーマート 巣鴨三丁目店
",東京都豊島区巣鴨3-24-11,35.7331389,139.7373145
"
ファミリーマート サンシャイン通り南店
",東京都豊島区東池袋1-13-11,35.7295445,139.7152175
"
ファミリーマート 池袋北口店
",東京都豊島区西池袋1-43-7,35.733033,139.7110279
"
ファミリーマート 東池袋明治通り店
",東京都豊島区東池袋1-35-3,35.73289,139.7152606
"
ファミリーマート 西池袋三丁目店
",東京都豊島区西池袋3-1-13,35.7288526,139.706748
"
ファミリーマート サンシャインシティ店
",東京都豊島区東池袋3-1-1サンシャインシティアルパ2F,35.7296714,139.7182159
"
ファミリーマート 西池袋一丁目店
",東京都豊島区西池袋1-22-2ナカヤビル,35.7317482,139.7095766
"
ファミリーマート 目白南店
",東京都豊島区高田3-31-5,35.7171497,139.7058571
"
ファミリーマート サンシャイン西店
",東京都豊島区東池袋3丁目3番2号,35.7295311,139.7171387
"
ファミリーマート 巣鴨地蔵通り店
",東京都豊島区巣鴨3-34-1,35.7352339,139.7360669
"
ファミリーマート 丸萬椎名町駅前店
",東京都豊島区長崎1丁目2-7,35.726929,139.694444
"
ファミリーマート 駒込三丁目店
",東京都豊島区駒込3-4-3,35.7361592,139.7450532
"
ファミリーマート 西武東長崎駅前店
",東京都豊島区長崎5-1-34東長崎西武ビル,35.7304885,139.6831213
"
ファミリーマート 池袋二丁目店
",東京都豊島区池袋2-60-6,35.7347156,139.7090782
"
ファミリーマート 要町駅前店
",東京都豊島区西池袋5-24-9,35.7327035,139.7003674
"
ファミリーマート 高田三丁目店
",東京都豊島区高田3-21-8,35.7146674,139.709814
"
ファミリーマート 京王プレッソイン池袋店
",東京都豊島区南池袋2-29-11,35.7278084,139.7155803
"
ファミリーマート サンシャインCPH店
",東京都豊島区東池袋3丁目1-5サンシャインシティプリンスホテル内1階,35.7294678,139.7194869
"
ファミリーマート 南池袋一丁目店
",東京都豊島区南池袋1-25-1アソルティ南池袋,35.7284225,139.7131374
"
ファミリーマート 駒込本郷通り店
",東京都豊島区駒込3-23,35.738442,139.7458034
"
ファミリーマート 巣鴨一丁目店
",東京都豊島区巣鴨1-20-9巣鴨ファーストビル,35.7313274,139.7407137
"
ファミリーマート 巣鴨駅前店
",東京都豊島区巣鴨3-28-9桃花源ビル,35.7335746,139.7379196
"
ファミリーマート サウス池袋店
",東京都豊島区南池袋1-23-6KDG池袋ビル,35.7290482,139.712717
"
ファミリーマート 東長崎駅南店
",東京都豊島区南長崎5-24,35.7297651,139.6821244
"
ファミリーマート 西池袋四丁目店
",東京都豊島区西池袋4丁目13番7号,35.7283509,139.6992609
"
ファミリーマート 豊島高松一丁目店
",東京都豊島区高松1丁目1-11 東京ファーストシティ,35.7352288,139.7002709
"
ファミリーマート 西池袋一番街店
",東京都豊島区西池袋1丁目24-4 いわたビル,35.731958,139.710352
"
ファミリーマート 要町駅南店
",東京都豊島区要町1丁目1番11号 KTビル,35.7329651,139.6988554
"
ファミリーマート 東池袋春日通り店
",東京都豊島区東池袋3-23-22パークタワー池袋イーストプレイス,35.7303279,139.7222948
"
ファミリーマート 豊島高田一丁目店
",東京都豊島区高田1丁目16-1,35.7138476,139.7173908
"
ファミリーマート 南池袋東通り店
",東京都豊島区南池袋2丁目15-12,35.726556,139.7123465
"
ファミリーマート 目白二丁目店
",東京都豊島区目白2丁目39-1,35.7214974,139.7074521
"
ファミリーマート 西池袋店
",東京都豊島区池袋2丁目78-2,35.7367272,139.7100972
"
ファミリーマート 南長崎五丁目店
",東京都豊島区南長崎5丁目1-1,35.7258954,139.6825542
"
ファミリーマート 巣鴨スポーツセンター前店
",東京都豊島区巣鴨2丁目4-9,35.7348012,139.7393059
"
ファミリーマート ミヤモトドラッグ南池袋店
",東京都豊島区南池袋2-32-1,35.7261147,139.7149057
"
ファミリーマート 豊島池袋三丁目店
",東京都豊島区池袋3丁目37番-12,35.7369815,139.7056668
"
ファミリーマート 上池袋三丁目店
",東京都豊島区上池袋3丁目1番1号ヴィア・シテラ・東京,35.7368896,139.7201201
"
ファミリーマート 豊島長崎三丁目店
",東京都豊島区長崎3丁目14-17,35.7294012,139.6885887
"
ファミリーマート としまエコミューゼタウン店
",東京都豊島区南池袋2丁目45番3号1F,35.7257916,139.7168169
"
ファミリーマート 丸萬千川駅前店
",東京都豊島区要町3丁目2-13,35.7370566,139.6900886
"
ファミリーマート 南大塚三丁目店
",東京都豊島区南大塚3丁目48番3,35.730399,139.7272676
"
ファミリーマート 中池袋公園前店
",東京都豊島区東池袋1-15-10,35.7312314,139.715171
"
ファミリーマート 豊島南池袋三丁目店
",東京都豊島区南池袋3丁目1番10号,35.7220591,139.7160055
"
ファミリーマート 駒込六丁目店
",東京都豊島区駒込6-34-1,35.7409372,139.743495
"
ファミリーマート 豊島千早一丁目店
",東京都豊島区千早1丁目12ー12,35.73171120000001,139.6954392
"
ファミリーマート 南大塚通り店
",東京都豊島区南大塚3-43-1,35.7285381,139.7290185
"
ファミリーマート 千川駅北店
",東京都豊島区要町3丁目38-4,35.7382047,139.6900432
"
ファミリーマート 大塚駅前店
",東京都豊島区北大塚1丁目16-7,35.7318098,139.7299008
"
ファミリーマート 池袋大橋東店
",東京都豊島区東池袋1丁目44-8パークサイドビル,35.73339920000001,139.713971
"
ファミリーマート 東池袋三丁目店
",東京都豊島区東池袋3-12-12,35.7314553,139.7186641
"
ファミリーマート 池袋ロイヤルホテル店
",東京都豊島区池袋2丁目42-4,35.7336386,139.7097714
"
ファミリーマート 大塚駅南口店
",東京都豊島区南大塚2丁目42-6,35.7302487,139.7293598
"
ファミリーマート 南池袋公園前店
",東京都豊島区南池袋2丁目23-2,35.7274992,139.7135545
"
ファミリーマート 東池袋二丁目店
",東京都豊島区東池袋2丁目38-23 SAMビル,35.7312592,139.7215848
"
ファミリーマート 上池袋店
",東京都豊島区上池袋4-9-1,35.7390544,139.7225058
"
ファミリーマート 北大塚店
",東京都豊島区北大塚1-20-2,35.7325688,139.7311712
"
ファミリーマート 立教通り店
",東京都豊島区西池袋3丁目29-7,35.7312101,139.7062365
"
ファミリーマート 北大塚二丁目店
",東京都豊島区北大塚2丁目8-11,35.7333741,139.7269249
"
ファミリーマート 豊島要町二丁目店
",東京都豊島区要町2丁目31-6,35.7364131,139.6923868
"
ファミリーマート 南大塚店
",東京都豊島区南大塚1-49-4,35.7296128,139.7311602
"
ファミリーマート 中池袋公園北店
",東京都豊島区東池袋1-17-3,35.7318904,139.7149029
"
ファミリーマート 下板橋駅前店
",東京都豊島区池袋本町4丁目43-12,35.7457607,139.7149576
"
ファミリーマート 池袋北口駅前店
",東京都豊島区西池袋1-29-5,35.7321394,139.7111291
"
ファミリーマート 大塚空蝉橋店
",東京都豊島区南大塚3丁目30-6,35.7316594,139.7258059
"
ファミリーマート 池袋西口駅前店
",東京都豊島区西池袋1-13-1,35.7299292,139.7098745
"
ファミリーマート 東池袋四丁目店
",東京都豊島区東池袋4丁目29番12号,35.7273485,139.7205153
"
ファミリーマート 池袋東口明治通り店
",東京都豊島区南池袋1丁目19番6号オリックス池袋ビル,35.7278449,139.7122796
"
ファミリーマート 目白駅西店
",東京都豊島区目白3丁目14番8号 つるやビル,35.7224621,139.7061697
"
ファミリーマート 南池袋二丁目店
",東京都豊島区南池袋2丁目12番5号 英ビル,35.72584519999999,139.7133726
"
ファミリーマート 駒込駅北店
",東京都豊島区駒込2丁目3-1,35.7372567,139.7466544
"
ファミリーマート 池袋本町一丁目店
",東京都豊島区池袋本町1丁目20-5山屋マンション1F,35.7398918,139.7115415
"
ファミリーマート 西巣鴨三丁目店
",東京都豊島区西巣鴨3丁目15番,35.7418427,139.729997
"
ファミリーマート トモニー東長崎駅店
",東京都豊島区長崎5-1-1,35.7301,139.6832908
"
ファミリーマート トモニー池袋駅B店
",東京都豊島区南池袋1-28-1,35.7276913,139.7115056
"
ファミリーマート トモニー池袋駅A2号店
",東京都豊島区南池袋1丁目28-1,35.7276913,139.7115056
"
ファミリーマート トモニー池袋駅B2号店
",東京都豊島区南池袋1丁目28-1,35.7276913,139.7115056
"
ファミリーマート 西巣鴨駅東店
",東京都豊島区西巣鴨4丁目17-2,35.7442862,139.7298404
"
ファミリーマート 椎名町駅南口店
",東京都豊島区南長崎1-25-12,35.7264748,139.6936854
"
ファミリーマート いずみや高田店
",東京都豊島区高田3-19-6,35.7148852,139.7076546
"
ファミリーマート 池袋駅西店
",東京都豊島区西池袋1-4-10,35.728321,139.7089812
"
ファミリーマート 豊島要町店
",東京都豊島区要町1丁目11-1,35.7334586,139.6990364
"
ファミリーマート 東池袋セイコービル店
",東京都豊島区東池袋1丁目30-6,35.7314689,139.7162933
"
ファミリーマート 第一イン池袋店
",東京都豊島区東池袋1丁目42-8,35.7321146,139.712918
"
ファミリーマート 東池袋店
",東京都豊島区東池袋3丁目15-2,35.7309048,139.7181031
"
ファミリーマート 目白三丁目店
",東京都豊島区目白3丁目4-18,35.72134,139.7062716
"
ファミリーマート 大塚駅北口店
",東京都豊島区北大塚2丁目15-6,35.7326599,139.7289587
"
ファミリーマート 豊島南大塚一丁目店
",東京都豊島区南大塚1丁目50-15,35.730083,139.7320782
"
ファミリーマート 西池袋五丁目店
",東京都豊島区西池袋5丁目14-8,35.73272910000001,139.7028566
"
ファミリーマート 豊島駒込店
",東京都豊島区駒込1丁目3-3,35.7339969,139.7482866
"
ファミリーマート 西巣鴨店
",東京都豊島区西巣鴨3丁目27-1,35.7441597,139.7276991
"
コミュニティ・ストア 豊島 巣鴨店
",東京都豊島区巣鴨1-40-3,35.7312088,139.7361652
"
ミニストップ 上池袋店
",東京都豊島区上池袋4-3-5,35.7398099,139.7212432
"
ミニストップ 千早町4丁目店
",東京都豊島区千早町4-1-3,35.7361142,139.6837104
"
ミニストップ 要町3丁目店
",東京都豊島区要町3-46-12,35.7397621,139.6889766
"
ミニストップ 北大塚1丁目店
",東京都豊島区北大塚1-18-11,35.7326418,139.7303601
"
ミニストップ 南大塚2丁目店
",東京都豊島区南大塚2丁目26番15号,35.728166,139.7297508
"
ミニストップ 西池袋5丁目店
",東京都豊島区西池袋5丁目5-21,35.7318876,139.7051384
"
ミニストップ 南池袋2丁目店
",東京都豊島区南池袋2-3-1,35.7244194,139.7170608
"
セブンイレブン 豊島千早1丁目店
",東京都豊島区千早1-17-5,35.7315245,139.6969879
"
セブンイレブン 池袋本町店
",東京都豊島区池袋本町3-16-5,35.7440635,139.7103128
"
セブンイレブン 豊島南池袋1丁目店
",東京都豊島区南池袋1丁目26番2号,35.7288738,139.7135824
"
セブンイレブン 西池袋二又店
",東京都豊島区西池袋5-2-12,35.7315971,139.706118
"
セブンイレブン 豊島高松1丁目店
",東京都豊島区高松1-14-6,35.7363367,139.6993472
"
セブンイレブン 豊島地蔵通り店
",東京都豊島区巣鴨3-38-1,35.7359137,139.7348084
"
セブンイレブン 東池袋1丁目店
",東京都豊島区東池袋1-23-9,35.72921890000001,139.7159752
"
セブンイレブン 豊島東池袋5丁目店
",東京都豊島区東池袋5-8-17,35.7251162,139.7209593
"
セブンイレブン 豊島巣鴨新田店
",東京都豊島区西巣鴨1-22-6,35.7366337,139.7267265
"
セブンイレブン 7FS西武池袋店
",東京都豊島区南池袋1-28-1-7F,35.7276913,139.7115056
"
セブンイレブン 豊島上池袋1丁目店
",東京都豊島区上池袋1-39-10,35.7381743,139.7224393
"
セブンイレブン 都立文京高校前店
",東京都豊島区巣鴨4ー7ー6,35.736082,139.7303013
"
セブンイレブン 上池袋2丁目店
",東京都豊島区上池袋2ー15ー1,35.7354337,139.7185026
"
セブンイレブン 豊島巣鴨白山通り店
",東京都豊島区巣鴨2-11-5,35.7356946,139.7364967
"
セブンイレブン 池袋2丁目東店
",東京都豊島区池袋2-52-3,35.7339313,139.7096513
"
セブンイレブン 東池袋3丁目店
",東京都豊島区東池袋3-22-1,35.7308912,139.7212035
"
セブンイレブン 巣鴨駅北口店
",東京都豊島区巣鴨2-1-1,35.7339423,139.7385579
"
セブンイレブン 豊島南池袋2の東店
",東京都豊島区南池袋2-32-13,35.7263324,139.7154564
"
セブンイレブン 豊島南大塚1丁目店
",東京都豊島区南大塚1-60-20,35.7309013,139.7303514
"
セブンイレブン 池袋3丁目店
",東京都豊島区池袋3-11-1,35.7344449,139.7003226
"
セブンイレブン 西池袋4丁目店
",東京都豊島区西池袋4-21-14,35.7293638,139.6980426
"
セブンイレブン 豊島要町1丁目店
",東京都豊島区要町1丁目8-11,35.7339119,139.6949659
"
セブンイレブン 豊島千川駅北店
",東京都豊島区要町3-44-1,35.7388485,139.6894586
"
セブンイレブン 新大塚駅前店
",東京都豊島区南大塚2-11-4,35.7252698,139.7309711
"
セブンイレブン 豊島高田2丁目店
",東京都豊島区高田2-18-20,35.7182798,139.7144189
"
セブンイレブン 長崎店
",東京都豊島区長崎4丁目15番9号,35.729927,139.6859008
"
セブンイレブン 豊島駒込1丁目店
",東京都豊島区駒込1-4-6,35.7343097,139.74844
"
セブンイレブン 上池袋3丁目店
",東京都豊島区上池袋3-19-7,35.7406407,139.7187738
"
セブンイレブン 豊島長崎2丁目店
",東京都豊島区長崎2-2-12,35.7272367,139.6926874
"
セブンイレブン 池袋2丁目トキワ通り店
",東京都豊島区池袋2-35-5,35.73335760000001,139.7065533
"
セブンイレブン 豊島南池袋明治通り店
",東京都豊島区南池袋1-13-21,35.7258605,139.7112919
"
セブンイレブン 豊島西池袋1丁目店
",東京都豊島区西池袋1-5-1,35.7278086,139.7088071
"
セブンイレブン 北池袋店
",東京都豊島区池袋本町4-30-14,35.7438606,139.7164084
"
セブンイレブン 東池袋明治通り店
",東京都豊島区東池袋1-8-9,35.7319635,139.714496
"
セブンイレブン 目白5丁目目白通り店
",東京都豊島区目白5-4-1,35.7223855,139.6945918
"
セブンイレブン 豊島劇場通り東店
",東京都豊島区西池袋1-7-7,35.72878,139.7074397
"
セブンイレブン 東池袋3丁目南店
",東京都豊島区東池袋3-13-2,35.7318112,139.7182345
"
セブンイレブン 南池袋1丁目南店
",東京都豊島区南池袋1丁目1-11,35.7232159,139.7115407
"
セブンイレブン 豊島南長崎5丁目店
",東京都豊島区南長崎5-8-9,35.7279595,139.6819661
"
セブンイレブン 西巣鴨駅前店
",東京都豊島区西巣鴨4ー13-6,35.7444259,139.7289793
"
セブンイレブン 豊島池袋本町3丁目店
",東京都豊島区池袋本町3-5-23,35.7418268,139.7127031
"
セブンイレブン 池袋北口平和通り店
",東京都豊島区池袋2-75-8,35.7363875,139.71116
"
セブンイレブン 豊島南大塚1丁目南店
",東京都豊島区南大塚1-1-8,35.7259332,139.7353486
"
セブンイレブン 西池袋立教通り前店
",東京都豊島区西池袋3-29-2,35.7312213,139.7067304
"
セブンイレブン 7FS学習院大学店
",東京都豊島区目白1丁目5番1号,35.7188387,139.7115071
"
セブンイレブン 豊島巣鴨1丁目店
",東京都豊島区巣鴨1-11-3,35.7322143,139.7405794
"
セブンイレブン 池袋2丁目劇場通り店
",東京都豊島区池袋2丁目6-1,35.7322891,139.7083954
"
セブンイレブン 豊島雑司が谷2丁目店
",東京都豊島区雑司が谷2-20-9,35.718837,139.7186148
"
セブンイレブン 池袋西一番街店
",東京都豊島区西池袋1ー41ー1,35.7327744,139.7104295
"
セブンイレブン 豊島北大塚2丁目店
",東京都豊島区北大塚2-19-7,35.7344289,139.7273852
"
セブンイレブン 下板橋駅前店
",東京都豊島区池袋本町4-39-5,35.7454265,139.7147699
"
セブンイレブン 豊島高田3丁目店
",東京都豊島区高田3-15-18,35.7156119,139.7057367
"
セブンイレブン 南池袋1丁目西店
",東京都豊島区南池袋1丁目21番5号,35.7285694,139.7123032
"
セブンイレブン 池袋東京芸術劇場前店
",東京都豊島区西池袋3-26-5,35.7305714,139.7076344
"
セブンイレブン 豊島高松3丁目店
",東京都豊島区高松3-2-5,35.7398095,139.6961948
"
セブンイレブン 池袋西一番街中央通り店
",東京都豊島区西池袋1-33-2,35.7322277,139.7103313
"
セブンイレブン 西池袋3丁目店
",東京都豊島区西池袋3-9-1,35.7269256,139.7029883
"
セブンイレブン 7FS帝京平成大学池袋キャンパ店
",東京都豊島区東池袋2-51-4,35.7330175,139.7193542
"
セブンイレブン 豊島要町駅前店
",東京都豊島区西池袋5-25-7,35.7328645,139.6996801
"
セブンイレブン 東池袋エアライズタワー店
",東京都豊島区東池袋4丁目5-1,35.7264984,139.718769
"
セブンイレブン Iing電波学園店
",東京都豊島区東池袋3丁目6番地1,35.73185429999999,139.7171033
"
セブンイレブン 東池袋4丁目店
",東京都豊島区東池袋4-8-4,35.7273871,139.7184503
"
セブンイレブン 東池袋2丁目店
",東京都豊島区東池袋2丁目6番1号,35.7298435,139.7243476
"
セブンイレブン 池袋2丁目店
",東京都豊島区池袋2-40-2,35.7331115,139.7087195
"
セブンイレブン 豊島南大塚2丁目店
",東京都豊島区南大塚2丁目15番6号,35.726069,139.7302665
"
セブンイレブン 南池袋3丁目店
",東京都豊島区南池袋3丁目9-2,35.7242453,139.7116713
"
セブンイレブン 池袋西口公園前店
",東京都豊島区西池袋1-15-6,35.7305089,139.7095137
"
セブンイレブン 池袋東口店
",東京都豊島区東池袋1-43-6,35.7328894,139.7135539
"
セブンイレブン 東池袋4丁目春日通り店
",東京都豊島区東池袋4丁目41-24,35.729833,139.7231202
"
セブンイレブン 池袋4丁目店
",東京都豊島区池袋4丁目31-1,35.7384963,139.7091315
"
セブンイレブン 北大塚1丁目西店
",東京都豊島区北大塚1-19-3,35.7330684,139.7301125
"
セブンイレブン 南池袋3丁目明治通り店
",東京都豊島区南池袋3丁目13-10,35.7265638,139.7119006
"
セブンイレブン 豊島南大塚3丁目店
",東京都豊島区南大塚3-2-11,35.727115,139.7293749
"
セブンイレブン 豊島南長崎5丁目東店
",東京都豊島区南長崎5丁目12番8号,35.7280838,139.6837796
"
セブンイレブン 豊島南長崎6丁目店
",東京都豊島区南長崎6丁目14-3,35.7310183,139.6786974
"
セブンイレブン 豊島千川駅前店
",東京都豊島区要町3-9-13,35.7377354,139.6895271
"
セブンイレブン キュープラザ池袋店
",東京都豊島区東池袋1丁目30-1,35.7309826,139.7163816
"
セブンイレブン 豊島北大塚3丁目店
",東京都豊島区北大塚3-25-16,35.7343188,139.7258141
"
ニューヤマザキデイリーストア 東池袋大橋店
",東京都豊島区東池袋2-26-12,35.7315462,139.7237711
"
デイリーヤマザキ 池袋駅西口店
",東京都豊島区西池袋1-16-8,35.7309612,139.7088801
"
デイリーヤマザキ 板橋駅前店
",東京都豊島区上池袋4-47-3,35.7447976,139.7195139
"
デイリーヤマザキ 池袋2丁目店
",東京都豊島区池袋2-22-1,35.7325305,139.7052292
"
デイリーヤマザキ 千川駅前店
",東京都豊島区要町3-23-11,35.7392503,139.6876616
