Name,Address,lat,lon
"
NEWDAYS(ニューデイズ) ecute(エキュート)赤羽店
",東京都北区赤羽1丁目 赤羽駅北口改札内エキュート赤羽内,35.7776081,139.7211576
"
NEWDAYS(ニューデイズ) 尾久店
",東京都北区昭和町1-2-16 尾久駅改札外駅広場内,35.7468149,139.7538755
"
NEWDAYSMINI(ニューデイズミニ) 十条1号店
",東京都北区上十条1 十条駅改札左,35.760257,139.7222387
"
NEWDAYSMINI(ニューデイズミニ) 赤羽3号店
",東京都北区赤羽1 赤羽駅南口改札外脇,35.7776951,139.7205691
"
NEWDAYSMINI(ニューデイズミニ) 赤羽2号店
",東京都北区赤羽1 赤羽駅南口改札内コンコース,35.7777451,139.7210653
"
NEWDAYS(ニューデイズ) 赤羽店
",東京都北区赤羽1 赤羽駅改札外脇,35.7777451,139.7210653
"
NEWDAYSMINI(ニューデイズミニ) 東十条1号店
",東京都北区東十条3 東十条駅北口改札外コンコース,35.763949,139.7268722
"
NEWDAYS(ニューデイズ) 王子店
",東京都北区王子1 王子駅改札外脇,35.7529945,139.7378714
"
NEWDAYS(ニューデイズ)アトレヴィ田端店
",東京都北区東田端1-17-2 アトレヴィ田端1F,35.7383395,139.7609411
"
生活彩家 田端4丁目店
",東京都北区田端4-7-13,35.7366341,139.7534683
"
ローソン 中里二丁目店
",東京都北区中里2-24-1,35.7393913,139.7504692
"
ローソン 赤羽稲付店
",東京都北区赤羽西2-16-1,35.77415149999999,139.7208709
"
ローソン 志茂三丁目店
",東京都北区志茂3-22-5,35.7787385,139.7322862
"
ローソン 田端新町二丁目店
",東京都北区田端新町2-18-8,35.7412479,139.7648741
"
ローソン 西が丘三丁目店
",東京都北区西が丘3-1-3-105,35.7637267,139.7125954
"
ローソン 赤羽西店
",東京都北区赤羽西6-21-8,35.7744751,139.705002
"
ローソン 赤羽西一丁目店
",東京都北区赤羽西1-39-17,35.7790832,139.7192685
"
ローソン 田端六丁目店
",東京都北区田端6-3-1,35.7383323,139.7585771
"
ローソン 赤羽一丁目店
",東京都北区赤羽1-40-14,35.7809127,139.7200902
"
ローソン 王子二丁目店
",東京都北区王子2-18-12,35.7583634,139.7371399
"
ローソン 滝野川六丁目店
",東京都北区滝野川6-8-8,35.7424824,139.7262553
"
ローソン 北区東十条二丁目店
",東京都北区東十条2-5-9-101,35.7631954,139.729685
"
ローソン 滝野川七丁目明治通り店
",東京都北区滝野川7-49-1,35.740509,139.7238811
"
ローソン 東十条三丁目店
",東京都北区東十条3-16-17,35.7649261,139.7279819
"
ローソン 北区浮間二丁目店
",東京都北区浮間2-9-5,35.79051,139.699673
"
ローソン 北区東十条四丁目店
",東京都北区東十条4-5-22,35.7660862,139.7282418
"
ローソン 板橋駅東口店
",東京都北区滝野川7-2-7,35.745768,139.7202797
"
ローソン 十条駐屯地店
",東京都北区十条台1-5-70,35.7565265,139.7259691
"
ローソンストア100 LS北区豊島三丁目店
",東京都北区豊島3-1-1,35.7597824,139.7450579
"
ローソンストア100 LS上中里三丁目店
",東京都北区上中里3-7-11,35.75056319999999,139.7481915
"
ローソンストア100 上十条店
",東京都北区上十条3-20-2,35.7617634,139.7170186
"
ローソンストア100 LS志茂一丁目店
",東京都北区志茂1-15-8M&K第三ハイツ,35.775153,139.726306
"
ローソンストア100 LS王子神谷店
",東京都北区王子5-12-5パークサイド王子,35.76572,139.7371286
"
ローソンストア100 LS十条仲原店
",東京都北区十条仲原1-25-10,35.7640062,139.7210167
"
ローソンストア100 LS北赤羽駅前店
",東京都北区赤羽北2-32-11,35.7859357,139.708178
"
ローソンストア100 LS赤羽駅南口店
",東京都北区赤羽南1-9-8,35.7778178,139.7223323
"
ローソンサテライト 志茂メトロピア店
",東京都北区志茂2-1-18,35.7778901,139.7322849
"
ローソン 十条駅西口店
",東京都北区上十条2-30-1,35.76092879999999,139.7217445
"
ローソン 北区王子一丁目店
",東京都北区王子1-16-5,35.7549219,139.7373706
"
ローソン 田端与楽寺前店
",東京都北区田端1-14-12,35.7348726,139.7606587
"
ファミリーマート 上十条一丁目店
",東京都北区上十条1-10-6,35.7591752,139.7225978
"
ファミリーマート 滝野川五丁目店
",東京都北区滝野川5-37-1,35.7467811,139.7250746
"
ファミリーマート 北区十条西口店
",東京都北区上十条2丁目31番9号,35.7611768,139.7220965
"
ファミリーマート 浮間舟渡駅前店
",東京都北区浮間4-32-20,35.7911044,139.6919387
"
ファミリーマート 亀屋赤羽西店
",東京都北区赤羽西1-34-1亀屋ビル,35.777353,139.718036
"
ファミリーマート 西ケ丘一丁目店
",東京都北区西が丘1-20-12,35.7711182,139.7132722
"
ファミリーマート 東京成徳学園前店
",東京都北区王子5-23-8,35.7672125,139.738319
"
ファミリーマート 赤羽岩淵町店
",東京都北区岩淵町14-2,35.7834401,139.7235185
"
ファミリーマート 赤羽西六丁目店
",東京都北区赤羽西6-3-14,35.7715983,139.7081869
"
ファミリーマート 十条駅前店
",東京都北区上十条2-27-16,35.7602021,139.7219549
"
ファミリーマート 浮間一丁目店
",東京都北区浮間1丁目-7-189,35.7892144,139.7031847
"
ファミリーマート サンズ田端新町店
",東京都北区田端新町2-8-8,35.7392534,139.7683052
"
ファミリーマート 王子駅南口店
",東京都北区堀船1-1,35.7520359,139.7394963
"
ファミリーマート 環八北赤羽店
",東京都北区赤羽北1丁目19番5号,35.7868196,139.7130344
"
ファミリーマート 上十条三丁目店
",東京都北区上十条3丁目14-6,35.7620319,139.7155371
"
ファミリーマート 王子神谷駅前店
",東京都北区王子5丁目10-1 新戸部ビル,35.7650884,139.7359742
"
ファミリーマート 北区豊島七丁目店
",東京都北区豊島7丁目-17,35.7645652,139.7442864
"
ファミリーマート 浮間五丁目店
",東京都北区浮間5丁目4-32,35.7848112,139.6945008
"
ファミリーマート 赤羽北三丁目店
",東京都北区赤羽北3丁目20-1,35.77944919999999,139.7055173
"
ファミリーマート 東十条六丁目店
",東京都北区東十条6丁目7-1,35.77139,139.7257985
"
ファミリーマート 駒込霜降橋店
",東京都北区西ヶ原1丁目2-3,35.7399483,139.747055
"
ファミリーマート 滝野川店
",東京都北区滝野川3-55-14,35.7484277,139.7309195
"
ファミリーマート 王子本町一丁目店
",東京都北区王子本町1丁目22-4王子フコク生命ビル,35.7539975,139.7334012
"
ファミリーマート 浮間中央通り店
",東京都北区浮間4-5-8,35.789268,139.6975442
"
ファミリーマート 滝野川一丁目店
",東京都北区滝野川1-29-5,35.7462491,139.7359938
"
ファミリーマート 上中里三丁目店
",東京都北区上中里3-6-12,35.7504665,139.7483775
"
ファミリーマート 赤羽駅南店
",東京都北区赤羽南1丁目4-12,35.7760715,139.7224539
"
ファミリーマート 赤羽南店
",東京都北区赤羽南1-5-9,35.7769328,139.7226858
"
ファミリーマート 田端新町三丁目店
",東京都北区田端新町3丁目13-6,35.7426946,139.7623908
"
ファミリーマート 赤羽駅東口店
",東京都北区赤羽1-22-2,35.7796478,139.7209597
"
ファミリーマート 赤羽平和通り店
",東京都北区志茂2-39-8,35.7798907,139.7280138
"
ファミリーマート 赤羽一丁目店
",東京都北区赤羽1丁目10-2 高野ビル,35.7793975,139.721882
"
ファミリーマート 赤羽一番街店
",東京都北区赤羽1-62-12,35.782447,139.7196128
"
ファミリーマート 豊川通り店
",東京都北区豊島3-13-5,35.7612727,139.74357
"
ファミリーマート 北区上十条一丁目店
",東京都北区上十条1-21-2,35.7591744,139.7242738
"
ファミリーマート 西ヶ原駅前店
",東京都北区西ヶ原2丁目44番10号アクト西ヶ原1F,35.7461114,139.7418314
"
ファミリーマート 十条仲原三丁目店
",東京都北区十条仲原3-8-3,35.7662593,139.7208223
"
ファミリーマート 西ヶ原四丁目店
",東京都北区西ヶ原4-65-4,35.7442395,139.7328624
"
ファミリーマート 赤羽駅前店
",東京都北区赤羽1丁目9番6号,35.7789689,139.7217362
"
ファミリーマート 板橋駅桜通り店
",東京都北区滝野川7丁目7番13号シティパレスアライビル1階,35.7445239,139.7206299
"
ファミリーマート 北区浮間三丁目店
",東京都北区浮間3丁目8,35.7850027,139.6987158
"
ファミリーマート 北区西が丘一丁目店
",東京都北区西が丘1丁目36-3,35.7710379,139.7111303
"
ファミリーマート 北区赤羽西四丁目店
",東京都北区赤羽西4丁目22-14,35.7748237,139.7169895
"
ファミリーマート 田端駅前店
",東京都北区田端6丁目1番1号田端アスカタワ-,35.7381031,139.759338
"
ファミリーマート 北区豊島八丁目店
",東京都北区豊島8丁目15番21号,35.7659029,139.7409827
"
ファミリーマート 東十条店
",東京都北区東十条5-7-1,35.7682899,139.7273829
"
ファミリーマート 王子明治通り店
",東京都北区王子1丁目23-12,35.7551403,139.7398906
"
ファミリーマート 王子駅前店
",東京都北区王子1丁目9-6,35.7543371,139.7377666
"
ファミリーマート 赤羽駅西口店
",東京都北区赤羽西1丁目6-1,35.7779547,139.7193021
"
ファミリーマート 赤羽二丁目店
",東京都北区赤羽2丁目50-6,35.7819868,139.7228422
"
ファミリーマート 北区豊島二丁目店
",東京都北区豊島2丁目15-1,35.7579458,139.7455148
"
ミニストップ 王子本町店
",東京都北区王子本町2-23-9,35.7549817,139.7318428
"
ミニストップ 東十条店
",東京都北区東十条1-11-4,35.7615597,139.7314842
"
ミニストップ 赤羽東口店
",東京都北区赤羽1-6-7JPT赤羽ビル1F,35.7785178,139.7224676
"
ミニストップ 志茂駅前店
",東京都北区志茂3-14-1,35.7776442,139.7330488
"
ミニストップ 北区赤羽南2丁目店
",東京都北区赤羽南2丁目9番60号,35.773555,139.7223831
"
セブンイレブン 北区滝野川2丁目店
",東京都北区滝野川2-43-1,35.749229,139.7343763
"
セブンイレブン 駒込さつき通り店
",東京都北区中里2-3-3,35.7387009,139.748561
"
セブンイレブン 北区王子神谷駅南店
",東京都北区王子5-3-18,35.7633095,139.736165
"
セブンイレブン 北区十条駅前店
",東京都北区上十条2丁目27番9号,35.760367,139.7214387
"
セブンイレブン 北区豊島1丁目店
",東京都北区豊島1-19-9,35.7588608,139.7403344
"
セブンイレブン 北区西ヶ原4丁目店
",東京都北区西ヶ原4-49-3,35.7436225,139.7338119
"
セブンイレブン 北区豊島6丁目店
",東京都北区豊島6ー7ー6,35.764166,139.7461028
"
セブンイレブン 北区赤羽西5丁目店
",東京都北区赤羽西5-12-4,35.7756476,139.70876
"
セブンイレブン 北区田端新町3丁目店
",東京都北区田端新町3-24-2,35.7431532,139.7630727
"
セブンイレブン 北区神谷3丁目店
",東京都北区神谷3丁目37番3号,35.7702163,139.7302989
"
セブンイレブン 北区浮間2丁目店
",東京都北区浮間2丁目25-4,35.7911453,139.6938193
"
セブンイレブン 北区赤羽南1丁目店
",東京都北区赤羽南1-4-8,35.7765734,139.7223982
"
セブンイレブン 北赤羽駅浮間口店
",東京都北区浮間3-2-16,35.7876585,139.7041541
"
セブンイレブン 北区王子1丁目北店
",東京都北区王子1-21-1,35.7552579,139.7387269
"
セブンイレブン 北区駒込駅東口店
",東京都北区中里2ー1ー7,35.7378241,139.7495695
"
セブンイレブン 北区田端駅東店
",東京都北区東田端1-13-2,35.7393313,139.7623943
"
セブンイレブン 北区浮間中央通り店
",東京都北区浮間4-10-16,35.7880602,139.6967056
"
セブンイレブン 北区滝野川6丁目店
",東京都北区滝野川6-83-5,35.746228,139.721583
"
セブンイレブン 北区中十条3丁目店
",東京都北区中十条3丁目18-15,35.764531,139.7248383
"
セブンイレブン 北区王子4丁目店
",東京都北区王子4-24-13,35.7614694,139.7372067
"
セブンイレブン 田端3丁目店
",東京都北区田端3-4-14,35.7347477,139.7550711
"
セブンイレブン 北区上中里2丁目店
",東京都北区上中里2丁目26-7,35.7470779,139.747839
"
セブンイレブン 王子1丁目店
",東京都北区王子1-6-8,35.7547293,139.7399333
"
セブンイレブン 北区岩淵店
",東京都北区岩淵町39-36,35.7855666,139.7213195
"
セブンイレブン 赤羽駅西口店
",東京都北区赤羽西1-7-1,35.7771742,139.7191424
"
セブンイレブン 北区王子本町1丁目店
",東京都北区王子本町1-8-10,35.7530172,139.7310685
"
セブンイレブン 北区東十条駅前店
",東京都北区中十条2ー9ー15,35.7622167,139.7270478
"
セブンイレブン 豊島5丁目店
",東京都北区豊島5ー1ー32,35.7636112,139.7513727
"
セブンイレブン 北区志茂駅前店
",東京都北区志茂2-6-13,35.7786727,139.7317995
"
セブンイレブン 北区滝野川3丁目店
",東京都北区滝野川3丁目48-11,35.7491254,139.7275597
"
セブンイレブン 北区赤羽北2丁目店
",東京都北区赤羽北2-31-18,35.7865029,139.7089052
"
セブンイレブン 北区昭和町店
",東京都北区昭和町1ー4ー10,35.7464776,139.7563355
"
セブンイレブン 北赤羽駅アクトピア店
",東京都北区赤羽北2-25-8,35.7856891,139.7072949
"
セブンイレブン 上十条店
",東京都北区上十条3-5-10,35.7609946,139.7179737
"
セブンイレブン 北区西ヶ原2丁目店
",東京都北区西ヶ原2-46-2,35.7452361,139.7427639
"
セブンイレブン 北区岸町1丁目店
",東京都北区岸町1ー6ー2,35.7543731,139.7352654
"
セブンイレブン 北区岩淵北本通り店
",東京都北区岩淵町1-1,35.7827112,139.726582
"
セブンイレブン 北区堀船3丁目北店
",東京都北区堀船3丁目18番16号,35.7542934,139.7482239
"
セブンイレブン 北区赤羽2丁目店
",東京都北区赤羽2-27-3,35.7800403,139.7253735
"
セブンイレブン 北区王子神社前店
",東京都北区王子本町1-1-11,35.7529489,139.7352425
"
セブンイレブン 蓮沼アスリート通り店
",東京都北区赤羽西6-37-3,35.7697923,139.7063173
"
セブンイレブン 北区東十条2丁目店
",東京都北区東十条2-14-7,35.7640742,139.7288655
"
セブンイレブン 北区豊島6丁目東店
",東京都北区豊島6丁目1-8,35.7635165,139.7494045
"
セブンイレブン 北区西ヶ原3丁目店
",東京都北区西ケ原3丁目57-34,35.7435892,139.7386674
"
セブンイレブン 北区志茂2丁目店
",東京都北区志茂2-19-1,35.7777165,139.7278449
"
セブンイレブン 北区堀船3丁目店
",東京都北区堀船3-40-3,35.753035,139.7491542
"
セブンイレブン 北区王子2丁目店
",東京都北区王子2丁目15-10,35.7571767,139.7371468
"
セブンイレブン 北区王子駅北店
",東京都北区王子1丁目13-17,35.7551618,139.7369093
"
セブンイレブン 北区赤羽1番街店
",東京都北区赤羽1-19-12,35.78055870000001,139.7202284
"
セブンイレブン 北区神谷環七通り店
",東京都北区神谷1丁目33-13,35.7681475,139.7299817
"
セブンイレブン 北区赤羽1丁目北店
",東京都北区赤羽1-65-4,35.7812633,139.7193461
"
セブンイレブン 北区赤羽北3丁目店
",東京都北区赤羽北3丁目3番12号,35.7830881,139.7085234
"
セブンイレブン 北区神谷1丁目店
",東京都北区神谷1丁目2-6,35.7676771,139.7351879
"
デイリーヤマザキ 東十条店
",東京都北区神谷1-31-5,35.7673214,139.7300845
"
デイリーヤマザキ 赤羽駅南口店
",東京都北区赤羽1-1,35.778206,139.7208184
