Name,Address,lat,lon
"
NEWDAYSMINI(ニューデイズミニ) 三河島1号店
",東京都荒川区西日暮里1-6-10 三河島駅改札外コンコース,35.7332294,139.7783915
"
NEWDAYSMINI(ニューデイズミニ) 西日暮里1号店
",東京都荒川区西日暮里5-22 西日暮里駅コンコース,35.73200569999999,139.7668856
"
駅売店 MiNi SHOP(ミニショップ) 日暮里駅店
",東京都荒川区西日暮里2丁目 日暮里駅 一般列車下りホーム,35.7281578,139.7706414
"
駅売店 MiNi SHOP(ミニショップ) 新三河島駅店
",東京都荒川区西日暮里6丁目 新三河島駅 改札横,35.7373088,139.7741067
"
Yショップ西日暮里うえむら店
",東京都荒川区西日暮里2-16-5,35.729434,139.7724585
"
ローソン 東日暮里三丁目店
",東京都荒川区東日暮里3-9-14,35.7282994,139.7822263
"
ローソン 南千住三丁目店
",東京都荒川区南千住3-12-13,35.7291736,139.8022049
"
ローソン 東尾久五丁目店
",東京都荒川区東尾久5-38-7,35.7492546,139.7677937
"
ナチュラルローソン 東京女子医大東医療店
",東京都荒川区西尾久2-1-10,35.7483727,139.7656052
"
ローソンストア100 LS荒川町屋二丁目店
",東京都荒川区町屋2-16-15,35.7437329,139.7781778
"
ローソン 東日暮里一丁目店
",東京都荒川区東日暮里1-42,35.7279984,139.7873353
"
ローソン 南千住駅西口店
",東京都荒川区南千住4-5,35.733973,139.7995608
"
ローソン 南千住メトロピア店
",東京都荒川区南千住4-2,35.7342688,139.8001202
"
ローソン 西尾久八丁目店
",東京都荒川区西尾久8-33-35,35.7511519,139.7531928
"
ローソン 荒川町屋一丁目店
",東京都荒川区町屋1-38-14,35.7448208,139.786642
"
ローソン 荒川西日暮里一丁目店
",東京都荒川区西日暮里1-19-15,35.7360145,139.7754361
"
ローソンストア100 LS荒川南千住五丁目店
",東京都荒川区南千住5-43-12,35.7355802,139.7968647
"
ローソンストア100 LS荒川西尾久三丁目店
",東京都荒川区西尾久3-21-12,35.7509447,139.7617627
"
ローソンストア100 LS町屋店
",東京都荒川区荒川7-35-7,35.7408361,139.779982
"
ローソンストア100 LS東尾久店
",東京都荒川区東尾久5-29-5,35.7452163,139.7655547
"
ローソンストア100 LS荒川町屋一丁目店
",東京都荒川区町屋1-5-4,35.7447362,139.7820829
"
ローソン 泪橋店
",東京都荒川区南千住3-4-23,35.7296342,139.7994627
"
ローソン・スリーエフ 荒川五丁目店
",東京都荒川区荒川5-51-7,35.7405856,139.7741696
"
ローソン・スリーエフ 荒川西尾久店
",東京都荒川区西尾久7-28-1,35.7495242,139.7554351
"
ファミリーマート 兼升西尾久店
",東京都荒川区西尾久7-5-8,35.750527,139.7575285
"
ファミリーマート ワタナベ南千住店
",東京都荒川区南千住7-1-1アクレスティ南千住111,35.7333237,139.7980099
"
ファミリーマート 西日暮里一丁目店
",東京都荒川区西日暮里1-60-8,35.7345704,139.7715676
"
ファミリーマート 西尾久二丁目店
",東京都荒川区西尾久2-14-11,35.7474341,139.7627747
"
ファミリーマート 町屋店
",東京都荒川区荒川6-1-5,35.7403419,139.7787553
"
ファミリーマート 荒川尾竹橋店
",東京都荒川区町屋7-1-10,35.75029720000001,139.7858103
"
ファミリーマート 町屋一丁目店
",東京都荒川区町屋1-9-10,35.7468397,139.7834005
"
ファミリーマート 西日暮里四丁目店
",東京都荒川区西日暮里4-21-3,35.7315529,139.7647529
"
ファミリーマート 町屋八丁目店
",東京都荒川区町屋8丁目13-10,35.7488315,139.7865487
"
ファミリーマート 町屋二丁目店
",東京都荒川区町屋2丁目2-21第二小田ビル,35.7435636,139.7809356
"
ファミリーマート 南千住一丁目店
",東京都荒川区南千住1-57-1,35.7347684,139.7926616
"
ファミリーマート 町屋駅店
",東京都荒川区荒川7-40-6,35.7421026,139.7811883
"
ファミリーマート 日暮里駅ホーム店
",東京都荒川区西日暮里2丁目,35.730653,139.7715977
"
ファミリーマート 南千住五丁目店
",東京都荒川区南千住5丁目29-12,35.7312619,139.7956335
"
ファミリーマート 薬ヒグチ日暮里店
",東京都荒川区東日暮里5丁目51-11 静屋ビル,35.7280086,139.7724841
"
ファミリーマート 東日暮里六丁目店
",東京都荒川区東日暮里6-18-7,35.7288302,139.776768
"
ファミリーマート 新三河島駅前店
",東京都荒川区西日暮里6-6-11,35.7375664,139.7723525
"
ファミリーマート 日暮里店
",東京都荒川区西日暮里2丁目17番5号,35.7291508,139.7719458
"
ファミリーマート 荒川六丁目店
",東京都荒川区荒川6-40-5,35.7435276,139.7767171
"
ファミリーマート 三ノ輪橋店
",東京都荒川区南千住1-15-4,35.7321887,139.792415
"
ファミリーマート 西尾久一丁目店
",東京都荒川区西尾久1丁目11-8,35.7447977,139.7640374
"
ファミリーマート 南千住八丁目店
",東京都荒川区南千住8-4-5,35.737741,139.8075253
"
ファミリーマート 日暮里駅構内店
",東京都荒川区西日暮里2丁目19-1,35.7279344,139.7707191
"
ファミリーマート 荒川東尾久店
",東京都荒川区東尾久3丁目8-14,35.7458046,139.7733576
"
ファミリーマート 丸善日暮里店
",東京都荒川区東日暮里6丁目38-11,35.7312934,139.7746906
"
ファミリーマート 西日暮里二丁目店
",東京都荒川区西日暮里2丁目29-6,35.7300003,139.7719144
"
ファミリーマート 日暮里駅前店
",東京都荒川区東日暮里5丁目52-2,35.7276669,139.7720214
"
ファミリーマート 南千住四丁目店
",東京都荒川区南千住4丁目9-1,35.7358715,139.8029573
"
ミニストップ 西尾久店
",東京都荒川区西尾久7-25-1,35.7477206,139.7551302
"
ミニストップ 荒川1丁目店
",東京都荒川区荒川1丁目18-14,35.7357309,139.7875812
"
ミニストップ 西尾久2丁目店
",東京都荒川区西尾久2-30-13,35.7483103,139.7622449
"
ミニストップ 舎人ライナー日暮里駅店
",東京都荒川区西日暮里2丁目19番2号,35.7289596,139.771398
"
セブンイレブン 荒川西日暮里1丁目店
",東京都荒川区西日暮里1丁目2-6,35.7361471,139.7767045
"
セブンイレブン 南千住6丁目店
",東京都荒川区南千住6-24-13,35.7359516,139.7896052
"
セブンイレブン 荒川店
",東京都荒川区荒川3-52-4,35.735989,139.7795717
"
セブンイレブン 荒川東日暮里1丁目店
",東京都荒川区東日暮里1丁目36-3,35.730249,139.7873049
"
セブンイレブン 西日暮里六丁目店
",東京都荒川区西日暮里6-51-6,35.7366124,139.7686393
"
セブンイレブン 熊の前店
",東京都荒川区東尾久8-31-2,35.74959,139.7683458
"
セブンイレブン 東尾久店
",東京都荒川区東尾久2-44-11,35.7438531,139.7693498
"
セブンイレブン 荒川南千住7丁目南店
",東京都荒川区南千住7丁目28-2,35.7337358,139.7988196
"
セブンイレブン 荒川町屋店
",東京都荒川区町屋2-8-4,35.7433026,139.7796922
"
セブンイレブン 三河島駅前店
",東京都荒川区東日暮里6-1-1,35.732931,139.7785106
"
セブンイレブン 荒川新三河島駅前店
",東京都荒川区荒川5-18-4,35.7378114,139.773537
"
セブンイレブン 荒川東尾久2丁目店
",東京都荒川区東尾久2-7-12,35.7420698,139.7741386
"
セブンイレブン 荒川1丁目店
",東京都荒川区荒川1丁目36-8,35.7336415,139.7884445
"
セブンイレブン 荒川東尾久4丁目店
",東京都荒川区東尾久4-44-6,35.7440745,139.7652451
"
セブンイレブン 荒川町屋5丁目店
",東京都荒川区町屋5-2-1,35.7497861,139.7808178
"
セブンイレブン 荒川西日暮里5丁目店
",東京都荒川区西日暮里5-14-1,35.7325878,139.7679192
"
セブンイレブン 荒川尾竹橋店
",東京都荒川区町屋3ー22ー1,35.748708,139.7842521
"
セブンイレブン 東日暮里4丁目店
",東京都荒川区東日暮里4ー36ー17,35.7249588,139.7792319
"
セブンイレブン 東日暮里店
",東京都荒川区東日暮里3-33-6,35.7308382,139.7794943
"
セブンイレブン 荒川東日暮里2丁目店
",東京都荒川区東日暮里2丁目49-5,35.7279803,139.7835061
"
セブンイレブン 荒川南千住4丁目店
",東京都荒川区南千住4-7-1,35.7347478,139.8005997
"
セブンイレブン 荒川西尾久3丁目店
",東京都荒川区西尾久3-22-14,35.7514136,139.7617989
"
セブンイレブン 南千住7丁目店
",東京都荒川区南千住7ー12ー2,35.7360672,139.7972623
"
セブンイレブン 日暮里駅北店
",東京都荒川区西日暮里2-21-6,35.7295283,139.769988
"
セブンイレブン 東日暮里4丁目東店
",東京都荒川区東日暮里4-5-10,35.725598,139.7818786
"
セブンイレブン 荒川5丁目店
",東京都荒川区荒川5ー11ー13,35.7390476,139.7778542
"
セブンイレブン 京成町屋駅前店
",東京都荒川区荒川7-20-1,35.7419732,139.7818639
"
セブンイレブン 西日暮里道灌山通り店
",東京都荒川区西日暮里5-7-11,35.7332989,139.7693087
"
セブンイレブン 荒川南千住5丁目店
",東京都荒川区南千住5-10-4,35.7341359,139.7944013
"
セブンイレブン 荒川おぐぎんざ店
",東京都荒川区東尾久4-21-5,35.7426817,139.7669745
"
セブンイレブン 荒川南千住3丁目店
",東京都荒川区南千住3-16,35.7310872,139.8036366
"
セブンイレブン 荒川千住大橋店
",東京都荒川区南千住7丁目18-1,35.7376924,139.7972362
"
セブンイレブン 荒川西尾久8丁目店
",東京都荒川区西尾久8-27-8,35.7525166,139.7537706
"
セブンイレブン 荒川東尾久6丁目店
",東京都荒川区東尾久6-33-10,35.7494056,139.7747015
"
セブンイレブン 荒川東日暮里6丁目店
",東京都荒川区東日暮里6丁目45番2号,35.7289166,139.7755347
"
セブンイレブン 荒川町屋1丁目店
",東京都荒川区町屋1丁目22-3,35.7438157,139.7832834
"
セブンイレブン 荒川西尾久7丁目店
",東京都荒川区西尾久7-4-9,35.7497733,139.7578092
"
セブンイレブン 荒川西尾久4丁目店
",東京都荒川区西尾久4丁目23-3,35.7456812,139.759037
"
ニューヤマザキデイリーストア はせがわ病院店
",東京都荒川区東日暮里5-45-7,35.7283493,139.7743966
"
ヤマザキデイリーストアー 西日暮里店
",東京都荒川区西日暮里5-25-8,35.7334739,139.7685525
