Name,Address,lat,lon
"
ファミリーマート 朝霞駐屯地店
",東京都練馬区大泉学園町陸上自衛隊朝霞駐屯地内,35.7784952,139.5950931
"
ファミリーショップしおや
",東京都練馬区石神井台3丁目22-9,35.7433814,139.5908552
"
BIGWAVEかとう
",東京都練馬区土支田3丁目21-8,35.7594936,139.6050567
"
ニューヤマザキデイリーストアJ.CITY光が丘店
",東京都練馬区高松5-8-20,35.7560447,139.6210606
"
ポプラ 練馬1丁目店
",東京都練馬区練馬1-1-12 シモジマビル1F,35.7378049,139.6558708
"
生活彩家 J.CITY光が丘店
",東京都練馬区高松5-8-20,35.7560447,139.6210606
"
有限会社上野商事
",東京都練馬区田柄4-30-17,35.7663111,139.6413198
"
ローソン 田柄四丁目店
",東京都練馬区田柄4-30-17,35.7663111,139.6413198
"
ローソン 石神井台四丁目店
",東京都練馬区石神井台4-9-4,35.7320007,139.5869534
"
ローソン 田柄二丁目店
",東京都練馬区田柄2-51-16,35.7695255,139.6443449
"
ローソン 早宮二丁目店
",東京都練馬区早宮2-17-47,35.7573996,139.6542077
"
ローソン 練馬春日町三丁目店
",東京都練馬区春日町3-35-11,35.7517178,139.639901
"
ローソン 豊玉北五丁目店
",東京都練馬区豊玉北5-16-10,35.7369461,139.6554032
"
ローソン 練馬豊中通店
",東京都練馬区豊玉中2-11-19,35.732305,139.6588736
"
ローソン 西大泉一丁目店
",東京都練馬区西大泉1-1-9,35.7538397,139.5827901
"
ローソン 練馬関町北二丁目店
",東京都練馬区関町北2-27-1,35.7269262,139.5765483
"
ローソン 練馬豊玉中二丁目店
",東京都練馬区豊玉中2-5-1,35.7293848,139.6602661
"
ローソン 練馬江古田栄町店
",東京都練馬区栄町8-7,35.7372217,139.6701485
"
ローソン 大泉学園駅前店
",東京都練馬区東大泉1-28-7,35.7498051,139.5872761
"
ローソン 練馬豊玉北六丁目店
",東京都練馬区豊玉北6-19-9,35.7365049,139.6495956
"
ローソン 練馬東大泉五丁目店
",東京都練馬区東大泉5-19-4,35.7425535,139.5871273
"
ローソン 練馬旭町一丁目店
",東京都練馬区旭町1-31-11,35.7656597,139.6249545
"
ローソン 練馬土支田通店
",東京都練馬区土支田4-9-6,35.7653687,139.6131179
"
ローソン 小竹向原駅前店
",東京都練馬区小竹町2-33-23,35.7445018,139.6779448
"
ローソン 練馬大泉町三丁目店
",東京都練馬区大泉町3-32-10,35.767462,139.595011
"
ローソン 練馬高野台一丁目店
",東京都練馬区高野台1-10-3,35.7416248,139.6181679
"
ローソン 練馬桜台一丁目店
",東京都練馬区桜台1-6-11,35.7395007,139.6618553
"
ローソン 練馬春日町二丁目店
",東京都練馬区春日町2-14-1,35.7564988,139.6489889
"
ローソン HS練馬光が丘病院店
",東京都練馬区光が丘2-11-1,35.7619989,139.6296171
"
ローソン 練馬中村三丁目店
",東京都練馬区中村3-9-13,35.732016,139.6408903
"
ローソン 練馬富士見台店
",東京都練馬区富士見台2-2-1,35.7343297,139.6271936
"
ローソン 練馬錦二丁目店
",東京都練馬区錦2-13-14,35.7625331,139.6664458
"
ローソン 練馬関町北五丁目店
",東京都練馬区関町北5-9-1,35.7316738,139.5690295
"
ローソン 江古田駅北口店
",東京都練馬区栄町32-14,35.7381199,139.6721724
"
ローソン 練馬豊玉南一丁目店
",東京都練馬区豊玉南1-17-10,35.727455,139.659247
"
ローソン 練馬北町二丁目店
",東京都練馬区北町2-23-15,35.7665826,139.6612607
"
ローソンストア100 LS練馬旭丘一丁目店
",東京都練馬区旭丘1-65-20,35.7356496,139.6731986
"
ローソンストア100 練馬貫井三丁目店
",東京都練馬区貫井3-3-2,35.7353835,139.6287196
"
ローソンストア100 LS練馬桜台店
",東京都練馬区桜台1-2-7,35.7386507,139.6647283
"
ローソンストア100 LS練馬石神井町三丁目店
",東京都練馬区石神井町3-25-4,35.7432195,139.6048097
"
ローソンストア100 江古田駅北口店
",東京都練馬区栄町32-13 スモースモアN,35.7382626,139.6721077
"
ローソンストア100 LS武蔵関駅前店
",東京都練馬区関町北4-1-6,35.7278341,139.5776831
"
ローソンストア100 練馬北町二丁目店
",東京都練馬区北町2-31-13,35.7684743,139.657531
"
ローソンストア100 LS大泉学園町八丁目店
",東京都練馬区大泉学園町8-26-5,35.7739164,139.5953211
"
ローソンストア100 LS東大泉三丁目店
",東京都練馬区東大泉3-3-10きのえビル,35.7510352,139.5903575
"
ナチュラルローソン 順天堂大学練馬病院店
",東京都練馬区高野台3-1-10,35.7421561,139.6147615
"
ローソン 小竹向原店
",東京都練馬区小竹町2-3-1,35.742139,139.6800883
"
ローソン 練馬大泉町五丁目店
",東京都練馬区大泉町5-4-5,35.7588993,139.5975037
"
ローソン 練馬土支田二丁目店
",東京都練馬区土支田2-19-1,35.7609125,139.6161844
"
ローソン・スリーエフ 練馬谷原店
",東京都練馬区谷原1-22-11,35.7537265,139.6202646
"
ローソン 練馬東大泉一丁目店
",東京都練馬区東大泉1-37-8,35.7508558,139.5858289
"
ローソン 練馬桜台二丁目店
",東京都練馬区桜台2-43-12,35.7428714,139.6604769
"
ローソンストア100 LS練馬南大泉五丁目店
",東京都練馬区南大泉5-20-1,35.7494325,139.574591
"
ローソンストア100 LS練馬石神井台五丁目店
",東京都練馬区石神井台5-28-15,35.7373725,139.5835494
"
ファミリーマート 丸萬上井草店
",東京都練馬区下石神井4-20-29,35.7283412,139.6026247
"
ファミリーマート 石神井公園店
",東京都練馬区石神井町2-14-1-A-102,35.744264,139.6076493
"
ファミリーマート 氷川台店
",東京都練馬区早宮1-1-16,35.7502284,139.664041
"
ファミリーマート 丸萬上石神井店
",東京都練馬区上石神井2-23-23,35.7268173,139.5936584
"
ファミリーマート 豊島園駅前店
",東京都練馬区練馬4-17-2,35.7425511,139.6476461
"
ファミリーマート 練馬中央通り店
",東京都練馬区豊玉北5-22-7,35.7363936,139.6541117
"
ファミリーマート 練馬石神井町店
",東京都練馬区石神井町7-22-1,35.7440587,139.5964244
"
ファミリーマート 石神井台七丁目店
",東京都練馬区石神井台7-23-7,35.7318981,139.5798459
"
ファミリーマート 練馬大泉町店
",東京都練馬区大泉町1-8-8,35.7656454,139.6068377
"
ファミリーマート 大泉学園駅前店
",東京都練馬区東大泉5-41-14,35.7491362,139.5865076
"
ファミリーマート 富士見台駅前店
",東京都練馬区貫井3-10-8,35.7361396,139.6293904
"
ファミリーマート 大泉インター店
",東京都練馬区大泉町5-1-1,35.7577036,139.5979179
"
ファミリーマート 江古田千川通り店
",東京都練馬区豊玉上1-20-1,35.7365712,139.6706808
"
ファミリーマート 田柄四丁目店
",東京都練馬区田柄4-34-6,35.7662038,139.6380252
"
ファミリーマート 関町北二丁目店
",東京都練馬区関町北2-5-10,35.724146,139.5733846
"
ファミリーマート 春日町一丁目店
",東京都練馬区春日町1丁目17番20,35.7496597,139.646167
"
ファミリーマート 高野台二丁目店
",東京都練馬区高野台2丁目12番16,35.7460353,139.6200152
"
ファミリーマート 関町庚申通り店
",東京都練馬区石神井台7丁目27番14,35.7329086,139.577054
"
ファミリーマート 早宮四丁目店
",東京都練馬区早宮4丁目-1-1,35.7522791,139.6545732
"
ファミリーマート 大泉目白通り店
",東京都練馬区大泉町6丁目9番12,35.7572136,139.5943288
"
ファミリーマート 豊玉中三丁目店
",東京都練馬区豊玉中3丁目2番3,35.732541,139.6563204
"
ファミリーマート 大泉学園町四丁目店
",東京都練馬区大泉学園町4丁目23-10,35.767244,139.5876336
"
ファミリーマート 田柄一丁目店
",東京都練馬区田柄1丁目8-7,35.7602592,139.6448707
"
ファミリーマート 羽沢三丁目店
",東京都練馬区羽沢3丁目2-6,35.7499413,139.6728648
"
ファミリーマート 練馬北町店
",東京都練馬区北町5-11-16,35.766162,139.6556178
"
ファミリーマート 練馬駅西口店
",東京都練馬区練馬1丁目15-1,35.7384293,139.6526887
"
ファミリーマート 三原台一丁目店
",東京都練馬区三原台1丁目8-4,35.7504302,139.604964
"
ファミリーマート 南大泉三丁目店
",東京都練馬区南大泉3丁目26番28号,35.7464416,139.5698561
"
ファミリーマート 南大泉六丁目店
",東京都練馬区南大泉6丁目20番13号,35.7521558,139.5711947
"
ファミリーマート 練馬高松五丁目店
",東京都練馬区高松5丁目8番35号,35.7563917,139.6218037
"
ファミリーマート 豊玉南三丁目店
",東京都練馬区豊玉南3丁目2番9号,35.7292047,139.6539152
"
ファミリーマート 練馬一丁目店
",東京都練馬区練馬1丁目21番5号,35.7386002,139.6560183
"
ファミリーマート 下石神井一丁目店
",東京都練馬区下石神井1丁目7-4,35.7291999,139.6112621
"
ファミリーマート 石神井台二丁目店
",東京都練馬区石神井台2丁目35-39,35.7394457,139.5901746
"
ファミリーマート 豊玉北四丁目店
",東京都練馬区豊玉北4丁目27番15号,35.7370309,139.6573204
"
ファミリーマート 石神井銀座通り店
",東京都練馬区石神井町3丁目28-1,35.74225759999999,139.6035125
"
ファミリーマート 豊玉北六丁目店
",東京都練馬区豊玉北6丁目24-14,35.7346625,139.6507188
"
ファミリーマート 練馬大泉小学校北店
",東京都練馬区東大泉4丁目24番19号,35.7535752,139.5840466
"
ファミリーマート 西大泉四丁目店
",東京都練馬区西大泉4丁目22番1号,35.761965,139.5738271
"
ファミリーマート 中村橋駅西店
",東京都練馬区中村北4丁目12-4,35.7359411,139.6352382
"
ファミリーマート 平和台環八通り店
",東京都練馬区平和台4丁目20-10,35.759588,139.6565719
"
ファミリーマート 練馬北町七丁目店
",東京都練馬区北町7-10-10,35.7616966,139.6495633
"
ファミリーマート 大泉学園駅北店
",東京都練馬区東大泉1丁目20-24,35.7507097,139.5889268
"
ファミリーマート 江古田日芸前店
",東京都練馬区小竹町1-51-5,35.7382536,139.6757279
"
ファミリーマート 練馬谷原六丁目店
",東京都練馬区谷原6丁目25番15号,35.7576539,139.6081149
"
ファミリーマート 練馬上石神井四丁目店
",東京都練馬区上石神井4丁目2番11号,35.7271342,139.5906362
"
ファミリーマート 練馬高松一丁目店
",東京都練馬区高松1丁目12-1,35.7457427,139.632777
"
ファミリーマート 上石神井北小学校前店
",東京都練馬区石神井台2丁目18番6号,35.7352989,139.589527
"
ファミリーマート 練馬東大泉四丁目店
",東京都練馬区東大泉4丁目9番10号,35.7506263,139.5826537
"
ファミリーマート 練馬関町北五丁目店
",東京都練馬区関町北5丁目19番29号,35.7340745,139.5709627
"
ファミリーマート 練馬関町北一丁目店
",東京都練馬区関町北1丁目1番42号,35.7233771,139.5813762
"
ファミリーマート 石神井公園駅西店
",東京都練馬区石神井町7丁目1番16号,35.7447993,139.6020061
"
ファミリーマート 練馬旭丘一丁目店
",東京都練馬区旭丘1丁目12-3,35.7326041,139.6770629
"
ファミリーマート 新桜台店
",東京都練馬区羽沢2-1,35.74147749999999,139.6683283
"
ファミリーマート 練馬桜台二丁目店
",東京都練馬区桜台2-8-6,35.7438128,139.6676817
"
ファミリーマート 桜台駅前店
",東京都練馬区豊玉上2丁目14-9,35.7379791,139.6622151
"
ファミリーマート 江古田栄町店
",東京都練馬区栄町27-8,35.7383537,139.6705737
"
ファミリーマート 関越練馬インター店
",東京都練馬区谷原5丁目14-14,35.753162,139.6097663
"
ファミリーマート 石神井町二丁目店
",東京都練馬区石神井町2-31-17,35.7484724,139.6080363
"
ファミリーマート 練馬土支田二丁目店
",東京都練馬区土支田2丁目15-12,35.7615363,139.6131822
"
ファミリーマート 練馬中村三丁目店
",東京都練馬区中村3丁目1番2号,35.7340356,139.6413366
"
ファミリーマート 高松六丁目店
",東京都練馬区高松6-11-14,35.7568011,139.6165079
"
ファミリーマート 大泉町四丁目店
",東京都練馬区大泉町4-34-27,35.763298,139.5945174
"
ファミリーマート 石神井台六丁目店
",東京都練馬区石神井台6丁目7番3号,35.7386738,139.5852316
"
ファミリーマート 中村南店
",東京都練馬区中村南2-5-1,35.7288742,139.6443172
"
ファミリーマート 石神井公園駅南口店
",東京都練馬区石神井町3丁目21番4,35.7431372,139.6069214
"
ファミリーマート 上石神井駅前店
",東京都練馬区上石神井1丁目13-13,35.7258325,139.5909334
"
ファミリーマート 練馬西税務署前店
",東京都練馬区東大泉6丁目41-10,35.7454256,139.5808702
"
ファミリーマート 田柄二丁目店
",東京都練馬区田柄2丁目38番20号,35.7685737,139.6426326
"
ファミリーマート 高野台一丁目店
",東京都練馬区高野台1丁目2-8,35.7400853,139.6155232
"
ファミリーマート 練馬南田中一丁目店
",東京都練馬区南田中1丁目6番16号,35.7314349,139.6207808
"
ファミリーマート 練馬平和台店
",東京都練馬区平和台3丁目30番14号,35.7560996,139.6574691
"
ファミリーマート 練馬石神井町八丁目店
",東京都練馬区石神井町8-40-11,35.74747139999999,139.5980531
"
ファミリーマート 練馬北町一丁目店
",東京都練馬区北町1-9-2,35.7632762,139.6677931
"
ファミリーマート 練馬大泉町一丁目店
",東京都練馬区大泉町1丁目54番13号,35.76838559999999,139.6019945
"
ファミリーマート 練馬平和台二丁目店
",東京都練馬区平和台2丁目47番4号,35.7595382,139.6591845
"
ファミリーマート 練馬石神井三丁目店
",東京都練馬区石神井町3丁目25-21,35.7436811,139.6047983
"
ファミリーマート 光が丘東大通り店
",東京都練馬区田柄5丁目14番8号グリーンシティ恵2,35.757059,139.6323764
"
ファミリーマート 練馬桜台店
",東京都練馬区桜台3-38-38,35.7450768,139.6638495
"
ファミリーマート 新江古田駅前店
",東京都練馬区豊玉北1-6-14,35.7328521,139.670467
"
ファミリーマート 東武練馬駅南口店
",東京都練馬区北町2-38-7,35.7684558,139.66174
"
ファミリーマート 石神井公園北口店
",東京都練馬区石神井町2-8-16,35.7441391,139.6080578
"
ファミリーマート 練馬豊中通り店
",東京都練馬区豊玉北1丁目20番2号,35.7317005,139.6665941
"
ファミリーマート 練馬中村橋店
",東京都練馬区向山1丁目13番3,35.7372461,139.6402378
"
ファミリーマート 練馬氷川台店
",東京都練馬区氷川台4丁目49番4号,35.7515071,139.665817
"
ファミリーマート 練馬高松五丁目北店
",東京都練馬区高松5丁目21番5号,35.7610686,139.6232013
"
ファミリーマート 練馬富士見台店
",東京都練馬区富士見台3丁目55番17号,35.73974,139.621118
"
ファミリーマート 保谷駅南口店
",東京都練馬区南大泉3丁目31番25号,35.7475911,139.5675661
"
ファミリーマート トモニー練馬駅店
",東京都練馬区練馬1丁目3-5,35.7378235,139.6537383
"
ファミリーマート トモニー練馬高野台駅店
",東京都練馬区高野台1-7-27,35.7406717,139.6167386
"
ファミリーマート トモニー中村橋駅店
",東京都練馬区中村北4-2-1,35.7367711,139.6374408
"
ファミリーマート トモニー上石神井駅店
",東京都練馬区上石神井1-2-45,35.7261335,139.5916006
"
ファミリーマート トモニー武蔵関駅店
",東京都練馬区関町北2丁目29-1,35.7275842,139.5767554
"
ファミリーマート トモニー石神井公園駅店
",東京都練馬区石神井町3-23-10,35.743542,139.6059323
"
ファミリーマート トモニー大泉学園駅店
",東京都練馬区東大泉1丁目29-7,35.7495637,139.5865354
"
ファミリーマート 練馬高野台店
",東京都練馬区高野台4丁目10-8,35.7470142,139.6173132
"
ファミリーマート 平和台駅前店
",東京都練馬区北町6丁目32-3,35.7581832,139.6523781
"
ファミリーマート 練馬北町二丁目店
",東京都練馬区北町2丁目22-12,35.7678053,139.661803
"
ファミリーマート 江古田駅南口店
",東京都練馬区旭丘1丁目77-9,35.7372248,139.6725137
"
ファミリーマート 練馬光ヶ丘店
",東京都練馬区高松5丁目5-22,35.7534996,139.623379
"
ファミリーマート 大泉長久保通り店
",東京都練馬区大泉学園町8丁目9-28,35.7737616,139.5915719
"
ミニストップ 豊玉南2丁目店
",東京都練馬区豊玉南2丁目16-15,35.7292205,139.6558139
"
ミニストップ 練馬上石神井3丁目店
",東京都練馬区上石神井3丁目15-6,35.7297978,139.5961234
"
ミニストップ 大泉学園店
",東京都練馬区大泉学園町1-31-8,35.76321009999999,139.5882726
"
ミニストップ 練馬北町2丁目店
",東京都練馬区北町2-35-4,35.7686086,139.6591351
"
ミニストップ 石神井町5丁目店
",東京都練馬区石神井町5丁目14-9,35.7368245,139.6017036
"
ミニストップ 練馬谷原1丁目店
",東京都練馬区谷原1丁目4-29,35.75033519999999,139.6237887
"
ミニストップ 関町南2丁目店
",東京都練馬区関町南2-4-14,35.7211934,139.5886548
"
セブンイレブン 練馬関町東1丁目店
",東京都練馬区関町東1-5-2,35.7257204,139.5841307
"
セブンイレブン 練馬大泉学園町7丁目店
",東京都練馬区大泉学園町7丁目15番9号,35.7738497,139.5875375
"
セブンイレブン 練馬南大泉5丁目店
",東京都練馬区南大泉5丁目3-9,35.7502597,139.5793828
"
セブンイレブン 練馬三原台1丁目店
",東京都練馬区三原台1-1-2,35.75038300000001,139.607062
"
セブンイレブン 石神井南店
",東京都練馬区下石神井4ー5ー20,35.7284097,139.6065886
"
セブンイレブン 練馬田柄3丁目店
",東京都練馬区田柄3-10-13,35.7568036,139.6373986
"
セブンイレブン 練馬中村北4丁目店
",東京都練馬区中村北4-2-12,35.7363524,139.6372874
"
セブンイレブン 豊玉上店
",東京都練馬区豊玉上2-22-11,35.7374589,139.6607001
"
セブンイレブン 練馬立野町店
",東京都練馬区立野町14-21,35.7171862,139.5827226
"
セブンイレブン 練馬中村かしわ公園前店
",東京都練馬区中村1丁目15番1,35.7313136,139.6463605
"
セブンイレブン 練馬関町庚申通り店
",東京都練馬区関町北1-7-1,35.7245803,139.578254
"
セブンイレブン 練馬南大泉富士街道店
",東京都練馬区南大泉1-17-17,35.7357618,139.574469
"
セブンイレブン 練馬上石神井西店
",東京都練馬区上石神井1ー16ー5,35.72599659999999,139.5896469
"
セブンイレブン 練馬西大泉6丁目店
",東京都練馬区西大泉6-3-10,35.7615233,139.5717666
"
セブンイレブン 練馬下石神井3丁目店
",東京都練馬区下石神井3-9-8,35.7352814,139.6073801
"
セブンイレブン 武蔵関駅北口店
",東京都練馬区関町北4丁目3-3,35.7281589,139.5768221
"
セブンイレブン 練馬桜台5丁目店
",東京都練馬区桜台5-19-6,35.7428381,139.6562713
"
セブンイレブン 練馬平和台3丁目店
",東京都練馬区平和台3-1-1,35.7560795,139.6645361
"
セブンイレブン 練馬富士見台駅南店
",東京都練馬区貫井3丁目1-9,35.7354036,139.629909
"
セブンイレブン 練馬桜台4丁目店
",東京都練馬区桜台4-20-3,35.7389899,139.6571581
"
セブンイレブン 練馬高松4丁目店
",東京都練馬区高松4-12-15,35.7535702,139.6284472
"
セブンイレブン 練馬小竹町1丁目店
",東京都練馬区小竹町1-56-3,35.7382667,139.6739135
"
セブンイレブン 練馬3丁目店
",東京都練馬区練馬3-1-10,35.7371427,139.6500007
"
セブンイレブン 練馬大泉学園小前店
",東京都練馬区大泉学園町4-8-10,35.7662383,139.594152
"
セブンイレブン 練馬早宮3丁目店
",東京都練馬区早宮3-1-17,35.7484027,139.6549341
"
セブンイレブン 練馬下石神井2丁目店
",東京都練馬区下石神井2-37-2,35.7293927,139.6039168
"
セブンイレブン 羽沢店
",東京都練馬区羽沢2-2-1,35.7421099,139.6697599
"
セブンイレブン 練馬中村3丁目北店
",東京都練馬区中村3-14-6,35.7334646,139.6390703
"
セブンイレブン 練馬大泉学園駅北店
",東京都練馬区東大泉4-3-17,35.7508779,139.5850538
"
セブンイレブン 練馬中村北千川通り店
",東京都練馬区中村北1-20-11,35.7362177,139.6453795
"
セブンイレブン 練馬谷原4丁目店
",東京都練馬区谷原4丁目7番1号,35.7532949,139.6130643
"
セブンイレブン 練馬上石神井立野橋店
",東京都練馬区上石神井1-25-4,35.7235259,139.5912249
"
セブンイレブン 練馬南大泉1丁目店
",東京都練馬区南大泉1-23-23,35.7413612,139.5739757
"
セブンイレブン 練馬富士見台2丁目店
",東京都練馬区富士見台2-2-6,35.73396049999999,139.6264875
"
セブンイレブン 練馬高野台4丁目店
",東京都練馬区高野台4-28-6,35.7479193,139.614627
"
セブンイレブン 練馬東大泉2丁目店
",東京都練馬区東大泉2-18-5,35.7535787,139.5959688
"
セブンイレブン 練馬豊玉中2丁目店
",東京都練馬区豊玉中2-9-5,35.7319089,139.6596379
"
セブンイレブン 豊島園駅前店
",東京都練馬区練馬4ー15ー17,35.7427499,139.6489196
"
セブンイレブン 練馬田柄5丁目店
",東京都練馬区田柄5丁目26-1,35.7594502,139.63334
"
セブンイレブン 練馬高松3丁目店
",東京都練馬区高松3-22-11,35.7507363,139.6257704
"
セブンイレブン 土支田通り中央店
",東京都練馬区土支田3-47-11,35.76345209999999,139.6097734
"
セブンイレブン 練馬高野台駅前店
",東京都練馬区高野台1-7-20,35.7407912,139.6171685
"
セブンイレブン 練馬光が丘西大通り店
",東京都練馬区旭町1-15-5,35.76389959999999,139.6251325
"
セブンイレブン 練馬小竹町交番前店
",東京都練馬区小竹町1-43-18,35.7414578,139.6751233
"
セブンイレブン 練馬早宮1丁目店
",東京都練馬区早宮1-14-14,35.7530755,139.6604837
"
セブンイレブン 練馬富士見台駅西店
",東京都練馬区富士見台2-1-15,35.7359607,139.6273038
"
セブンイレブン 練馬春日町6丁目店
",東京都練馬区春日町6-10-30,35.7534243,139.6344637
"
セブンイレブン 練馬駅北口店
",東京都練馬区練馬1-19-2,35.7381831,139.6548476
"
セブンイレブン 練馬西大泉4丁目店
",東京都練馬区西大泉4-11-3,35.7608614,139.5755027
"
セブンイレブン 練馬西大泉2丁目店
",東京都練馬区西大泉2-19-4,35.7564252,139.5732095
"
セブンイレブン 練馬石神井台5丁目南店
",東京都練馬区石神井台5-12-2,35.7344502,139.5840187
"
セブンイレブン 練馬高松6丁目店
",東京都練馬区高松6-1-9,35.7561641,139.620187
"
セブンイレブン 練馬石神井町8丁目店
",東京都練馬区石神井町8-51-18,35.75033980000001,139.6001254
"
セブンイレブン 練馬南田中3丁目店
",東京都練馬区南田中3-17-25,35.7364371,139.6182599
"
セブンイレブン 練馬東大泉6丁目店
",東京都練馬区東大泉6-34-30,35.7486028,139.5846671
"
セブンイレブン 練馬北町1丁目店
",東京都練馬区北町1-24-12,35.7656112,139.6672554
"
セブンイレブン 練馬東大泉NTTビル店
",東京都練馬区東大泉2-9-4,35.7510141,139.5941918
"
セブンイレブン 練馬上石神井2丁目店
",東京都練馬区上石神井2-33-7,35.7272006,139.5915516
"
セブンイレブン 練馬田柄通り店
",東京都練馬区田柄3-5-15,35.7598679,139.6406198
"
セブンイレブン 練馬北町3丁目店
",東京都練馬区北町3丁目4-2,35.7669408,139.654796
"
セブンイレブン 練馬石神井高校前店
",東京都練馬区関町北4-33-22,35.7311666,139.5720719
"
セブンイレブン 7FS陸上自衛隊練馬駐屯地店
",東京都練馬区北町4-1-1,35.7626407,139.6605944
"
セブンイレブン 練馬北町6丁目店
",東京都練馬区北町6-37-22,35.7591788,139.6507256
"
セブンイレブン 練馬関町北3丁目店
",東京都練馬区関町北3-4-4,35.723389,139.5671486
"
セブンイレブン 練馬石神井町7丁目店
",東京都練馬区石神井町7-10-1,35.74263000000001,139.5980823
"
セブンイレブン 練馬早宮中央通り店
",東京都練馬区早宮2-6-4,35.7535904,139.6571149
"
セブンイレブン 練馬豊玉南店
",東京都練馬区豊玉南3-28-3,35.7285917,139.6500726
"
セブンイレブン 練馬中村橋駅北店
",東京都練馬区貫井1-7-30,35.73783,139.6375783
"
セブンイレブン 練馬北町店
",東京都練馬区北町6-9-3,35.7590064,139.6541862
"
セブンイレブン 練馬土支田店
",東京都練馬区土支田1-31-11,35.7664795,139.6180268
"
セブンイレブン 練馬土支田3丁目店
",東京都練馬区土支田3-23-9,35.7604401,139.6062017
"
セブンイレブン 練馬インター店
",東京都練馬区三原台1丁目14番21号,35.7545221,139.6061944
"
セブンイレブン 練馬石神井5丁目店
",東京都練馬区石神井町5-1-14,35.7399547,139.6083555
"
セブンイレブン 練馬春日町4丁目店
",東京都練馬区春日町4-5-7,35.7529866,139.6423506
"
セブンイレブン 練馬豊玉北5丁目店
",東京都練馬区豊玉北5-29-2,35.7356761,139.6535191
"
セブンイレブン 練馬北町8丁目店
",東京都練馬区北町8-37-7,35.7681833,139.6460819
"
セブンイレブン 練馬関町東2丁目店
",東京都練馬区関町東2-15-1,35.7281838,139.5796504
"
セブンイレブン 練馬桜台2丁目店
",東京都練馬区桜台2丁目16番11号,35.7443675,139.6672725
"
セブンイレブン 練馬大泉町4丁目店
",東京都練馬区大泉町4-22-32,35.7612398,139.5981025
"
セブンイレブン 練馬早宮2丁目店
",東京都練馬区早宮2-18-24,35.7569581,139.6514039
"
セブンイレブン 練馬光が丘2丁目店
",東京都練馬区光が丘2-2-1,35.7641086,139.6355856
"
セブンイレブン 練馬平和台1丁目店
",東京都練馬区平和台1-31-5,35.7574152,139.6627013
"
セブンイレブン 練馬早宮4丁目店
",東京都練馬区早宮4-27-21,35.7523254,139.6496648
"
セブンイレブン 練馬豊玉北4丁目店
",東京都練馬区豊玉北4-29-5,35.7354157,139.6568508
"
セブンイレブン 練馬旭丘1丁目店
",東京都練馬区旭丘1丁目38-1,35.7335479,139.6755899
"
セブンイレブン 練馬貫井5丁目店
",東京都練馬区貫井5-2-4,35.7412443,139.6368941
"
セブンイレブン 練馬旭町店
",東京都練馬区旭町1丁目8-3,35.7622247,139.620286
"
セブンイレブン 練馬豊玉中3丁目店
",東京都練馬区豊玉中3丁目16番2号,35.7324521,139.6541487
"
セブンイレブン 練馬春日町1丁目店
",東京都練馬区春日町1丁目16番24号,35.7484589,139.6453188
"
セブンイレブン 練馬春日町5丁目店
",東京都練馬区春日町5-24-15,35.7499005,139.6399816
"
セブンイレブン 練馬羽沢3丁目店
",東京都練馬区羽沢3-36-11,35.7487209,139.6706072
"
セブンイレブン 練馬南田中4丁目店
",東京都練馬区南田中4-13-16,35.7355245,139.6144509
"
セブンイレブン 練馬西大泉5丁目店
",東京都練馬区西大泉5丁目1002-1,35.759528,139.5700153
"
セブンイレブン 練馬関町北2丁目店
",東京都練馬区関町北2-29-14,35.7274605,139.5751499
"
セブンイレブン 練馬石神井町2丁目店
",東京都練馬区石神井町2-13-21,35.7451661,139.6081379
"
セブンイレブン 練馬旭丘文化通り店
",東京都練馬区旭丘1丁目69番1号,35.7361686,139.6745002
"
セブンイレブン 練馬中村北3丁目店
",東京都練馬区中村北3-11-14,35.736808,139.6403708
"
セブンイレブン 江古田駅南店
",東京都練馬区豊玉上1丁目2-5,35.7343647,139.6716405
"
セブンイレブン 練馬富士見台4丁目店
",東京都練馬区富士見台4丁目13-1,35.7444754,139.6252862
"
セブンイレブン 練馬駅西店
",東京都練馬区豊玉北5-19-8,35.7369858,139.6529654
"
セブンイレブン 練馬豊島園通り店
",東京都練馬区練馬3丁目24-1,35.7393686,139.6483181
"
セブンイレブン 練馬関町北1丁目店
",東京都練馬区関町北1-24-7,35.7271931,139.5784724
"
セブンイレブン 練馬石神井台8丁目店
",東京都練馬区石神井台8-21-15,35.7373147,139.5817525
"
セブンイレブン 練馬江古田銀座店
",東京都練馬区栄町4-1,35.73715809999999,139.6720561
"
セブンイレブン 練馬関町南2丁目店
",東京都練馬区関町南2丁目1-12,35.719013,139.5923575
"
セブンイレブン 練馬平和台駅前店
",東京都練馬区平和台4-24-8,35.7574499,139.6551732
"
セブンイレブン 練馬石神井台7丁目店
",東京都練馬区石神井台7丁目13-10,35.7304945,139.5776378
"
ニューヤマザキデイリーストア 練馬旭町店
",東京都練馬区旭町3-11-16,35.7747755,139.6254769
"
ニューヤマザキデイリーストア J.CITY光が丘店
",東京都練馬区高松5-8-20,35.7560447,139.6210606
