Name,Address,lat,lon
"
ヒロマルチェーンリカー&ワインかみや
",東京都足立区足立2丁目22-3,35.760703,139.8102103
"
タウンショップシライ
",東京都足立区綾瀬2丁目12-10,35.7590696,139.8281567
"
松屋
",東京都足立区保木間1丁目34-5,35.7906556,139.8090113
"
オルハテック
",東京都足立区新田1丁目12-1,35.7743202,139.7400751
"
サワヤ
",東京都足立区西保木間3丁目1-18,35.8031098,139.8013555
"
ベアーズアリタ
",東京都足立区西新井7丁目13-11,35.7803426,139.7722494
"
ミニショップロビン
",東京都足立区平野1丁目19-12,35.7810044,139.806214
"
ミノヤ食品ストアー
",東京都足立区興野1丁目10-5,35.7708794,139.7811444
"
NEWDAYSMINI(ニューデイズミニ) 北千住1号店
",東京都足立区千住旭町42 北千住駅北口改札内,35.7493281,139.8054795
"
コンビニエンス・ライフ
",東京都足立区保塚町5-11,35.78579149999999,139.8145763
"
モンマート もちづき
",東京都足立区西新井1-37-6,35.7824466,139.7816952
"
ヤマザキYショップ等潤病院売店
",東京都足立区一ツ家4-3-4,35.7791567,139.816951
"
ローソン 竹の塚四丁目店
",東京都足立区竹の塚4-9-5,35.7942033,139.799447
"
ローソン 千住寿町店
",東京都足立区千住寿町26-8,35.7551719,139.79862
"
ローソン 千住旭町店
",東京都足立区千住旭町40-6,35.7503161,139.8065894
"
ローソン 千住中居町店
",東京都足立区千住中居町    12-22,35.7491124,139.7975231
"
ローソン 足立六町駅前店
",東京都足立区六町1-17-29,35.7839938,139.8215025
"
ローソン 竹の塚二丁目店
",東京都足立区竹の塚2-3-3,35.7886408,139.7961597
"
ローソン 花畑六丁目店
",東京都足立区花畑6-13-20,35.8066316,139.8172957
"
ローソン 谷在家駅前店
",東京都足立区谷在家1-23-10,35.7895331,139.7705043
"
ローソン 興野一丁目店
",東京都足立区興野1-9-8,35.7715524,139.7812757
"
ローソン 舎人一丁目店
",東京都足立区舎人1-15-8,35.8052503,139.7705325
"
ローソン 足立扇三丁目店
",東京都足立区扇3-3-8,35.766975,139.7710826
"
ローソン 足立佐野一丁目店
",東京都足立区佐野1-19-1,35.7851306,139.842369
"
ローソン 花畑三丁目店
",東京都足立区花畑3-9-4,35.8019932,139.8104301
"
ローソン 舎人公園東店
",東京都足立区古千谷本町1-4-1,35.8012794,139.7771228
"
ローソン 西保木間二丁目店
",東京都足立区西保木間2-10-1,35.80046540000001,139.7992035
"
ローソン 西綾瀬三丁目店
",東京都足立区西綾瀬3-17-10,35.7639552,139.8184019
"
ローソン 足立一ツ家一丁目店
",東京都足立区一ツ家1-3-16,35.7792978,139.8105819
"
ローソン 北千住駅西口店
",東京都足立区千住2-61,35.749632,139.804038
"
ローソン 保木間三丁目店
",東京都足立区保木間3-21-12,35.7951093,139.8089147
"
ローソン 足立新田一丁目店
",東京都足立区新田1-2-18,35.772404,139.738038
"
ローソン 足立神明南店
",東京都足立区神明南1-13-10,35.790052,139.830862
"
ローソン 千住桜木一丁目店
",東京都足立区千住桜木1-15-9,35.7539771,139.7913685
"
ローソン 西新井大師前店
",東京都足立区西新井1-2-4,35.7786166,139.7816971
"
ローソン 大谷田店
",東京都足立区大谷田3-1-22,35.7770307,139.8392671
"
ローソン 足立谷在家店
",東京都足立区谷在家3-19-12,35.7880765,139.7696988
"
ローソン 足立一ツ家店
",東京都足立区一ツ家2-23-7,35.7843019,139.8161753
"
ローソン 綾瀬中央通り店
",東京都足立区綾瀬5-16-9,35.7686137,139.8272012
"
ローソン 江北六丁目店
",東京都足立区江北6-30-20,35.782614,139.7697606
"
ローソン 大谷田五丁目店
",東京都足立区大谷田5-3-2,35.783207,139.837098
"
ローソン 伊興本町二丁目店
",東京都足立区伊興本町2-7-14,35.8009718,139.7873466
"
ローソン 花畑一丁目店
",東京都足立区花畑1-6-7,35.7990526,139.8102392
"
ローソン 博慈会記念総合病院店
",東京都足立区鹿浜5-11-1,35.7850821,139.749775
"
ローソン 足立竹ノ塚一丁目店
",東京都足立区竹の塚1-26-14,35.7918382,139.7907311
"
ローソン 足立栗原一丁目店
",東京都足立区栗原1-5-4,35.7803321,139.7898368
"
ローソン 足立六月一丁目店
",東京都足立区六月1-16-12,35.787001,139.801354
"
ローソン 足立伊興四丁目店
",東京都足立区伊興4-6-2,35.7960812,139.7858427
"
ローソン 足立谷中五丁目店
",東京都足立区谷中5-1-1,35.7817679,139.8333901
"
ローソン 足立東和四丁目店
",東京都足立区東和4-5-16,35.7714095,139.8444844
"
ローソンストア100 LS北綾瀬駅前店
",東京都足立区谷中4-9-22,35.7775757,139.8324827
"
ローソンストア100 LS足立鹿浜店
",東京都足立区鹿浜7-12-20,35.7835846,139.7645676
"
ローソンストア100 伊興本町店
",東京都足立区伊興本町1-13-11 バニーズビル,35.7994071,139.7856648
"
ローソンストア100 LS千住新橋店
",東京都足立区足立1-11-5松伝ビル,35.764071,139.8040761
"
ローソンストア100 LS足立栗原店
",東京都足立区栗原4-5-1いそがひファーストビル,35.7834091,139.7856176
"
ローソンストア100 LS足立大谷田店
",東京都足立区大谷田4-15-7,35.7802811,139.8393722
"
ローソンストア100 西保木間店
",東京都足立区西保木間2-5-5,35.7989441,139.7978627
"
ローソンストア100 LS足立東和五丁目店
",東京都足立区東和5-5-21,35.7754488,139.8414271
"
ローソンストア100 LS千住中居町店
",東京都足立区千住中居町18-14白石ビル,35.7505904,139.7996008
"
ローソンストア100 LS足立皿沼店
",東京都足立区皿沼1-9-6アーバンスクエア皿沼,35.7920179,139.7621132
"
ローソンストア100 LS綾瀬三丁目店
",東京都足立区綾瀬3-26-16,35.7646394,139.8277589
"
ローソンストア100 LS梅島駅前店
",東京都足立区梅田7-36-2,35.7720932,139.7976629
"
ローソンストア100 LS足立綾瀬二丁目店
",東京都足立区綾瀬2-28-4,35.7622383,139.8283066
"
ローソンストア100 LS千住寿町店
",東京都足立区千住寿町23-7シルバーコート,35.7539577,139.7981624
"
ローソンストア100 LS亀有東和店
",東京都足立区東和2-17-10,35.7693356,139.8448804
"
ローソンストア100 LS千住桜木二丁目店
",東京都足立区千住桜木2-5-6,35.7551635,139.7904376
"
ローソン メトロス綾瀬東口店
",東京都足立区綾瀬3-1-1千代田線綾瀬駅構内,35.7622573,139.8259981
"
ローソン 足立加平二丁目店
",東京都足立区加平2-19-1,35.7810667,139.8268023
"
ローソン 足立中央本町五丁目店
",東京都足立区中央本町5-7-12,35.7772343,139.806219
"
ローソン 足立千住二丁目店
",東京都足立区千住2-62-12,35.7490435,139.8035283
"
ローソン 足立加平インター店
",東京都足立区西加平1-2-50,35.7783734,139.8224335
"
ローソン 足立六町四丁目店
",東京都足立区六町4-2-28,35.78554130000001,139.8213181
"
ローソン 竹ノ塚駅東店
",東京都足立区竹ノ塚6-9-7,35.7945278,139.7930829
"
ローソン 足立梅島二丁目店
",東京都足立区梅島2-38-12,35.778243,139.798393
"
ローソンストア100 足立竹の塚七丁目店
",東京都足立区竹の塚7-20-6,35.8003888,139.7951658
"
ローソン・スリーエフ 足立千住河原町店
",東京都足立区千住河原町19-8,35.7436535,139.7996066
"
ローソン 足立西新井五丁目店
",東京都足立区西新井5-30-11,35.78520049999999,139.7728665
"
ローソン 足立谷在家二丁目店
",東京都足立区谷在家2-12-1,35.7834751,139.7656872
"
ローソン 足立江北七丁目店
",東京都足立区江北7-6-7,35.7785737,139.7624475
"
ローソンストア100 LS足立綾瀬六丁目店
",東京都足立区綾瀬6-16-16,35.7705033,139.8251399
"
ローソンストア100 LS足立西新井四丁目店
",東京都足立区西新井4-14-3,35.7858519,139.7747669
"
ファミリーマート 亀山西新井本町店
",東京都足立区西新井本町2-8-11,35.7762978,139.774552
"
ファミリーマート 田口屋西新井大師店
",東京都足立区西新井1-8-2,35.77864599999999,139.7793262
"
ファミリーマート 堀之内一丁目店
",東京都足立区堀之内1-17-19,35.77526539999999,139.7565184
"
ファミリーマート 本木東町店
",東京都足立区本木東町5-2,35.7646264,139.7814039
"
ファミリーマート 千住三丁目店
",東京都足立区千住3-1,35.7513222,139.8005262
"
ファミリーマート タジマ千住元町店
",東京都足立区千住元町23-4,35.7551716,139.7913095
"
ファミリーマート 牛田関屋駅前店
",東京都足立区千住曙町2-7,35.7442009,139.8114679
"
ファミリーマート 綾瀬駅前店
",東京都足立区綾瀬3-2-1,35.7624312,139.8241993
"
ファミリーマート 西伊興四丁目店
",東京都足立区西伊興4-7-19,35.8042118,139.7808107
"
ファミリーマート 六町駅前店
",東京都足立区六町4-3-5,35.785991,139.8222999
"
ファミリーマート 南花畑店
",東京都足立区南花畑2-36-17,35.7915289,139.8218297
"
ファミリーマート 加平三丁目店
",東京都足立区加平3-9-18,35.7798098,139.8299657
"
ファミリーマート 南花畑車検場通り店
",東京都足立区南花畑2-42-3,35.7921369,139.8173266
"
ファミリーマート 保木間五丁目店
",東京都足立区保木間5-11-25,35.8007787,139.8048987
"
ファミリーマート 西新井二丁目店
",東京都足立区西新井2丁目20番5号,35.78434860000001,139.7795405
"
ファミリーマート 南花畑四丁目店
",東京都足立区南花畑4丁目21-1,35.7968302,139.8197331
"
ファミリーマート TX北千住駅店
",東京都足立区千住旭町42-3,35.7485676,139.8043958
"
ファミリーマート 堀之内一丁目店
",東京都足立区堀之内1-17-19,35.77526539999999,139.7565184
"
ファミリーマート 六木四丁目店
",東京都足立区六木4丁目5番1号,35.794959,139.8385672
"
ファミリーマート 皿沼二丁目店
",東京都足立区皿沼2丁目19-2,35.7906278,139.7673777
"
ファミリーマート 足立西竹の塚一丁目店
",東京都足立区西竹の塚1丁目6-7,35.7903483,139.7868789
"
ファミリーマート 梅田四丁目店
",東京都足立区梅田4丁目29-14,35.7629606,139.7918697
"
ファミリーマート 小台二丁目店
",東京都足立区小台2-17-10,35.7568335,139.7620526
"
ファミリーマート 千住河原町墨堤通り店
",東京都足立区千住河原町6-16,35.744825,139.7965607
"
ファミリーマート 竹ノ塚駅西店
",東京都足立区西竹の塚1-15-5,35.7940573,139.788039
"
ファミリーマート 新田一丁目店
",東京都足立区新田1丁目18-1 TMコーポ,35.7753551,139.7386381
"
ファミリーマート 鹿浜二丁目店
",東京都足立区鹿浜2-25-1,35.7800703,139.7508317
"
ファミリーマート エキア西新井店
",東京都足立区西新井栄町2丁目1-1,35.7772034,139.7898921
"
ファミリーマート 東保木間二丁目店
",東京都足立区東保木間2丁目4-4,35.7942666,139.8106314
"
ファミリーマート 六木二丁目店
",東京都足立区六木2丁目6-8,35.7923608,139.8409156
"
ファミリーマート 西新井栄町一丁目店
",東京都足立区西新井栄町1丁目22-6,35.7756948,139.784862
"
ファミリーマート 島根二丁目店
",東京都足立区島根2丁目13-11,35.782762,139.7994786
"
ファミリーマート 入谷三丁目店
",東京都足立区入谷3丁目3番1号,35.8107252,139.7628331
"
ファミリーマート 新田三丁目店
",東京都足立区新田3丁目17番6号,35.7715049,139.7442005
"
ファミリーマート 綾瀬駅東口店
",東京都足立区綾瀬3丁目1-16,35.762325,139.8265756
"
ファミリーマート 足立宮城一丁目店
",東京都足立区宮城1丁目28-20,35.7594837,139.7575383
"
ファミリーマート 江北二丁目店
",東京都足立区江北2丁目14番15号,35.7700945,139.7654123
"
ファミリーマート 加平一丁目店
",東京都足立区加平1-20-18,35.774333,139.8297
"
ファミリーマート 足立入谷八丁目店
",東京都足立区入谷8-1-35,35.8037328,139.7592931
"
ファミリーマート 北千住駅東口店
",東京都足立区千住旭町40-21,35.7494661,139.8076357
"
ファミリーマート 綾瀬二丁目店
",東京都足立区綾瀬2-18-10,35.7609258,139.8267523
"
ファミリーマート 加平インター店
",東京都足立区加平1-8-5,35.7753822,139.8261993
"
ファミリーマート 大谷田三丁目店
",東京都足立区大谷田3-6-15,35.7780612,139.8429534
"
ファミリーマート 足立中央本町四丁目店
",東京都足立区中央本町4丁目11-36,35.7738914,139.8077299
"
ファミリーマート 千住曙町店
",東京都足立区千住曙町41-2-109,35.7426629,139.8128999
"
ファミリーマート エキア北千住店
",東京都足立区千住 旭町42-1,35.7495774,139.8053948
"
ファミリーマート ポンテポルタ千住店
",東京都足立区千住 橋戸町1-13 ポンテポルタ千住,35.7424425,139.7954607
"
ファミリーマート 西新井駅東口店
",東京都足立区梅島3丁目32番6号,35.7772326,139.7908389
"
ファミリーマート 足立舎人一丁目店
",東京都足立区舎人1丁目18-18,35.80852420000001,139.7698075
"
ファミリーマート 足立谷中二丁目店
",東京都足立区谷中2-7-7,35.7772308,139.8327662
"
ファミリーマート 江北三丁目店
",東京都足立区江北3-36-10,35.7778783,139.7627306
"
ファミリーマート 足立東綾瀬一丁目店
",東京都足立区東綾瀬1丁目14-9,35.7643895,139.8344953
"
ファミリーマート 西新井三丁目店
",東京都足立区西新井3丁目6番10号・11号,error,error
"
ファミリーマート 東綾瀬一丁目店
",東京都足立区東綾瀬1-3-2,35.7635263,139.8310214
"
ファミリーマート 北綾瀬駅前店
",東京都足立区谷中2-5-10,35.777204,139.8314706
"
ファミリーマート 島根四丁目店
",東京都足立区島根4-13ー3,35.7826169,139.7927902
"
ファミリーマート 梅島駅前店
",東京都足立区梅島3丁目1番7号,35.7729255,139.797381
"
ファミリーマート 足立綾瀬西口店
",東京都足立区綾瀬4-7-3,35.7623105,139.823646
"
ファミリーマート 千住あずま店
",東京都足立区千住東2丁目19-1,35.7455495,139.8086096
"
ファミリーマート 足立五反野店
",東京都足立区弘道1丁目14-2,35.7678487,139.8096405
"
ファミリーマート 足立東和店
",東京都足立区東和4-25-1,35.7743518,139.8432423
"
ファミリーマート 足立青井店
",東京都足立区青井1-2-15,35.77182760000001,139.8112268
"
ファミリーマート 足立綾瀬三丁目店
",東京都足立区綾瀬3丁目26番9,35.7647945,139.8283365
"
ファミリーマート 足立竹の塚二丁目店
",東京都足立区竹の塚2-29-10,35.7926823,139.7965695
"
ファミリーマート 足立東綾瀬公園店
",東京都足立区東綾瀬3丁目3-13,35.7704098,139.8309488
"
ファミリーマート 足立五反野駅前店
",東京都足立区足立3丁目33番2,35.7656335,139.8089202
"
ファミリーマート 足立鹿浜店
",東京都足立区鹿浜5-21-20,35.7858697,139.7562044
"
ファミリーマート 足立平野店
",東京都足立区平野3-3-6,35.7825861,139.8067269
"
ファミリーマート 北千住駅西口店
",東京都足立区千住2丁目61,35.749632,139.804038
"
ファミリーマート 綾瀬西口店
",東京都足立区綾瀬4丁目6-13,35.7619852,139.8231024
"
ファミリーマート 千住警察署前店
",東京都足立区千住仲町41-1,35.7465583,139.8034418
"
コミュニティ・ストア 入谷 やまざきや店
",東京都足立区入谷2-24-14,35.8111281,139.7632971
"
コミュニティ・ストア 梅田7丁目 やまだや店
",東京都足立区梅田7-17-11,35.7703961,139.7976719
"
ミニストップ 北千住店
",東京都足立区千住3-56,35.752459,139.803211
"
ミニストップ 辰沼店
",東京都足立区辰沼2-15-7,35.7908107,139.8335634
"
ミニストップ 千住仲町店
",東京都足立区千住仲町18-6,35.7465129,139.800135
"
ミニストップ 鹿浜4丁目店
",東京都足立区鹿浜4丁目28-2,35.7833108,139.7592303
"
ミニストップ 南花畑2丁目店
",東京都足立区南花畑2丁目14番16号,35.7892413,139.8204269
"
ミニストップ 足立鹿浜店
",東京都足立区鹿浜5-15-10,35.7854712,139.7521642
"
ミニストップ 東和2丁目店
",東京都足立区東和2-2-1,35.766427,139.8417315
"
ミニストップ ピーアークスタジオ店
",東京都足立区竹の塚1丁目41番3,35.7938863,139.7909632
"
ミニストップ 足立梅島1丁目店
",東京都足立区梅島1丁目11番10号 グランデュオガ-デン深水,35.7726614,139.7989016
"
ミニストップ 足立竹の塚7丁目店
",東京都足立区竹の塚7丁目1-15,35.7994023,139.797526
"
ミニストップ ピーくんガーデン店
",東京都足立区谷中2-22-18,35.7770221,139.8344595
"
ミニストップ 足立綾瀬1丁目店
",東京都足立区綾瀬1丁目34番7号 綾瀬プルミエ1階,35.7610796,139.8212213
"
ミニストップ 足立トラックターミナル店
",東京都足立区入谷6-1-1,35.8007934,139.7668852
"
セブンイレブン 足立関原3丁目店
",東京都足立区関原3-50-9,35.7738214,139.7848566
"
セブンイレブン 足立西新井栄町3丁目店
",東京都足立区西新井栄町3-18-11,35.7778769,139.78419
"
セブンイレブン 足立江北1丁目店
",東京都足立区江北1丁目33番19号,35.7726629,139.7699222
"
セブンイレブン 足立ハートアイランド新田店
",東京都足立区新田3-35-20,35.7690045,139.7480302
"
セブンイレブン 千住桜木店
",東京都足立区千住桜木1-10-3,35.7515768,139.7934848
"
セブンイレブン 足立梅島駅北店
",東京都足立区梅島1-36-7,35.7748769,139.7977548
"
セブンイレブン 足立六町1丁目店
",東京都足立区六町1丁目17-47,35.7829091,139.8211089
"
セブンイレブン 足立竹ノ塚駅東店
",東京都足立区竹の塚6-1-13,35.7941339,139.7943231
"
セブンイレブン 足立神明1丁目店
",東京都足立区神明1-4-5,35.7927676,139.8305592
"
セブンイレブン 足立西綾瀬3丁目店
",東京都足立区西綾瀬3丁目14-7,35.7636021,139.8173895
"
セブンイレブン 足立辰沼東店
",東京都足立区佐野2-2-11,35.7855146,139.8386814
"
セブンイレブン 足立加平2丁目店
",東京都足立区加平2丁目24番3,35.7825618,139.8270574
"
セブンイレブン 足立堀之内2丁目店
",東京都足立区堀之内2-15-8,35.7779378,139.7566229
"
セブンイレブン 足立入谷7丁目店
",東京都足立区入谷7-8-12,35.8016957,139.7608013
"
セブンイレブン 西新井駅東店
",東京都足立区西新井栄町1-8-2,35.7750126,139.7922382
"
セブンイレブン 梅田店
",東京都足立区梅田7丁目16番3号,35.7690623,139.7987244
"
セブンイレブン 足立鹿浜2丁目店
",東京都足立区鹿浜2-32-1,35.7826297,139.7508727
"
セブンイレブン 綾瀬駅西口店
",東京都足立区綾瀬1-39-11,35.7616531,139.8237079
"
セブンイレブン 足立新広橋店
",東京都足立区佐野1-35-3,35.78997409999999,139.8414715
"
セブンイレブン 足立東保木間店
",東京都足立区東保木間2-5-8,35.7948204,139.811478
"
セブンイレブン 足立竹の塚6丁目店
",東京都足立区竹の塚6-23-11,35.7972007,139.7943754
"
セブンイレブン 足立千住3丁目店
",東京都足立区千住3-51,35.7519983,139.8031703
"
セブンイレブン 足立宮城1丁目店
",東京都足立区宮城1-26-10,35.7606621,139.7563983
"
セブンイレブン 足立大谷田4丁目店
",東京都足立区大谷田4丁目5-4,35.7780561,139.8367176
"
セブンイレブン 足立保木間1丁目店
",東京都足立区保木間1ー7ー10,35.7891731,139.8065702
"
セブンイレブン 足立西新井6丁目店
",東京都足立区西新井6丁目41番7号,35.7823832,139.7784635
"
セブンイレブン 足立興野1丁目店
",東京都足立区興野1-18-20,35.76767,139.7806703
"
セブンイレブン 北千住駅東口店
",東京都足立区千住旭町4-13,35.7493732,139.806852
"
セブンイレブン 足立花畑1丁目店
",東京都足立区花畑1丁目35-11,35.8007334,139.8171011
"
セブンイレブン 足立青井3丁目店
",東京都足立区青井3-12-3,35.7709283,139.8205333
"
セブンイレブン 足立古千谷本町3丁目店
",東京都足立区古千谷本町3-3-1,35.807226,139.7755509
"
セブンイレブン 足立梅島2丁目店
",東京都足立区梅島2-28-20,35.7770582,139.8029327
"
セブンイレブン 足立扇2丁目店
",東京都足立区扇2丁目44-1,35.7685223,139.770269
"
セブンイレブン 足立綾瀬1丁目店
",東京都足立区綾瀬1-17-9,35.7583348,139.8236565
"
セブンイレブン 足立扇3丁目店
",東京都足立区扇3ー19ー18,35.77397759999999,139.772072
"
セブンイレブン 足立綾瀬2丁目店
",東京都足立区綾瀬2-26-12,35.7618708,139.8271374
"
セブンイレブン 足立西新井本町店
",東京都足立区西新井本町1-14-14,35.7771151,139.7817274
"
セブンイレブン 足立南花畑2丁目店
",東京都足立区南花畑2-48-9,35.793066,139.8204381
"
セブンイレブン 足立青井駅前店
",東京都足立区青井3丁目36-12,35.7736293,139.820202
"
セブンイレブン 足立西新井栄町1丁目店
",東京都足立区西新井栄町1-18-1,35.7735765,139.7878312
"
セブンイレブン 足立梅田5丁目店
",東京都足立区梅田5丁目25番17号,35.7698499,139.7954527
"
セブンイレブン 足立青井1丁目店
",東京都足立区青井1-9-8,35.7753687,139.8113868
"
セブンイレブン 足立花畑8丁目店
",東京都足立区花畑8丁目7-7,35.8132846,139.8227866
"
セブンイレブン 足立西新井本町4丁目店
",東京都足立区西新井本町4丁目30-7,35.7720242,139.7746445
"
セブンイレブン 足立入谷8丁目店
",東京都足立区入谷8丁目1番7,35.8034947,139.7585186
"
セブンイレブン 足立梅田2丁目店
",東京都足立区梅田2-24-1,35.7655423,139.7987596
"
セブンイレブン 足立西新井4丁目店
",東京都足立区西新井4-33-1,35.7889436,139.7790841
"
セブンイレブン 足立車検場前店
",東京都足立区南花畑5丁目24-35,35.7981561,139.8165711
"
セブンイレブン 足立大谷田1丁目店
",東京都足立区大谷田1-2-1,35.7766142,139.8450523
"
セブンイレブン 足立江北6丁目店
",東京都足立区江北6-23-8,35.7822433,139.765471
"
セブンイレブン 足立西新井5丁目店
",東京都足立区西新井5-8-8,35.78361340000001,139.7728424
"
セブンイレブン 足立伊興2丁目店
",東京都足立区伊興2-10-13,35.7923244,139.782523
"
セブンイレブン 足立増田橋店
",東京都足立区竹の塚3丁目3-16,35.7889354,139.7993802
"
セブンイレブン 足立亀田小前店
",東京都足立区関原3-13-10,35.7719909,139.7926687
"
セブンイレブン 足立谷中4丁目店
",東京都足立区谷中4丁目9番4号,35.77789380000001,139.8324763
"
セブンイレブン 綾瀬店
",東京都足立区綾瀬5-2-15,35.7662166,139.824895
"
セブンイレブン 足立伊興小西店
",東京都足立区伊興4-20-6,35.795727,139.7797642
"
セブンイレブン 足立西保木間3丁目店
",東京都足立区竹の塚7-21-17,35.8014147,139.7971435
"
セブンイレブン 足立中川4丁目店
",東京都足立区中川4丁目33番2号,35.7699971,139.8487141
"
セブンイレブン 足立伊興番田店
",東京都足立区西伊興4-10-7,35.80107220000001,139.7798104
"
セブンイレブン 足立東伊興1丁目店
",東京都足立区東伊興1-13-11,35.8049202,139.7838903
"
セブンイレブン 足立鹿浜店
",東京都足立区鹿浜6-36-12,35.7884119,139.7615835
"
セブンイレブン 足立4丁目店
",東京都足立区足立4-17-2,35.7670377,139.8067916
"
セブンイレブン 足立島根店
",東京都足立区島根4-21-24,35.7826437,139.7974957
"
セブンイレブン 足立中川1丁目店
",東京都足立区中川1丁目9-3,35.7663306,139.8532458
"
セブンイレブン 足立一ツ家3丁目店
",東京都足立区一ツ家3-10-3,35.7798574,139.814317
"
セブンイレブン 足立綾瀬4丁目店
",東京都足立区綾瀬4-29-16,35.7686936,139.8231004
"
セブンイレブン 足立本木西町店
",東京都足立区本木西町1-7,35.7600725,139.7802166
"
セブンイレブン 足立鹿浜3丁目店
",東京都足立区鹿浜3-8-20,35.7797002,139.7554798
"
セブンイレブン 足立中居郵便局前店
",東京都足立区千住1-12-1,35.7489914,139.7996539
"
セブンイレブン 足立入谷1丁目店
",東京都足立区入谷1-7-16,35.8048544,139.7696865
"
セブンイレブン 足立千住2丁目店
",東京都足立区千住2丁目62,35.749254,139.8038667
"
セブンイレブン 足立入谷5丁目店
",東京都足立区入谷5-5-10,35.8051779,139.7635308
"
セブンイレブン 本木店
",東京都足立区本木2-4-21,35.7665216,139.7861072
"
セブンイレブン 足立東和2丁目店
",東京都足立区東和2-27-1,35.7702784,139.8435406
"
セブンイレブン 足立入谷9丁目店
",東京都足立区入谷9丁目17-32,35.8094811,139.7553306
"
セブンイレブン 足立柳原2丁目店
",東京都足立区柳原2-3-4,35.7483997,139.8103183
"
セブンイレブン 足立皿沼農協前店
",東京都足立区鹿浜8-28-13,35.7903616,139.7648759
"
セブンイレブン 足立鹿浜6丁目店
",東京都足立区鹿浜6丁目13-6,35.7842965,139.7565559
"
セブンイレブン 千住仲町店
",東京都足立区千住仲町11番13号,35.74517,139.8002284
"
セブンイレブン 足立東和1丁目店
",東京都足立区東和1ー2ー5,35.7642537,139.8357664
"
セブンイレブン 足立入谷3丁目店
",東京都足立区入谷3-7-15,35.8099221,139.7608953
"
セブンイレブン 足立千住曙町店
",東京都足立区千住曙町9-8,35.7430147,139.8131266
"
セブンイレブン 千住寿町店
",東京都足立区千住寿町9-13,35.753309,139.798779
"
セブンイレブン 足立梅島1丁目店
",東京都足立区梅島1-24-1,35.7718435,139.8031794
"
セブンイレブン 足立千住1丁目店
",東京都足立区千住1ー24ー7,35.747389,139.8017738
"
セブンイレブン 足立舎人2丁目店
",東京都足立区舎人2ー21ー10,35.8142163,139.7710945
"
セブンイレブン 関原店
",東京都足立区関原2-1-3,35.7646195,139.7907016
"
セブンイレブン 足立東保木間1丁目店
",東京都足立区東保木間1-13-3,35.7890694,139.8132495
"
セブンイレブン 足立東伊興3丁目店
",東京都足立区東伊興3丁目4-6,35.799703,139.7900382
"
セブンイレブン 千住旭町店
",東京都足立区千住旭町1-21,35.7472267,139.8053107
"
セブンイレブン 足立保木間3丁目店
",東京都足立区保木間3丁目10-10,35.7968523,139.8049633
"
セブンイレブン 足立舎人4丁目尾久橋通り店
",東京都足立区舎人4-11-24,35.8166017,139.7706192
"
セブンイレブン 足立西保木間4丁目店
",東京都足立区西保木間4-14-23,35.8074289,139.8010798
"
セブンイレブン 足立栗原4丁目店
",東京都足立区栗原4-19-20,35.7866513,139.7857066
"
セブンイレブン 足立青井5丁目店
",東京都足立区青井5-4-1,35.7773533,139.8158408
"
セブンイレブン 足立花畑西店
",東京都足立区花畑5-2-6,35.8064588,139.8037365
"
セブンイレブン 足立六月3丁目店
",東京都足立区六月3-5-13,35.7860512,139.789972
"
セブンイレブン 足立五反野駅前店
",東京都足立区足立4-41-5,35.7658616,139.8085455
"
セブンイレブン 西新井駅西口店
",東京都足立区西新井栄町2-7-4,35.7772095,139.7891419
"
セブンイレブン 足立大谷田店
",東京都足立区大谷田5-6-12,35.78172,139.8392653
"
セブンイレブン 足立東綾瀬公園店
",東京都足立区綾瀬6-41-9,35.77198,139.8293836
"
セブンイレブン 北千住駅西口店
",東京都足立区千住3-74-7,35.7506976,139.8038539
"
セブンイレブン 足立舎人5丁目尾久橋通り店
",東京都足立区舎人5-21-30,35.8130803,139.7701638
"
セブンイレブン 竹ノ塚店
",東京都足立区竹の塚4-4-4,35.7929726,139.7991278
"
セブンイレブン 足立東和5丁目店
",東京都足立区東和5-4-4,35.7750955,139.8393758
"
セブンイレブン 梅島駅前店
",東京都足立区梅田8-1-16,35.7712786,139.7973532
"
セブンイレブン 足立江北3丁目店
",東京都足立区江北3-21-1,35.7750054,139.7635618
"
セブンイレブン 扇大橋インター店
",東京都足立区扇2-12-2,35.7617864,139.7670267
"
セブンイレブン 足立六木1丁目店
",東京都足立区六木1丁目19-28,35.7919901,139.8372197
"
セブンイレブン 足立辰沼1丁目店
",東京都足立区辰沼1-4-6,35.7857952,139.8364091
"
セブンイレブン 足立東綾瀬店
",東京都足立区東綾瀬2-4-1,35.7683357,139.829721
"
セブンイレブン 足立一ツ家2丁目店
",東京都足立区一ツ家2丁目9番,35.7829937,139.8157855
"
セブンイレブン 足立六木店
",東京都足立区六木3-2-3,35.7949785,139.8404007
"
セブンイレブン 足立平野1丁目店
",東京都足立区平野1丁目1-1,35.7789528,139.8033798
"
セブンイレブン 足立竹ノ塚駅南店
",東京都足立区竹の塚1-29-1,35.7927379,139.7911638
"
セブンイレブン 足立花保南店
",東京都足立区東保木間1丁目23番7号,35.7892319,139.8165049
"
セブンイレブン 足立保塚町店
",東京都足立区保塚町12-26,35.78633689999999,139.8102645
"
セブンイレブン 足立弘道1丁目店
",東京都足立区弘道1-2-17,35.7664307,139.81048
"
セブンイレブン 扇大橋駅前店
",東京都足立区扇2丁目25番21号,35.763857,139.7705377
"
セブンイレブン 千住大橋駅店
",東京都足立区千住橋戸町11-4,35.7424208,139.7970636
"
セブンイレブン 足立江北橋東店
",東京都足立区扇2-20-19,35.764759,139.7668121
"
セブンイレブン 足立千住4丁目店
",東京都足立区千住4-16-13,35.7535087,139.8039762
"
セブンイレブン 足立竹ノ塚駅西店
",東京都足立区西竹の塚2-4-11,35.7953599,139.789193
"
セブンイレブン 足立日ノ出町店
",東京都足立区日ノ出町12-16,35.74999469999999,139.8102185
"
セブンイレブン 足立加平1丁目店
",東京都足立区加平1-20-7,35.7750394,139.829356
"
セブンイレブン 足立東和4丁目店
",東京都足立区東和4-9-4,35.7722471,139.8403387
"
セブンイレブン 足立東綾瀬3丁目店
",東京都足立区東綾瀬3-8-4,35.769156,139.8355056
"
セブンイレブン 足立綾瀬3丁目店
",東京都足立区綾瀬3-5-3,35.7630619,139.8247389
"
セブンイレブン 足立椿2丁目店
",東京都足立区椿2丁目1-1,35.7785271,139.7603604
"
デイリーヤマザキ 北千住駅東口店
",東京都足立区千住旭町3-7,35.7493739,139.8059196
"
デイリーヤマザキ パサージオ西新井店
",東京都足立区西新井栄町1-17-1,35.7757517,139.7896291
"
デイリーヤマザキ 足立保木間4丁目店
",東京都足立区保木間4-42-1,35.8003059,139.8067056
"
デイリーヤマザキ 足立江北1丁目店
",東京都足立区江北1-1-1,35.7652931,139.7670118
"
デイリーヤマザキ 足立北綾瀬店
",東京都足立区谷中2-10-12,35.7760208,139.8335885
"
デイリーヤマザキ 足立西伊興2丁目店
",東京都足立区西伊興2-7-17,35.7954921,139.7771039
"
デイリーヤマザキ 西新井栄町店
",東京都足立区西新井栄町2-4-1,35.7763182,139.7887394
"
デイリーヤマザキ 足立島根店
",東京都足立区島根4-1-9,35.7822274,139.7971708
"
デイリーヤマザキ 足立谷在家月の友店
",東京都足立区谷在家2-9-4,35.783337,139.7669286
"
デイリーヤマザキ ウェルネスTN西新井店
",東京都足立区西新井栄町1-17-10,35.7749385,139.7898812
"
デイリーヤマザキ 足立江北3丁目店
",東京都足立区江北3-7-7,35.7730837,139.7617986
"
デイリーヤマザキ 谷中北店
",東京都足立区谷中4-2-15,35.7789247,139.8305454
