Name,Address,lat,lon
"
NEWDAYS(ニューデイズ) 新小岩4号店
",東京都葛飾区新小岩1-45-1 新小岩駅緩行ホーム内(両国寄り),35.7174462,139.8586312
"
NEWDAYS(ニューデイズ) 新小岩北口店
",東京都葛飾区西新小岩1 新小岩駅北口改札外正面,35.71824,139.8579
"
NEWDAYSMINI(ニューデイズミニ) 新小岩1号店
",東京都葛飾区西新小岩1 新小岩駅改札外,35.7174462,139.8586312
"
NEWDAYSMINI(ニューデイズミニ) 金町1号店
",東京都葛飾区金町6-4 金町駅常磐線ホーム内(上野方面),35.769538,139.870476
"
NEWDAYSMINI(ニューデイズミニ) 亀有1号店
",東京都葛飾区亀有3-25-1 亀有駅常磐線ホーム内(上野方面),35.7666832,139.8476282
"
NEWDAYS(ニューデイズ) 亀有店
",東京都葛飾区亀有3-25-1 亀有駅北口,35.7665375,139.8475334
"
ポプラ 西新小岩店
",東京都葛飾区西新小岩4-29-7,35.7204466,139.8529337
"
スリーエイト 西水元店
",東京都葛飾区西水元3-27-3,35.789632,139.8502905
"
駅売店 MiNi SHOP(ミニショップ) 堀切菖蒲園駅店
",東京都葛飾区堀切5-1-1 堀切菖蒲園駅 上りホーム,35.7476203,139.8274499
"
駅売店 MiNi SHOP(ミニショップ) お花茶屋駅店
",東京都葛飾区宝町2-37-1 お花茶屋駅 改札外コンコース,35.7475947,139.8401476
"
駅売店 MiNi SHOP(ミニショップ) 青砥駅店
",東京都葛飾区青戸3-36-1 青砥駅 改札外コンコース、上下線ホーム,35.7457839,139.8562185
"
駅売店 MiNi SHOP(ミニショップ) 京成高砂駅店
",東京都葛飾区高砂5-28-1 京成高砂駅 改札内コンコース,35.7509628,139.8675536
"
駅売店 MiNi SHOP(ミニショップ) 四ツ木駅店
",東京都葛飾区四つ木1-1-1 四ツ木駅 改札前,35.7318394,139.8349402
"
駅売店 MiNi SHOP(ミニショップ) 京成立石駅店
",東京都葛飾区立石4-24-1 京成立石駅 上りホーム,35.7382794,139.8485954
"
セブンイレブン 葛飾小菅1丁目店
",東京都葛飾区小菅1丁目36-5,35.7571551,139.8186831
"
ヒロマルチェーン堀切店
",東京都葛飾区堀切2-22-19,35.7417771,139.827631
"
ファリコあきたや
",東京都葛飾区高砂3-2-20,35.7481083,139.8688253
"
有限会社田中米作商店
",東京都葛飾区亀有2-26-17,35.7597386,139.8506479
"
Yショップフクヤ
",東京都葛飾区宝町2-5-22,35.7465694,139.8340728
"
ローソン 西新小岩一丁目店
",東京都葛飾区西新小岩1-3-15,35.7172832,139.8568202
"
ローソン 堀切店
",東京都葛飾区堀切2-65-17,35.7437908,139.8324821
"
ローソン 水元中央通店
",東京都葛飾区南水元4-11-7,35.7803353,139.8623516
"
ローソン 新小岩二丁目店
",東京都葛飾区新小岩2-1-1,35.7169656,139.8595424
"
ローソン 東金町一丁目店
",東京都葛飾区東金町1-6-5,35.7718967,139.8657806
"
ローソン 水元四丁目店
",東京都葛飾区水元4-25-12,35.7857011,139.8649969
"
ローソン 葛飾奥戸四丁目店
",東京都葛飾区奥戸4-19-16,35.7274032,139.8682127
"
ローソン 白鳥四丁目店
",東京都葛飾区白鳥4-14-3,35.753334,139.8460251
"
ローソン 青砥駅北口店
",東京都葛飾区青戸3-38-1,35.745816,139.8551103
"
ローソン 立石一丁目店
",東京都葛飾区立石1-20-11,35.7372968,139.8494742
"
ローソン 慈恵医大葛飾医療センター店
",東京都葛飾区青戸6-41-2,35.7521472,139.8583838
"
ローソン 小菅四丁目店
",東京都葛飾区小菅4-5-5,35.7597663,139.8242992
"
ローソン 青戸六丁目店
",東京都葛飾区青戸6-7-17,35.749819,139.856575
"
ローソン 葛飾橋店
",東京都葛飾区東金町5-37-1,35.7774306,139.8806164
"
ローソン 細田三丁目店
",東京都葛飾区細田3-26-10,35.740552,139.8703262
"
ローソン 葛飾金町一丁目店
",東京都葛飾区金町1-14-4,35.7615243,139.867686
"
ローソン 東新小岩一丁目店
",東京都葛飾区東新小岩1-3-1,35.7185382,139.8579386
"
ローソンストア100 LS葛飾堀切二丁目店
",東京都葛飾区堀切2-36-6,35.7458298,139.8267886
"
ローソンストア100 LS葛飾新小岩二丁目店
",東京都葛飾区新小岩2-2-26,35.7175669,139.8607726
"
ローソンストア100 LS亀有南口店
",東京都葛飾区亀有2-61-5,35.7627783,139.8492634
"
ローソンストア100 LS立石六丁目店
",東京都葛飾区立石6-30-8サンリブ青戸,35.7442038,139.8531669
"
ローソンストア100 LS四つ木店
",東京都葛飾区四つ木2-18-4モリス四つ木,35.7378697,139.8375491
"
ローソンストア100 LS金町店
",東京都葛飾区金町6-1-6ライオンズマンション金町第2,35.7673994,139.8711663
"
ローソンストア100 LS葛飾東金町店
",東京都葛飾区東金町2-18-8,35.7722966,139.8687729
"
ローソンストア100 LS東新小岩店
",東京都葛飾区東新小岩5-14-1,35.7223955,139.8540378
"
ローソンストア100 LS西水元店
",東京都葛飾区西水元6-16-2,35.7884514,139.8568964
"
ローソンストア100 東堀切店
",東京都葛飾区東堀切1-20-16,35.7493847,139.8369153
"
ローソンストア100 LS葛飾青戸八丁目店
",東京都葛飾区青戸8-3-8,35.7562157,139.84954
"
ローソンストア100 LS柴又駅前店
",東京都葛飾区柴又4-9-2,35.7565518,139.8757432
"
ローソンストア100 LS葛飾東堀切二丁目店
",東京都葛飾区東堀切2-10-4,35.7537977,139.8338937
"
ローソンストア100 LS西新小岩四丁目店
",東京都葛飾区西新小岩4-39-21,35.7201595,139.8557422
"
ローソンストア100 LS東新小岩二丁目店
",東京都葛飾区東新小岩2-8-1,35.7249268,139.86542
"
ローソン 葛飾亀有四丁目店
",東京都葛飾区亀有4-4-11,35.7603886,139.8451481
"
ローソン 葛飾新宿五丁目店
",東京都葛飾区新宿5-17-5,35.7660932,139.8607076
"
ローソンストア100 南水元四丁目店
",東京都葛飾区南水元4-4-19,35.7782799,139.8621461
"
ローソン 葛飾奥戸八丁目店
",東京都葛飾区奥戸8-26-12,35.73915,139.864372
"
ローソン・スリーエフ 葛飾堀切七丁目店
",東京都葛飾区堀切7-22-28,35.7552228,139.8311439
"
ローソンストア100 LS葛飾立石七丁目店
",東京都葛飾区立石7-10-21,35.7417491,139.8487416
"
ファミリーマート 吉川金町店
",東京都葛飾区金町5-29-24,35.7663461,139.8686661
"
ファミリーマート 奥戸五丁目店
",東京都葛飾区奥戸5-1-1,35.7310038,139.8637789
"
ファミリーマート 立石五丁目店
",東京都葛飾区立石5-18,35.7447224,139.8443292
"
ファミリーマート 亀有三丁目店
",東京都葛飾区亀有3-9-7,35.7650861,139.8475786
"
ファミリーマート 高砂五丁目店
",東京都葛飾区高砂5丁目37-9,35.7518794,139.8682847
"
ファミリーマート 西水元五丁目店
",東京都葛飾区西水元5丁目-1-12,35.783465,139.8539623
"
ファミリーマート 東金町一丁目店
",東京都葛飾区東金町1丁目24-1,35.7700122,139.869489
"
ファミリーマート 東堀切一丁目店
",東京都葛飾区東堀切1丁目12番2号,35.7480045,139.8332528
"
ファミリーマート 東水元二丁目店
",東京都葛飾区東水元2丁目7番5号,35.7768586,139.8711863
"
ファミリーマート お花茶屋二丁目店
",東京都葛飾区お花茶屋2丁目3番2号,35.7526558,139.8392767
"
ファミリーマート 葛飾亀有四丁目南店
",東京都葛飾区亀有4丁目1番8号,35.758482,139.843705
"
ファミリーマート 小菅四丁目店
",東京都葛飾区小菅4丁目16番8号,35.7603675,139.8254624
"
ファミリーマート 葛飾鎌倉三丁目店
",東京都葛飾区鎌倉3丁目18-7,35.7505398,139.8767798
"
ファミリーマート 東立石四丁目店
",東京都葛飾区東立石4-16-11,35.7335995,139.8504675
"
ファミリーマート 青砥駅店
",東京都葛飾区青戸3-36-1,35.7458987,139.8562988
"
ファミリーマート お花茶屋駅店
",東京都葛飾区宝町2-37-1,35.7475947,139.8401476
"
ファミリーマート 西亀有二丁目店
",東京都葛飾区西亀有2-43-12,35.7602816,139.8353707
"
ファミリーマート 金町六丁目店
",東京都葛飾区金町6丁目2-1,35.7681031,139.8711694
"
ファミリーマート 金町駅前店
",東京都葛飾区金町6-4-1,35.7689978,139.8699413
"
ファミリーマート 堀切六丁目店
",東京都葛飾区堀切6-11-20,35.7511726,139.8319343
"
ファミリーマート 青戸四丁目店
",東京都葛飾区青戸4丁目7番17号,35.7481482,139.8498614
"
ファミリーマート 新小岩ルミエール店
",東京都葛飾区新小岩1丁目48-1,35.7159131,139.8594061
"
ファミリーマート 小菅三丁目店
",東京都葛飾区小菅3丁目18番9号,35.7554382,139.8274079
"
ファミリーマート 奥戸七丁目店
",東京都葛飾区奥戸7丁目3-8,35.7346155,139.8654344
"
ファミリーマート 西新小岩一丁目店
",東京都葛飾区西新小岩1丁目-9-7,35.7182462,139.8577462
"
ファミリーマート 新小岩駅南口店
",東京都葛飾区新小岩1-48-8,35.7164798,139.8592981
"
ファミリーマート 立石三丁目店
",東京都葛飾区立石3-1-2,35.7374263,139.8431416
"
ファミリーマート 亀有北口店
",東京都葛飾区亀有5ー45ー1,35.7673928,139.8491243
"
ファミリーマート 堀切店
",東京都葛飾区堀切4丁目58番18号ニュー美藤マンション,35.7492305,139.8273172
"
ファミリーマート 葛飾水元店
",東京都葛飾区南水元2丁目21-11,35.7798234,139.8580795
"
ファミリーマート 葛飾たつみ橋店
",東京都葛飾区東新小岩1丁目4-5,35.719234,139.857286
"
ファミリーマート お花茶屋店
",東京都葛飾区お花茶屋1丁目19,35.7480648,139.8404906
"
ファミリーマート 金町南口店
",東京都葛飾区金町6丁目4-2ラヴィクレ-ル1-1,35.76911,139.872384
"
ファミリーマート 亀有五丁目店
",東京都葛飾区亀有5丁目27番8号起ビル1階,35.7689456,139.8469793
"
ファミリーマート 青砥駅前店
",東京都葛飾区青戸3丁目39番15号,35.7452806,139.8554552
"
ファミリーマート 立石駅前店
",東京都葛飾区立石1-22-4,35.7383092,139.8495075
"
ファミリーマート 白鳥四丁目店
",東京都葛飾区白鳥4丁目22-17,35.7552874,139.8495872
"
ファミリーマート 京成四ツ木駅店
",東京都葛飾区東四つ木4丁目14-1先,35.7317876,139.8350524
"
ファミリーマート 京成高砂駅店
",東京都葛飾区高砂5丁目28-1,35.7509413,139.867326
"
ファミリーマート 京成金町駅店
",東京都葛飾区金町5丁目37-9,35.7686167,139.870469
"
ファミリーマート 新小岩一丁目店
",東京都葛飾区新小岩1丁目29-8,35.7157838,139.8578467
"
ファミリーマート 葛飾立石六丁目店
",東京都葛飾区立石6丁目34-15,35.7420082,139.8529882
"
ミニストップ 堀切菖蒲園店
",東京都葛飾区堀切3-6-1,35.7468267,139.8272007
"
ミニストップ 東四つ木店
",東京都葛飾区東四つ木4-47-6,35.7339575,139.8427265
"
ミニストップ 金町駅北口店
",東京都葛飾区東金町1-37-2,35.7708117,139.8710813
"
ミニストップ 西水元2丁目店
",東京都葛飾区西水元2-21-16,35.7858845,139.8529051
"
ミニストップ 南水元4丁目店
",東京都葛飾区南水元4丁目26番29号,35.7789305,139.866726
"
ミニストップ 立石5丁目店
",東京都葛飾区立石5-11-22,35.7423061,139.846826
"
ミニストップ 堀切8丁目店
",東京都葛飾区堀切8-23-25,35.7576688,139.8311557
"
ミニストップ 葛飾スポーツセンター前店
",東京都葛飾区奥戸7丁目7-1,35.7355208,139.8632001
"
ミニストップ 高砂駅南口店
",東京都葛飾区高砂3丁目9番9号 レジデンス高砂1階,35.7500244,139.8690261
"
ミニストップ 宝町2丁目店
",東京都葛飾区宝町2丁目22番17号,35.74709000000001,139.837563
"
ミニストップ 青戸5丁目店
",東京都葛飾区青戸5-7-3,35.75108609999999,139.8525084
"
ミニストップ 新小岩4丁目店
",東京都葛飾区新小岩4丁目33番11号,35.7199752,139.866966
"
ミニストップ 亀有駅東店
",東京都葛飾区亀有3丁目44-9,35.7672249,139.8507974
"
セブンイレブン 葛飾青戸3丁目店
",東京都葛飾区青戸3丁目34-7,35.7469933,139.8563607
"
セブンイレブン 葛飾四つ木5丁目店
",東京都葛飾区四つ木5-3-11,35.73992,139.838847
"
セブンイレブン 葛飾青戸4丁目店
",東京都葛飾区青戸4-27,35.752288,139.8510473
"
セブンイレブン 葛飾新柴又駅前店
",東京都葛飾区柴又5-7-8,35.75122959999999,139.8794479
"
セブンイレブン 葛飾奥戸6丁目店
",東京都葛飾区奥戸6-5-3,35.73212,139.8679742
"
セブン-イレブン葛飾西水元2丁目店
",東京都葛飾区西水元2-11-12,35.78575790000001,139.8500876
"
セブンイレブン 葛飾内野店
",東京都葛飾区新宿5-22-15,35.7668088,139.8627386
"
セブンイレブン 葛飾東立石4丁目店
",東京都葛飾区東立石4-55-4,35.7367502,139.8480578
"
セブンイレブン 葛飾高砂2丁目店
",東京都葛飾区高砂2-18-19,35.7494602,139.8653475
"
セブンイレブン 葛飾新小岩駅北口店
",東京都葛飾区西新小岩1-5-1,35.7184161,139.8566827
"
セブンイレブン 葛飾堀切1丁目店
",東京都葛飾区堀切1-11-2,35.7397893,139.8271891
"
セブンイレブン 葛飾水元3丁目店
",東京都葛飾区水元3-17-10,35.7841422,139.8653624
"
セブンイレブン 東四つ木1丁目店
",東京都葛飾区東四つ木1-21-6,35.7298089,139.8410166
"
セブンイレブン 葛飾東金町4丁目店
",東京都葛飾区東金町4丁目28-17,35.7759448,139.8782163
"
セブンイレブン 葛飾亀有4丁目店
",東京都葛飾区亀有4-37-12,35.763251,139.8459576
"
セブンイレブン 柴又駅前店
",東京都葛飾区柴又4-11-10,35.7560034,139.8764425
"
セブンイレブン 葛飾高砂3丁目店
",東京都葛飾区高砂3丁目28番3号,35.7472587,139.8690462
"
セブンイレブン 葛飾鎌倉1丁目店
",東京都葛飾区鎌倉1-39-1,35.7418249,139.8798699
"
セブンイレブン 平和橋通り東新小岩店
",東京都葛飾区東新小岩7-7-8,35.7249152,139.8516246
"
セブンイレブン 葛飾東新小岩4丁目店
",東京都葛飾区東新小岩4-1-20,35.7239657,139.859519
"
セブンイレブン 葛飾水元2丁目店
",東京都葛飾区水元2-7-7,35.7857525,139.8557315
"
セブンイレブン にいじゅく店
",東京都葛飾区新宿6-8-14,35.7749716,139.8625659
"
セブンイレブン 葛飾高砂7丁目店
",東京都葛飾区高砂7-20-16,35.7551276,139.8659107
"
セブンイレブン 葛飾堀切3丁目店
",東京都葛飾区堀切3-12-10,35.7463901,139.8300566
"
セブンイレブン 新小岩4丁目店
",東京都葛飾区新小岩4-25-1,35.719385,139.8649172
"
セブンイレブン 葛飾亀有5丁目店
",東京都葛飾区亀有5-18-10,35.7672376,139.8465176
"
セブンイレブン 葛飾亀有3丁目店
",東京都葛飾区亀有3ー27ー31,35.7658046,139.8493634
"
セブンイレブン 葛飾西新小岩4丁目店
",東京都葛飾区西新小岩4-34-24,35.7186039,139.8546163
"
セブンイレブン 葛飾青戸5丁目店
",東京都葛飾区青戸5-3-4,35.7481899,139.8534206
"
セブンイレブン 葛飾新宿3丁目店
",東京都葛飾区新宿3-11-5,35.7585852,139.8632059
"
セブンイレブン 葛飾南水元4丁目店
",東京都葛飾区南水元4-7-2,35.7789791,139.8598687
"
セブンイレブン 葛飾東新小岩1丁目店
",東京都葛飾区東新小岩1-16-5,35.721322,139.860391
"
セブンイレブン 金町店
",東京都葛飾区金町3-21-13,35.767093,139.8743473
"
セブンイレブン 葛飾立石3丁目店
",東京都葛飾区立石3-5-6,35.7393776,139.8428571
"
セブンイレブン 葛飾東金町2丁目店
",東京都葛飾区東金町2-4-14,35.7718048,139.867786
"
セブンイレブン 東京理科大学葛飾キャンパス店
",東京都葛飾区新宿6-3-1,35.7709928,139.8638477
"
セブンイレブン 葛飾奥戸3丁目店
",東京都葛飾区奥戸3丁目8-2,35.733184,139.8610408
"
セブンイレブン 葛飾四つ木4丁目店
",東京都葛飾区四つ木4丁目30番35号,35.7402825,139.8356527
"
セブンイレブン 葛飾立石1丁目店
",東京都葛飾区立石1丁目15番5号,35.7380084,139.8479441
"
セブンイレブン 葛飾新小岩1丁目店
",東京都葛飾区新小岩1丁目53番10号,35.7146229,139.8614841
"
セブンイレブン 葛飾西新小岩5丁目店
",東京都葛飾区西新小岩5-17-26,35.7242243,139.8477013
"
セブンイレブン 葛飾東金町1丁目店
",東京都葛飾区東金町1-11-3,35.7702155,139.8683861
"
セブンイレブン 葛飾東四つ木3丁目店
",東京都葛飾区東四つ木3丁目44-11,35.7310248,139.839623
"
セブンイレブン 葛飾お花茶屋駅前店
",東京都葛飾区宝町2丁目36-12,35.7473761,139.8407009
"
セブンイレブン 葛飾堀切4丁目店
",東京都葛飾区堀切4-7-13,35.74614469999999,139.825683
"
セブンイレブン 葛飾奥戸2丁目店
",東京都葛飾区奥戸2丁目14番30号,35.736146,139.8561974
"
セブンイレブン 葛飾高砂えびす通り店
",東京都葛飾区高砂5丁目44番13号,35.7513126,139.8687467
"
セブンイレブン 柴又店
",東京都葛飾区金町1-20-12,35.7642908,139.8676101
"
セブンイレブン 西新小岩店
",東京都葛飾区西新小岩4ー38ー19,35.7211043,139.854848
"
セブンイレブン 東金町店
",東京都葛飾区東金町3ー17ー11,35.77057569999999,139.8730263
"
セブンイレブン 葛飾堀切7丁目店
",東京都葛飾区堀切7-32-5,35.7560842,139.8282244
"
セブンイレブン 葛飾鎌倉2丁目店
",東京都葛飾区鎌倉2-1-23,35.7438711,139.8756846
"
セブンイレブン 東堀切3丁目店
",東京都葛飾区東堀切3-13-3,35.7548838,139.8362314
"
セブンイレブン 高砂店
",東京都葛飾区細田4-15-13,35.7446933,139.8710693
"
セブンイレブン 南新小岩店
",東京都葛飾区新小岩3-7-3,35.7154177,139.8641077
"
セブンイレブン 葛飾東堀切1丁目店
",東京都葛飾区東堀切1-18-6,35.75042639999999,139.8353118
"
セブンイレブン 葛飾立石4丁目店
",東京都葛飾区立石4ー33ー7,35.7410778,139.8486539
"
セブンイレブン 葛飾宝町2丁目店
",東京都葛飾区宝町2-32-13,35.7456597,139.8400577
"
セブンイレブン 葛飾水戸街道四つ木店
",東京都葛飾区四つ木2-2-6,35.7356668,139.8345389
"
セブンイレブン 葛飾東水元2丁目店
",東京都葛飾区東水元2丁目34番2号,35.7797051,139.8681812
"
セブンイレブン 平和橋通り西新小岩店
",東京都葛飾区西新小岩5-22-6,35.7262244,139.8496275
"
セブンイレブン 葛飾東水元5丁目店
",東京都葛飾区東水元5-1-3,35.7897892,139.8633628
"
セブンイレブン 葛飾西亀有3丁目店
",東京都葛飾区西亀有3-32-1,35.7602434,139.8408105
"
セブンイレブン 葛飾東立石1丁目店
",東京都葛飾区東立石1-1-6,35.7317626,139.8450944
"
セブンイレブン 葛飾亀有駅南口店
",東京都葛飾区亀有3-7-7,35.7656608,139.8473383
"
セブンイレブン 葛飾細田5丁目店
",東京都葛飾区細田5丁目24-7,35.740731,139.8747528
"
セブンイレブン 葛飾白鳥店
",東京都葛飾区白鳥2丁目19番13号,35.7498109,139.845585
"
セブンイレブン 葛飾青戸8丁目店
",東京都葛飾区青戸8-7-19,35.7553901,139.852476
"
セブンイレブン 葛飾新小岩1丁目西店
",東京都葛飾区新小岩1-31-2,35.715365,139.8583036
"
セブンイレブン 葛飾新宿4丁目店
",東京都葛飾区新宿4丁目9番6号,35.7619623,139.8600901
"
セブンイレブン 葛飾新小岩2丁目店
",東京都葛飾区新小岩2-10-4,35.7156483,139.8609802
"
セブンイレブン 葛飾細田1丁目店
",東京都葛飾区細田1-15-10,35.7399054,139.8696062
"
セブンイレブン 葛飾東新小岩7丁目店
",東京都葛飾区東新小岩7-32-1,35.7257405,139.8571328
"
セブンイレブン 葛飾六貫橋店
",東京都葛飾区新宿3丁目28番4,35.7591754,139.8665682
"
セブンイレブン 葛飾青戸6丁目店
",東京都葛飾区青戸6-10-19,35.7517232,139.8561236
"
セブンイレブン 葛飾高砂8丁目店
",東京都葛飾区高砂8丁目29番6号,35.7537361,139.8700921
"
セブンイレブン 葛飾奥戸4丁目店
",東京都葛飾区奥戸4丁目12番23号,35.726314,139.8657659
"
セブンイレブン 葛飾東金町8丁目店
",東京都葛飾区東金町8丁目10番18号,35.7796242,139.8849695
"
セブンイレブン 葛飾柴又4丁目店
",東京都葛飾区柴又4丁目36,35.7506626,139.8785677
"
セブンイレブン 葛飾お花茶屋2丁目店
",東京都葛飾区お花茶屋2丁目5-14,35.75074,139.8397863
"
セブンイレブン 葛飾亀有1丁目店
",東京都葛飾区亀有1丁目25番20号,35.7610334,139.8467284
"
セブンイレブン 葛飾西水元1丁目店
",東京都葛飾区西水元1-29-14,35.7821097,139.8532469
"
セブンイレブン 四つ木店
",東京都葛飾区四つ木4-5-10,35.7381489,139.8334007
"
セブンイレブン 葛飾南水元2丁目店
",東京都葛飾区南水元2丁目6番11号,35.7794758,139.8539764
"
セブンイレブン 葛飾奥戸5丁目店
",東京都葛飾区奥戸5-3-2,35.732192,139.8645198
"
セブンイレブン 葛飾亀有駅北口店
",東京都葛飾区亀有5-15-14,35.7663709,139.8463751
"
セブンイレブン 葛飾四つ木1丁目店
",東京都葛飾区四つ木1-28-5,35.7342538,139.8347251
"
セブンイレブン 葛飾小菅2丁目店
",東京都葛飾区小菅2-21-12,35.7506768,139.8275047
"
ニューヤマザキデイリーストア 東水元店
",東京都葛飾区東水元2-1-12,35.7759708,139.8725765
"
ヤマザキデイリーストアー お花茶屋店
",東京都葛飾区お花茶屋2-9-10,35.751201,139.8420413
"
デイリーヤマザキ 青砥駅前店
",東京都葛飾区青戸3-35-1,35.74648579999999,139.8562272
