Name,Address,lat,lon
"
おれんじ
",東京都江戸川区松江2丁目4-2,35.6973242,139.8719464
"
六軒町酒店
",東京都江戸川区北葛西1丁目3-11,35.6784251,139.8542136
"
NewDays(ニューデイズ) 平井
",東京都江戸川区平井3 JR平井駅構内・改札外,35.7063649,139.8423899
"
NEWDAYS(ニューデイズ) 小岩1号店
",東京都江戸川区南小岩7-24-15 小岩駅改札脇階段下(改札外),35.7333105,139.88197
"
NEWDAYS(ニューデイズ) 葛西臨海公園店
",東京都江戸川区臨海町6-3 葛西臨海駅改札外階段下,35.6411072,139.8600021
"
NEWDAYS(ニューデイズ) 小岩店
",東京都江戸川区南小岩7-24-15 小岩駅改札内,35.7333105,139.88197
"
ポプラ 東京団地倉庫店
",東京都江戸川区臨海町3-5-1,35.6481281,139.8672328
"
生活彩家 船堀店
",東京都江戸川区船堀3-6-1,35.683549,139.8643559
"
ポプラ 太陽会館平井店
",東京都江戸川区平井7-7-9,35.7170074,139.8380211
"
駅売店 MiNi SHOP(ミニショップ) 京成小岩駅店
",東京都江戸川区北小岩2-10-9 京成小岩駅 改札内コンコース,35.7422078,139.8835869
"
ヤマザキデイリーストアー平井西店
",東京都江戸川区平井6-76-6,35.7144546,139.8424657
"
ヤムチャコンビニ4&5西葛西店
",東京都江戸川区西葛西5-11-12,35.6646365,139.861944
"
リカー&コンビニエンス小西
",東京都江戸川区平井7-17-23,35.7149084,139.8372699
"
ローソン 平井六丁目店
",東京都江戸川区平井6-40-1,35.7097978,139.8432858
"
ローソン 西葛西店
",東京都江戸川区西葛西3-3-3,35.6665334,139.8550182
"
ローソン 江戸川球場前店
",東京都江戸川区西葛西7-3,35.6620141,139.8593661
"
ローソン 谷河内町二丁目店
",東京都江戸川区谷河内2-15-10,35.7022397,139.9012192
"
ローソン 京成小岩南口店
",東京都江戸川区北小岩2-6-11,35.7410353,139.8832841
"
ローソン 西瑞江三丁目店
",東京都江戸川区西瑞江3-5-2,35.6904694,139.8924182
"
ローソン 西瑞江五丁目店
",東京都江戸川区西瑞江5-7-1,35.6797907,139.8803759
"
ローソン 江戸川中央店
",東京都江戸川区中央2-18-19,35.7078861,139.8736367
"
ローソン 西葛西五丁目店
",東京都江戸川区西葛西5-7-9,35.6650776,139.8614613
"
ローソン 松江三丁目店
",東京都江戸川区松江3-5-1,35.6942126,139.867966
"
ローソン 一之江駅前店
",東京都江戸川区一之江8-17-12,35.6863832,139.8837219
"
ローソン 北葛西四丁目店
",東京都江戸川区北葛西4-20-5,35.6720138,139.8659662
"
ローソン 西葛西駅南口店
",東京都江戸川区西葛西6-8-11,35.66421649999999,139.8585446
"
ローソン 瑞江駅前店
",東京都江戸川区瑞江2-3-5,35.6931103,139.898246
"
ローソン 平井駅前店
",東京都江戸川区平井5-23-3,35.7071585,139.8424706
"
ローソン 西葛西三丁目店
",東京都江戸川区西葛西3-13-12,35.665716,139.8576369
"
ローソン 本一色一丁目店
",東京都江戸川区本一色1-22-7,35.7175154,139.8704102
"
ローソン H中葛西三丁目店
",東京都江戸川区中葛西3-4-16,35.6661704,139.8683667
"
ローソン 江戸川中央一丁目店
",東京都江戸川区中央1-6-21,35.7082224,139.86798
"
ローソン 東小岩一丁目店
",東京都江戸川区東小岩1-4-1,35.7194162,139.8913684
"
ローソン 新堀一丁目店
",東京都江戸川区新堀1-38-15,35.7051626,139.8889966
"
ローソン 中葛西一丁目店
",東京都江戸川区中葛西1-1-7,35.669504,139.8666761
"
ローソン 鹿骨五丁目店
",東京都江戸川区鹿骨5-33-13,35.7149269,139.8861515
"
ローソン 南小岩八丁目店
",東京都江戸川区南小岩8-15-12,35.7341176,139.8843163
"
ローソン 葛西ターミナル店
",東京都江戸川区臨海町4-2-1,35.6467409,139.8607226
"
ローソン 葛西さくら公園店
",東京都江戸川区東葛西4-12-19,35.662722,139.8819685
"
ローソン 東葛西九丁目店
",東京都江戸川区東葛西9-6-8,35.6586356,139.8816035
"
ローソン 中葛西店
",東京都江戸川区中葛西6-21-10,35.6603285,139.8706339
"
ローソン 南葛西四丁目店
",東京都江戸川区南葛西4-13-13,35.6515564,139.876017
"
ローソン 西葛西駅北口店
",東京都江戸川区西葛西5-1-5,35.6657963,139.8592179
"
ローソン 葛西環七通り店
",東京都江戸川区東葛西7-2-5,35.6599338,139.8732666
"
ローソン 西葛西二丁目店
",東京都江戸川区西葛西2-21-8,35.6672915,139.8537894
"
ローソン 二之江町店
",東京都江戸川区二之江町1386,35.6819526,139.8729666
"
ローソン 篠崎町七丁目店
",東京都江戸川区篠崎町7-28-4,35.7067658,139.9034474
"
ローソン 一之江七丁目店
",東京都江戸川区一之江7-38-18,35.685479,139.8811942
"
ローソン 本一色親水公園店
",東京都江戸川区本一色1-2-17,35.7143584,139.8691995
"
ローソン 西一之江店
",東京都江戸川区西一之江4-13-15,35.6973556,139.8764289
"
ローソン 小松川三丁目店
",東京都江戸川区小松川3-89,35.6992482,139.8487579
"
ローソン 北小岩四丁目店
",東京都江戸川区北小岩4-31-3,35.7396666,139.8948338
"
ローソンストア100 LS江戸川平井三丁目店
",東京都江戸川区平井3-12-5,35.7045647,139.8419423
"
ローソンストア100 LS上篠崎店
",東京都江戸川区上篠崎2-1-18,35.709513,139.9017377
"
ローソンストア100 LS船堀街道店
",東京都江戸川区松江5-6-2,35.689405,139.8669495
"
ローソンストア100 LS中葛西店
",東京都江戸川区中葛西2-2-3,35.6700299,139.8721346
"
ローソンストア100 LS江戸川松島店
",東京都江戸川区松島4-40-10松島4丁目ビル,35.7104546,139.8592428
"
ローソンストア100 LS松江七丁目店
",東京都江戸川区松江7-27-14ヴィルヌーブ一之江,35.6920052,139.8760671
"
ローソンストア100 LS江戸川南小岩四丁目店
",東京都江戸川区南小岩4-18-9池田ビル,35.725098,139.883788
"
ローソンストア100 LS葛西中央通店
",東京都江戸川区西葛西7-29-14ロイヤルシラコ,35.6596976,139.8637259
"
ローソンストア100 LS江戸川西小岩一丁目店
",東京都江戸川区西小岩1-20-16オリエントハイム島田,35.7339522,139.8796279
"
ローソンストア100 LS東瑞江店
",東京都江戸川区東瑞江1-22-10クリスタルコート,35.6905496,139.8985959
"
ローソンストア100 LS南小岩店
",東京都江戸川区南小岩8-26-9,35.7301798,139.8861953
"
ローソンストア100 LS平井店
",東京都江戸川区平井1-7-7,35.7021899,139.8481021
"
ローソンストア100 LS西一之江店
",東京都江戸川区西一之江2-10-17,35.7011276,139.8787735
"
ローソンストア100 LS西小岩四丁目店
",東京都江戸川区西小岩4-3-22メゾン・エクセル,35.737195,139.880468
"
ローソンストア100 LS北葛西二丁目店
",東京都江戸川区北葛西2-11-18,35.6739845,139.8582902
"
ローソンストア100 LS東葛西六丁目店
",東京都江戸川区東葛西6-1-5第三ニシノ商工ビル,35.6609754,139.8732666
"
ローソンストア100 LS北小岩六丁目店
",東京都江戸川区北小岩6-18-3石井ガーデンビル,35.7433362,139.8842093
"
ローソンストア100 LS江戸川三角店
",東京都江戸川区江戸川6-27-1,35.674559,139.8712797
"
ローソンストア100 LS江戸川東葛西店
",東京都江戸川区東葛西6-14-10,35.6617308,139.8761833
"
ローソンストア100 LS篠崎四丁目店
",東京都江戸川区篠崎町4-13-16,35.698791,139.911952
"
ローソン メトロス西葛西店
",東京都江戸川区西葛西6-14-1,35.6644758,139.8593261
"
ローソン メトロス葛西店
",東京都江戸川区中葛西5-43-11,35.6636976,139.8725965
"
ローソン 江戸川松江二丁目店
",東京都江戸川区松江2-3-4,35.696844,139.8716295
"
ローソン 西瑞江四丁目店
",東京都江戸川区西瑞江4-27-5,35.6826374,139.8820351
"
ローソン 江戸川松江一丁目店
",東京都江戸川区松江1-8-3,35.7023516,139.8681391
"
ローソン 江戸川瑞江一丁目店
",東京都江戸川区瑞江1-8-1,35.700363,139.892825
"
ローソン 東小松川一丁目店
",東京都江戸川区東小松川1-12-34,35.6994158,139.8666627
"
ローソン 江戸川六丁目店
",東京都江戸川区江戸川6-8-2,35.6766125,139.8781265
"
ローソン 東小松川四丁目店
",東京都江戸川区東小松川4-43-12,35.686916,139.8650668
"
ローソン BOATRACE江戸川前店
",東京都江戸川区東小松川3-5-1,35.692053,139.8622228
"
ローソン・スリーエフ 小岩店
",東京都江戸川区東小岩3-6-11,35.7314912,139.890721
"
ローソン 江戸川船堀三丁目店
",東京都江戸川区船堀3-7-17,35.6826686,139.865298
"
ローソンストア100 LS南葛西三丁目店
",東京都江戸川区南葛西3-9-14,35.6523077,139.8692173
"
ファミリーマート みすみ北小岩店
",東京都江戸川区北小岩2-35-9,35.73844,139.8888345
"
ファミリーマート 須賀江戸川二丁目店
",東京都江戸川区江戸川2-6-2,35.6866366,139.9024328
"
ファミリーマート 船堀駅前店
",東京都江戸川区船堀3-5-7,35.68302,139.8640183
"
ファミリーマート 一之江七丁目店
",東京都江戸川区一之江7-81-2-101,35.6852228,139.8800011
"
ファミリーマート 葛西ターミナル前店
",東京都江戸川区臨海町5-2-2,35.6452587,139.8701487
"
ファミリーマート 篠崎駅南口店
",東京都江戸川区篠崎町2-6-1,35.7058828,139.9045349
"
ファミリーマート 春江町四丁目店
",東京都江戸川区一之江7-65-20,35.6835337,139.8766833
"
ファミリーマート 鹿骨五丁目店
",東京都江戸川区鹿骨5-39-4,35.7177529,139.8840194
"
ファミリーマート 平井駅南口店
",東京都江戸川区平井4-11-6,35.706328,139.8435004
"
ファミリーマート 船堀一丁目店
",東京都江戸川区船堀1-8-15,35.6840733,139.863451
"
ファミリーマート 西葛西小学校前店
",東京都江戸川区西葛西3-6-11,35.6672172,139.857222
"
ファミリーマート 西葛西駅前店
",東京都江戸川区西葛西6-15-12,35.6641872,139.8612506
"
ファミリーマート 小岩駅西口店
",東京都江戸川区南小岩7丁目24-15,35.7333582,139.8820486
"
ファミリーマート 西葛西メトロ店
",東京都江戸川区西葛西6-7-1,35.6645886,139.8585482
"
ファミリーマート 鹿骨二丁目店
",東京都江戸川区鹿骨2丁目36-12,35.7050133,139.8961717
"
ファミリーマート 東瑞江二丁目店
",東京都江戸川区東瑞江2丁目14-114-8の一部,35.6890883,139.8980503
"
ファミリーマート サクマ西葛西店
",東京都江戸川区西葛西6丁目23番12号,35.6641487,139.8638156
"
ファミリーマート サクマ西葛西駅店
",東京都江戸川区西葛西6丁目14,35.664528,139.860086
"
ファミリーマート サクマ葛西駅店
",東京都江戸川区中葛西5丁目43-1 メトロセンター葛西,35.6636149,139.8721527
"
ファミリーマート 江戸川松島二丁目店
",東京都江戸川区松島2丁目29番3号,35.7083519,139.8629235
"
ファミリーマート 西瑞江二丁目店
",東京都江戸川区瑞江4丁目10-3,35.6933045,139.8915522
"
ファミリーマート 中葛西清砂大橋通り店
",東京都江戸川区中葛西6-3-13,35.66110949999999,139.8656871
"
ファミリーマート 南葛西四丁目店
",東京都江戸川区南葛西4丁目6-8,35.6495203,139.8724818
"
ファミリーマート 春江町二丁目店
",東京都江戸川区春江町2丁目20番24号,35.6976616,139.8884887
"
ファミリーマート 鹿骨前沼橋店
",東京都江戸川区鹿骨2丁目18-7フェザンレーヴ,35.7104781,139.8925275
"
ファミリーマート 江戸川松島一丁目店
",東京都江戸川区松島1丁目42番19号,35.7058986,139.8676268
"
ファミリーマート 南篠崎町二丁目店
",東京都江戸川区南篠崎町2丁目45番21,35.6912201,139.9049925
"
ファミリーマート 北葛西船堀通り店
",東京都江戸川区北葛西2丁目23番13,35.6760834,139.8593061
"
ファミリーマート 東小岩六丁目店
",東京都江戸川区東小岩6丁目26-2,35.7339702,139.8899731
"
ファミリーマート コクミンドラッグ小岩駅前店
",東京都江戸川区西小岩1丁目23-13 植草ビル,35.733498,139.880782
"
ファミリーマート 一之江六丁目店
",東京都江戸川区一之江6丁目17-27,35.6880303,139.8767672
"
ファミリーマート 篠崎町三丁目店
",東京都江戸川区篠崎町3丁目19番15号,35.7016797,139.91275
"
ファミリーマート 西小岩二丁目店
",東京都江戸川区西小岩2丁目19-12,35.7342414,139.8773874
"
ファミリーマート 一之江通り店
",東京都江戸川区一之江7丁目28番1号,35.6888451,139.8785521
"
ファミリーマート 新堀一丁目店
",東京都江戸川区新堀1丁目42-14,35.7022778,139.8892512
"
ファミリーマート 江戸川大杉五丁目店
",東京都江戸川区大杉5丁目23番14号,35.7076525,139.8791349
"
ファミリーマート 瑞江一丁目店
",東京都江戸川区瑞江1-4-11,35.6984401,139.8932119
"
ファミリーマート 船堀三丁目店
",東京都江戸川区船堀3-2-23,35.6816498,139.8628279
"
ファミリーマート 江戸川西小岩五丁目店
",東京都江戸川区西小岩5丁目17番12号,35.7414458,139.8806577
"
ファミリーマート 南篠崎町四丁目店
",東京都江戸川区南篠崎町4丁目4番1号,35.6963793,139.9008171
"
ファミリーマート 中葛西六丁目店
",東京都江戸川区中葛西6-1-10,35.6597891,139.8642401
"
ファミリーマート 一之江三丁目店
",東京都江戸川区一之江3-1-17,35.6861336,139.8844355
"
ファミリーマート 江戸川興宮町店
",東京都江戸川区興宮町2番10号,35.7204833,139.8770473
"
ファミリーマート 瑞江二丁目店
",東京都江戸川区瑞江2-6-9,35.6938547,139.8967477
"
ファミリーマート 平井三丁目店
",東京都江戸川区平井3丁目23-18,35.7053448,139.8442208
"
ファミリーマート 小岩駅東店
",東京都江戸川区西小岩1丁目27-29東京グランファースト1階,35.7342599,139.8826888
"
ファミリーマート 南葛西なぎさ店
",東京都江戸川区南葛西6-15-20エスティーム・MS,35.6468585,139.8792478
"
ファミリーマート 江戸川松江一丁目店
",東京都江戸川区松江1丁目24-9,35.7029364,139.8706072
"
ファミリーマート 江戸川船堀店
",東京都江戸川区船堀7丁目6番20号,35.6776602,139.8691861
"
ファミリーマート 瑞江駅北口店
",東京都江戸川区瑞江2-5-21 サイトウビル,35.6937174,139.8977154
"
ファミリーマート 平井駅前店
",東京都江戸川区平井5丁目16-9,35.7069625,139.8414658
"
ファミリーマート 江戸川球場店
",東京都江戸川区西葛西6-19-23,35.6623593,139.8609161
"
ファミリーマート 篠崎駅前店
",東京都江戸川区篠崎町7-29-11 メナーしのざき,35.7063107,139.9033588
"
ファミリーマート 西一之江店
",東京都江戸川区西一之江4丁目8-19,35.6949767,139.8727458
"
ファミリーマート 江戸川船堀一丁目店
",東京都江戸川区船堀1-1-38,35.6859353,139.8618775
"
ファミリーマート 南葛西三丁目店
",東京都江戸川区南葛西3丁目15番15号,35.6500099,139.8691385
"
ファミリーマート 江戸川中央店
",東京都江戸川区中央4丁目7-1,35.7108569,139.8657053
"
ファミリーマート 江戸川西葛西五丁目店
",東京都江戸川区西葛西5丁目2番9号,35.6662152,139.8597982
"
ファミリーマート 江戸川西葛西六丁目店
",東京都江戸川区西葛西6丁目13番12号,35.6636396,139.8592786
"
ファミリーマート 江戸川松江三丁目店
",東京都江戸川区松江3丁目9-3,35.6957734,139.8681314
"
ファミリーマート 南葛西レク公園前店
",東京都江戸川区南葛西3丁目24番16号,35.65017460000001,139.8717677
"
ファミリーマート 小岩サンロード店
",東京都江戸川区南小岩8丁目14番22号,35.7333217,139.8837091
"
ファミリーマート 江戸川篠崎街道店
",東京都江戸川区篠崎町4丁目21番16号,35.69933,139.9121786
"
ファミリーマート 小岩南口店
",東京都江戸川区南小岩6丁目30番8号,35.731286,139.8813084
"
ファミリーマート 葛西長島町店
",東京都江戸川区中葛西3丁目28番10号,35.6664766,139.872989
"
ファミリーマート 江戸川上篠崎店
",東京都江戸川区上篠崎3丁目14番17号,35.7095891,139.9009573
"
ファミリーマート 北葛西ぼうしば通り店
",東京都江戸川区北葛西2丁目4番9号,35.6765808,139.8537668
"
ファミリーマート 第三葛西小前店
",東京都江戸川区北葛西4丁目13番5号,35.6700558,139.861959
"
ファミリーマート 東葛西七丁目店
",東京都江戸川区東葛西7-9-10,35.659637,139.8754496
"
ファミリーマート 葛西駅北店
",東京都江戸川区中葛西3-36-9第2彦本ビル1F,35.6650723,139.8729254
"
ファミリーマート 中葛西八丁目店
",東京都江戸川区中葛西8丁目13-17,35.6588643,139.8724726
"
ファミリーマート 船堀駅南口店
",東京都江戸川区船堀3丁目9-11,35.6818136,139.8658023
"
コミュニティ・ストア 北葛西 行船店
",東京都江戸川区北葛西2-10-25,35.6715898,139.8568726
"
ミニストップ 篠崎町1丁目店
",東京都江戸川区篠崎町1-6-28,35.7094384,139.9040085
"
ミニストップ 葛西店
",東京都江戸川区東葛西6-14-3,35.6617526,139.8754193
"
ミニストップ 西小岩1丁目店
",東京都江戸川区西小岩1-30-22,35.7352773,139.8846834
"
ミニストップ 江戸川中央3丁目店
",東京都江戸川区中央3-22-7,35.7109523,139.8747533
"
ミニストップ 江戸川千葉街道店
",東京都江戸川区中央3-2-7,35.711928,139.8709478
"
ミニストップ 中葛西7丁目店
",東京都江戸川区中葛西7丁目3-8,35.65643370000001,139.8640221
"
ミニストップ 瑞江店
",東京都江戸川区瑞江2丁目19番7号,35.6955226,139.8975119
"
ミニストップ 西小岩5丁目店
",東京都江戸川区西小岩5-19-2,35.7428843,139.8817791
"
ミニストップ 中央1丁目店
",東京都江戸川区中央1丁目18-16,35.70654020000001,139.8704911
"
ミニストップ 江戸川南小岩6丁目店
",東京都江戸川区南小岩6丁目7番15号,35.7274509,139.8782244
"
ミニストップ 葛西トラックターミナル店
",東京都江戸川区臨海町4-3-1,35.6458151,139.864252
"
セブンイレブン 北小岩6丁目店
",東京都江戸川区北小岩6-16-14,35.7426734,139.8846674
"
セブンイレブン 江戸川南篠崎4丁目店
",東京都江戸川区南篠崎町4-11-5,35.6988783,139.8994769
"
セブンイレブン 東葛西6丁目店
",東京都江戸川区東葛西6-23-1,35.6619955,139.8769917
"
セブンイレブン 江戸川小松川2丁目店
",東京都江戸川区小松川2-4-3-101,35.6957375,139.8510981
"
セブンイレブン 南葛西4丁目店
",東京都江戸川区南葛西4-11,35.6515792,139.8728065
"
セブンイレブン 江戸川東葛西4丁目店
",東京都江戸川区東葛西4丁目36番10号,35.6600212,139.8844053
"
セブンイレブン 平井6丁目店
",東京都江戸川区平井6-23-21,35.7078814,139.8410559
"
セブンイレブン 西瑞江環七通り店
",東京都江戸川区西瑞江5-4-7,35.6812519,139.8809249
"
セブンイレブン 江戸川一之江7丁目店
",東京都江戸川区一之江7丁目13-28,35.6863134,139.8769468
"
セブンイレブン 南葛西1丁目店
",東京都江戸川区南葛西1ー13ー9,35.6542265,139.8721182
"
セブンイレブン 江戸川東葛西1丁目店
",東京都江戸川区東葛西1-2-4,35.6718722,139.8761699
"
セブンイレブン 南葛西小学校前店
",東京都江戸川区南葛西4-2-20,35.64745,139.873089
"
セブンイレブン 江戸川南葛西2丁目店
",東京都江戸川区南葛西2丁目25-12,35.6544655,139.8770399
"
セブンイレブン 江戸川中葛西8丁目店
",東京都江戸川区中葛西8-3-1,35.6559681,139.8689079
"
セブンイレブン 南小岩7丁目店
",東京都江戸川区南小岩7ー20ー9,35.7320464,139.8830993
"
セブンイレブン 江戸川東葛西5丁目店
",東京都江戸川区東葛西5-45-6,35.665985,139.8815979
"
セブンイレブン 江戸川西小岩1丁目店
",東京都江戸川区西小岩1-21-14,35.7347055,139.8804292
"
セブンイレブン 江戸川二枚橋店
",東京都江戸川区南小岩4-9-7,35.7225921,139.881272
"
セブンイレブン 江戸川一之江2丁目店
",東京都江戸川区一之江2-1-2,35.6930471,139.8828581
"
セブンイレブン 江戸川瑞江2丁目店
",東京都江戸川区瑞江2-47-1,35.6956357,139.895234
"
セブンイレブン 江戸川西小岩3丁目店
",東京都江戸川区西小岩3-2-16,35.7345104,139.8732696
"
セブンイレブン 江戸川船堀4丁目店
",東京都江戸川区船堀4-2-2,35.685046,139.8647393
"
セブンイレブン 江戸川春江町5丁目店
",東京都江戸川区春江町5ー15ー11,35.6790292,139.8729515
"
セブンイレブン 江戸川東松本店
",東京都江戸川区鹿骨4丁目12番6,35.7173801,139.8877129
"
セブンイレブン 江戸川南篠崎2丁目店
",東京都江戸川区南篠崎町2-38-16,35.6932092,139.9023658
"
セブンイレブン 江戸川松江南店
",東京都江戸川区松江4-1-1,35.6909804,139.86793
"
セブンイレブン 江戸川中葛西1丁目店
",東京都江戸川区中葛西1ー12ー16,35.6717878,139.8676551
"
セブンイレブン 江戸川平井7丁目店
",東京都江戸川区平井7-25-15,35.7130848,139.8397598
"
セブンイレブン 江戸川大杉店
",東京都江戸川区大杉4-1-4,35.7076891,139.8804269
"
セブンイレブン 谷河内店
",東京都江戸川区篠崎町7-12-21,35.7032239,139.9016127
"
セブンイレブン 南小岩店
",東京都江戸川区南小岩8-1-13,35.7279307,139.8864159
"
セブンイレブン 松島店
",東京都江戸川区松島4-43-15,35.7119391,139.8596393
"
セブンイレブン 江戸川篠崎町2丁目店
",東京都江戸川区篠崎町2-56-12,35.707779,139.9091065
"
セブンイレブン 江戸川北小岩7丁目店
",東京都江戸川区北小岩7-16-19,35.7425924,139.8910425
"
セブンイレブン 東小岩5丁目店
",東京都江戸川区東小岩5ー20ー4,35.7335422,139.8884596
"
セブンイレブン 江戸川松本2丁目店
",東京都江戸川区松本2-1-6,35.7126698,139.8793097
"
セブンイレブン 江戸川東瑞江1丁目店
",東京都江戸川区東瑞江1-38-1,35.6901815,139.8991727
"
セブンイレブン 江戸川松島1丁目店
",東京都江戸川区松島1-4-7,35.7034603,139.8612525
"
セブンイレブン 江戸川上一色店
",東京都江戸川区上一色1-4-16,35.7238071,139.8709992
"
セブンイレブン 中葛西5丁目店
",東京都江戸川区中葛西5-8-15,35.6615118,139.8668095
"
セブンイレブン 小岩駅西口店
",東京都江戸川区西小岩1-13-18,35.731795,139.879327
"
セブンイレブン 江戸川北葛西2丁目店
",東京都江戸川区北葛西2-22-15,35.6747033,139.8585768
"
セブンイレブン 江戸川西葛西7丁目店
",東京都江戸川区西葛西7-15-15,35.659078,139.860646
"
セブンイレブン 江戸川平井4丁目店
",東京都江戸川区平井4-14-5,35.706851,139.8446444
"
セブンイレブン 一之江駅環七通り店
",東京都江戸川区一之江7-34-10,35.6872225,139.8823626
"
セブンイレブン 江戸川春江町3丁目店
",東京都江戸川区春江町3-38-11,35.6970846,139.8881634
"
セブンイレブン 江戸川松江6丁目店
",東京都江戸川区松江6-3-2,35.6862428,139.8706545
"
セブンイレブン 江戸川篠崎町7丁目店
",東京都江戸川区篠崎町7-17-13,35.7072116,139.9014776
"
セブンイレブン 江戸川西一之江2丁目店
",東京都江戸川区西一之江2ー26ー10,35.6977043,139.8816642
"
セブンイレブン 江戸川鹿骨店
",東京都江戸川区西篠崎1-2-4,35.7139434,139.8933244
"
セブンイレブン 江戸川西葛西6丁目店
",東京都江戸川区西葛西6-12-1,35.6626848,139.859031
"
セブンイレブン 江戸川西一之江3丁目店
",東京都江戸川区西一之江3-3-3,35.6957331,139.875894
"
セブンイレブン 江戸川船堀2丁目店
",東京都江戸川区船堀2丁目22-16,35.68281959999999,139.8629313
"
セブンイレブン 中小岩店
",東京都江戸川区北小岩2-22-14,35.736888,139.8864309
"
セブンイレブン 江戸川葛西駅西店
",東京都江戸川区中葛西3-15-16,35.6639947,139.8695248
"
セブンイレブン 江戸川松江4丁目店
",東京都江戸川区松江4-28-15,35.6907862,139.8715814
"
セブンイレブン 江戸川船堀7丁目店
",東京都江戸川区船堀7-14-10,35.6766635,139.8697452
"
セブンイレブン 西葛西3丁目店
",東京都江戸川区西葛西3ー15ー7,35.6650959,139.8585862
"
セブンイレブン 江戸川西瑞江今井店
",東京都江戸川区西瑞江3-32-12,35.6848166,139.8897414
"
セブンイレブン 江戸川臨海町2丁目店
",東京都江戸川区臨海町2-2-7,35.6528461,139.8612747
"
セブンイレブン 篠崎店
",東京都江戸川区南篠崎町1ー26ー21,35.6952317,139.9099314
"
セブンイレブン 江戸川東瑞江2丁目店
",東京都江戸川区東瑞江3丁目28番12号,35.6890338,139.8958667
"
セブンイレブン 東大島駅前店
",東京都江戸川区小松川1-4-1,35.6897753,139.8489816
"
セブンイレブン 南篠崎店
",東京都江戸川区南篠崎町5-9-12,35.6921262,139.9067558
"
セブンイレブン 葛西駅前店
",東京都江戸川区東葛西6-2-1,35.6623034,139.8733466
"
セブンイレブン 葛西三角通り店
",東京都江戸川区中葛西1-49-16,35.6732091,139.871715
"
セブンイレブン 平井2丁目店
",東京都江戸川区平井2-22-12,35.7029197,139.8473667
"
セブンイレブン 江戸川5丁目中央店
",東京都江戸川区江戸川5-13-14,35.6750934,139.8826287
"
セブンイレブン 江戸川中央2丁目店
",東京都江戸川区中央2丁目23-9,35.7061502,139.873992
"
セブンイレブン 江戸川東葛西2丁目店
",東京都江戸川区東葛西2-14-14,35.6673371,139.876504
"
セブンイレブン 江戸川南葛西6丁目店
",東京都江戸川区南葛西6-20-6,35.6479358,139.8761073
"
セブンイレブン 江戸川区役所北店
",東京都江戸川区中央1-9-15,35.7086559,139.8696412
"
セブンイレブン 北小岩店
",東京都江戸川区北小岩8-2-9,35.7494207,139.8819163
"
セブンイレブン 江戸川清新プラザ店
",東京都江戸川区清新町1-3-10,35.6623605,139.8556525
"
セブンイレブン 南小岩5丁目店
",東京都江戸川区南小岩5-20-14,35.72558009999999,139.8829052
"
セブンイレブン 江戸川大杉2丁目店
",東京都江戸川区大杉2-22-12,35.7028299,139.8806407
"
セブンイレブン 篠崎インター店
",東京都江戸川区篠崎町2-22-15,35.7049844,139.906873
"
セブンイレブン 江戸川東瑞江鎌田店
",東京都江戸川区東瑞江2丁目28番11,35.6870677,139.8981786
"
セブンイレブン 江戸川松島南店
",東京都江戸川区松島1-22-14,35.7035819,139.8649904
"
セブンイレブン 江戸川中葛西3丁目店
",東京都江戸川区中葛西3-29-3,35.6659549,139.8724884
"
セブンイレブン 東小岩店
",東京都江戸川区東小岩1-6-1,35.7206457,139.8907908
"
セブンイレブン 江戸川鹿骨3丁目店
",東京都江戸川区鹿骨3丁目17-7,35.7158335,139.8918292
"
セブンイレブン 江戸川船堀西店
",東京都江戸川区船堀2-743-1,35.6842741,139.8579262
"
セブンイレブン 葛西駅東店
",東京都江戸川区東葛西6-18-5,35.6632546,139.8753028
"
セブンイレブン 江戸川東葛西十丁川店
",東京都江戸川区東葛西5-9-19,35.665533,139.8739328
"
セブンイレブン 江戸川西葛西4丁目店
",東京都江戸川区西葛西4-2-14,35.666999,139.8631546
"
セブンイレブン 江戸川本一色2丁目店
",東京都江戸川区本一色2-20-3,35.7176567,139.8735542
"
セブンイレブン 江戸川新堀2丁目店
",東京都江戸川区新堀2丁目3-1,35.704011,139.8899293
"
セブンイレブン 江戸川東葛西7丁目店
",東京都江戸川区東葛西7-16-13,35.6584131,139.8784849
"
セブンイレブン 江戸川松江5丁目店
",東京都江戸川区松江5丁目18-16,35.6856537,139.8675683
"
セブンイレブン 篠崎駅西口店
",東京都江戸川区篠崎町7-21-5,35.7047996,139.9029899
"
セブンイレブン 江戸川南小岩8丁目店
",東京都江戸川区南小岩8丁目24番11号,35.7308233,139.8866717
"
セブンイレブン 江戸川興宮町店
",東京都江戸川区興宮町5-6,35.7217501,139.8754835
"
セブンイレブン 江戸川東松本2丁目店
",東京都江戸川区東松本2丁目11番12号,35.7190734,139.882854
"
セブンイレブン 江戸川北葛西5丁目店
",東京都江戸川区北葛西5丁目15-18,35.6736507,139.8643184
"
セブンイレブン 江戸川西小岩4丁目店
",東京都江戸川区西小岩4-4-6,35.7385848,139.8790306
"
セブンイレブン 江戸川中葛西3丁目西店
",東京都江戸川区中葛西3丁目32番20,35.6651835,139.8712519
"
セブンイレブン 江戸川東小岩4丁目店
",東京都江戸川区東小岩4-33-8,35.730389,139.8893883
"
セブンイレブン 江戸川篠崎6丁目店
",東京都江戸川区篠崎町6-20-12,35.701497,139.9064484
"
セブンイレブン 江戸川中央4丁目店
",東京都江戸川区中央4-2-13,35.7123521,139.86567
"
セブンイレブン 江戸川船堀3丁目店
",東京都江戸川区船堀3丁目10-5,35.6818537,139.8647595
"
セブンイレブン 江戸川葛西駅南店
",東京都江戸川区中葛西5-19-21,35.6636142,139.8705663
"
セブンイレブン 同潤会松江店
",東京都江戸川区松江2-32-4,35.7028188,139.8745221
"
セブンイレブン 江戸川東葛西5丁目西店
",東京都江戸川区東葛西5-15-14,35.6641783,139.8759172
"
セブンイレブン 江戸川平井7丁目西店
",東京都江戸川区平井7-17-23,35.7149084,139.8372699
"
セブンイレブン 江戸川中央1丁目店
",東京都江戸川区中央1-1-20,35.7036098,139.8683685
"
セブンイレブン 江戸川南葛西左近通り店
",東京都江戸川区南葛西1-2-21,35.6529135,139.8687854
"
セブンイレブン 新小岩ルミエール店
",東京都江戸川区松島4丁目46-8,35.7143133,139.8608238
"
セブンイレブン 江戸川上篠崎3丁目店
",東京都江戸川区上篠崎3-1-18,35.7098505,139.8989781
"
セブンイレブン 江戸川松江1丁目店
",東京都江戸川区松江1-2-6,35.699605,139.8680396
"
セブンイレブン 江戸川店
",東京都江戸川区北小岩4-29-13,35.7407925,139.8955967
"
セブンイレブン 江戸川篠崎4丁目店
",東京都江戸川区篠崎町4丁目26-11,35.701451,139.9099435
"
セブンイレブン 江戸川北葛西1丁目店
",東京都江戸川区北葛西1丁目25-13,35.6776533,139.8596861
"
セブンイレブン 江戸川鹿骨1丁目店
",東京都江戸川区鹿骨1-53-13,35.7087458,139.890133
"
セブンイレブン 江戸川小松川3丁目店
",東京都江戸川区小松川3-11-1,35.6984514,139.8519754
"
セブンイレブン 江戸川西一之江4丁目店
",東京都江戸川区西一之江4-1,35.6959783,139.8724865
"
デイリーヤマザキ 平井西店
",東京都江戸川区平井6-76-6,35.7144546,139.8424657
"
デイリーヤマザキ アクラス平井店
",東京都江戸川区平井7-4-1,35.7152254,139.835006
"
デイリーヤマザキ 江戸川南葛西6丁目店
",東京都江戸川区南葛西6-2-1,35.6440401,139.8761657
